{"type":"FeatureCollection","features":[{"type":"Feature","properties":{"name":"LGV Sud-Est, 1981 section (Saint-Florentin - Lyon)","opened":"27 Sept 1981"},"geometry":{"type":"LineString","coordinates":[[3.717532362045234,47.96312267056174],[3.727060261434998,47.95870294573997],[3.733250296035947,47.955748792718445],[3.739026358031791,47.95328910367151],[3.747806974975981,47.94971404458193],[3.758567684747195,47.94562723701457],[3.769398729875699,47.94220860770142],[3.779257581143132,47.93913023845466],[3.78424515195556,47.93763061550675],[3.804782297195157,47.931452532050855],[3.808683676341126,47.93000273169958],[3.813342972126249,47.92790580247885],[3.817484106196909,47.925882045861115],[3.821022412684375,47.92382049973355],[3.830908289216247,47.91757059812074],[3.835161038108656,47.91481993906232],[3.838199931336395,47.91276140186946],[3.838950220704674,47.91218993050696],[3.841398609132995,47.9103249512179],[3.843129837067126,47.908775677189524],[3.844955886922377,47.907133075073794],[3.847033849781757,47.90494750040447],[3.850055948558702,47.90151508837311],[3.854584216197245,47.895399383875855],[3.858877986967942,47.88939408158349],[3.863387407442429,47.883085515161035],[3.865218822257324,47.88092348118249],[3.867622726519557,47.878268876497074],[3.872609204817,47.873781323569894],[3.880629713981432,47.86668490501915],[3.882592017465686,47.865219747399905],[3.885581862866994,47.86334826394114],[3.888649625959859,47.86167822095828],[3.889261788541495,47.86134494671659],[3.893169634332145,47.85959113938434],[3.896419455580693,47.8583649681528],[3.917277390396801,47.8517125895943],[3.927595371094861,47.848385669457635],[3.930542805562209,47.84744149080151],[3.933981368820867,47.84614452593833],[3.949436821189647,47.838962081405235],[3.950631198587784,47.838406864538946],[3.953198210256935,47.83710243027083],[3.9568654456726,47.83482557645617],[3.959341664451075,47.83323498765703],[3.961169123683514,47.832112245929736],[3.962825784400067,47.83091271571714],[3.964624856819266,47.82957246671536],[3.966319243483009,47.828177242062964],[3.968684449274275,47.82607883684257],[3.970597823154772,47.8242073580188],[3.97301231725568,47.82142478567814],[3.976272405447825,47.81741761768829],[3.976577962443211,47.81704200336772],[3.981233053434658,47.81111521521444],[3.983874189088543,47.80833049108568],[3.98670426025685,47.805697587604286],[3.989620250314007,47.80324526668215],[4.002265052645156,47.79398491955601],[4.007284499363815,47.79006304385957],[4.010870660941599,47.78701838051919],[4.014635785744016,47.78360927802157],[4.016299703836308,47.781919953049595],[4.018128694203726,47.7800628824015],[4.022583447428378,47.774889453355655],[4.025408482253971,47.77111144444603],[4.027420772066916,47.76813580274567],[4.029765701348915,47.764180491577385],[4.0410995467409,47.745843698789436],[4.045586196669633,47.73833879347325],[4.053935198360042,47.72436650738456],[4.064062631061855,47.70753082076956],[4.068694198113393,47.70035837990803],[4.073184111869023,47.69316286189558],[4.074841206868684,47.69050666662922],[4.078585944011371,47.68458376426939],[4.085208588509629,47.67391768424618],[4.091392516762403,47.66414828598241],[4.100107607900202,47.6500429261818],[4.10601305977767,47.64005193802491],[4.118695284544663,47.617121025373805],[4.131135385965591,47.59452310977196],[4.132779583520948,47.59004432500794],[4.133427076906863,47.587560209178754],[4.133659628971913,47.585202896417954],[4.133773739582994,47.58404611300531],[4.133952046378551,47.58096668592792],[4.13359853735324,47.57791407935906],[4.132963821558283,47.57521306218271],[4.132563602003386,47.57380850106608],[4.130566479265311,47.56781150608835],[4.129726581222033,47.56458562237258],[4.129339502991823,47.56179597183355],[4.129246712126973,47.56033163266893],[4.129223122213394,47.558632579380664],[4.129207580994892,47.5575131700689],[4.129654633144046,47.55427135636568],[4.130300478124535,47.5516695248991],[4.130518664945622,47.55062826989737],[4.13198261526382,47.546420185813396],[4.132622425722849,47.54451612637652],[4.133330611556684,47.54097868682474],[4.133864384573779,47.53407981875602],[4.134313784593805,47.52903774388672],[4.135124452267092,47.519666109933134],[4.135471349434062,47.51756948893098],[4.135976160307973,47.515150361121535],[4.136819153401551,47.51216972981909],[4.137539268567764,47.510195047680426],[4.138304670030045,47.50841528667782],[4.13958904246152,47.50586291723894],[4.141193800920904,47.50288873995157],[4.142888185172231,47.50026253273545],[4.144551076329231,47.498097123956],[4.146758915406295,47.49542394052268],[4.150185780783566,47.49199905696479],[4.164464795390009,47.478278747278836],[4.182036153750347,47.46119879297305],[4.19283507717008,47.450778493096024],[4.193832750548506,47.44979355205701],[4.201088349197137,47.44262918908738],[4.203399163128121,47.44021700928218],[4.205112455946973,47.43824559451793],[4.207065143455735,47.43585278839764],[4.208780722096248,47.43349042474979],[4.21066796347948,47.43054010556789],[4.211932457422286,47.42825215779573],[4.213036874160665,47.42601590166583],[4.215017680176144,47.42202488808287],[4.217234636594789,47.41722021654898],[4.221306490111795,47.40865131785979],[4.227710239412785,47.39487052493992],[4.229447070782688,47.39120345864262],[4.231038499001188,47.38784292151205],[4.234307674656749,47.381041101663754],[4.236008916301987,47.37718521601601],[4.237379443153915,47.373360609088394],[4.239560909412296,47.36552190462932],[4.242635069991967,47.354575290873726],[4.244099610523961,47.351307802483745],[4.245676338504301,47.34845777595495],[4.248750678397006,47.34379126417483],[4.25106038299934,47.34069600968684],[4.255707678205894,47.334853951390535],[4.259727588985856,47.32943718323419],[4.26211353635378,47.32614545844473],[4.263811690620768,47.32329381704872],[4.264536850233167,47.32202270297945],[4.264534079879965,47.32202755917909],[4.265053504696721,47.32111703216965],[4.266148518344115,47.31901644144219],[4.266977808491106,47.317425476947115],[4.268371053442678,47.31385133704436],[4.269627825825737,47.30972040101342],[4.270681296205267,47.30481009553977],[4.271095345460734,47.301497833667945],[4.271828369029583,47.29433002035445],[4.272379461754451,47.28915854676654],[4.273135381974355,47.28629056367644],[4.274036960362937,47.283656794706225],[4.275531709938574,47.28009534632484],[4.276428142626108,47.27811757686045],[4.278184529459527,47.27522313227221],[4.280279906060554,47.27198718467853],[4.283175059979487,47.26779880982638],[4.286360840383483,47.262976300360805],[4.289783694748196,47.256950751593976],[4.29001579237609,47.25649017154543],[4.290957756783194,47.25462082833536],[4.294194472740218,47.24686651664749],[4.296778252111298,47.24057433495225],[4.301747081712946,47.228651672831575],[4.307505621123955,47.21434133986773],[4.309360864347813,47.209793422677876],[4.313136128368459,47.20250684739785],[4.316221525513908,47.19719594954081],[4.321279053207954,47.189671155377845],[4.330862995757082,47.174836260537056],[4.333023448255862,47.17115452820263],[4.335227340318904,47.16676040869059],[4.33617585528174,47.16453325149691],[4.33791530184323,47.160448446450374],[4.343291190424629,47.14543749779581],[4.344226142839877,47.14273279726755],[4.345794328787621,47.13914914129695],[4.345802672309746,47.139130073104255],[4.34714816472757,47.136054916590716],[4.350267812938615,47.12994690224057],[4.352940203212356,47.12564418102818],[4.35934786234044,47.11532435727824],[4.360290275579325,47.113777903836606],[4.361268932507528,47.11204956122],[4.362704897320775,47.10900377156091],[4.363168409678151,47.10772814157176],[4.364214988723235,47.104854402623964],[4.36501638796125,47.10178814118985],[4.365559118059866,47.09900408576648],[4.365799917484995,47.09643720455582],[4.365848814837659,47.095915936835596],[4.365842463764121,47.09163088763532],[4.364942281427307,47.08502309028659],[4.364220331528329,47.079861414729095],[4.363196585785798,47.07542496446248],[4.360603088157646,47.06777650123553],[4.359362382000357,47.06455869267178],[4.358239886888326,47.060978833305846],[4.357726631615439,47.05783820687019],[4.357510260025252,47.05383745466248],[4.357807691410389,47.05093984009469],[4.358152335607902,47.04815679205322],[4.359453695477534,47.04420586037115],[4.360779284298281,47.04124267519517],[4.362495409049877,47.03843385575081],[4.364213019670728,47.03611045617021],[4.366436487735267,47.03361354285717],[4.369220682964472,47.03099842253057],[4.372050306061101,47.0287732155721],[4.374740182305439,47.02698246392339],[4.377454202751877,47.02534490102374],[4.380719374313787,47.0237146402868],[4.383404394755145,47.02255186583024],[4.383708660828296,47.02243727899573],[4.387002863720644,47.021196596936456],[4.390830991756503,47.02004782394419],[4.405999363432769,47.01624883186951],[4.42782640933778,47.010753845360504],[4.431429082269933,47.009653822839795],[4.433101789165416,47.00911247548523],[4.435282630397447,47.00840662497246],[4.438915935379256,47.006909684133426],[4.442060960711123,47.00547456226855],[4.446567874209226,47.0030566454113],[4.450867340213231,47.00032278921476],[4.45316083225948,46.998621177419494],[4.469580870787116,46.985710680210836],[4.472536383991681,46.98338373577024],[4.474431188109437,46.98181009521647],[4.476165819342929,46.980350142518965],[4.476906772840295,46.979587575621125],[4.47741561085887,46.979063879616895],[4.47929522359266,46.976945948306145],[4.481339428889304,46.97414187941079],[4.48270524095778,46.97189089256813],[4.483787848009278,46.969727284205],[4.484738863228448,46.96723034063009],[4.48551752124586,46.96440058942694],[4.486029648055125,46.960778598108014],[4.486220475575098,46.95711741075456],[4.486309942267977,46.955400744301286],[4.48641576645441,46.95405930814863],[4.486899222171045,46.9516241925913],[4.487783378629095,46.9487229670364],[4.490860392360791,46.93928900000408],[4.49127205209031,46.93795755415075],[4.491414033366124,46.93730094241383],[4.49137787715912,46.93746815325401],[4.491904648617392,46.935031899843885],[4.492150516427788,46.9321252050918],[4.492149433690794,46.931948282393456],[4.492138899516921,46.93022690386778],[4.491496428297355,46.9231858139208],[4.490648898610081,46.913872000509116],[4.489427888647474,46.90133838757731],[4.48914743531549,46.89845631696082],[4.488347221625578,46.88944504022013],[4.488367635672679,46.88738283928762],[4.488379560551286,46.8861781300025],[4.488812789395543,46.88342253158605],[4.489889921212227,46.87965352200134],[4.491158889739479,46.876203078765386],[4.49234668727205,46.87276762769987],[4.493059853721392,46.86984085615199],[4.493564370627941,46.86525560683516],[4.494031904517454,46.86007056999728],[4.49445551988982,46.85403456212173],[4.494457249347678,46.85188477259487],[4.493762472422728,46.84513737470395],[4.493250919585593,46.84005394515776],[4.492725800749608,46.834834704846614],[4.492516537617463,46.83166859166162],[4.492463420089493,46.82826313653401],[4.492664693651439,46.8259711474984],[4.493842762824805,46.816323699089686],[4.495076306998903,46.80575414663123],[4.496171724690115,46.79829936572402],[4.496357898355559,46.797066679692925],[4.49794166090992,46.78657803615663],[4.499023312074922,46.779388596849735],[4.499409122039112,46.776438041749365],[4.499744448990915,46.76996406758943],[4.499856217506841,46.76851920381009],[4.500204664275808,46.764014234065954],[4.500761959443735,46.76103487077937],[4.50150083346556,46.758230899925486],[4.502553982825116,46.754996479047385],[4.503697990655004,46.75260930561813],[4.506399949800617,46.74652807772732],[4.509091577136563,46.74102062423364],[4.512546135218959,46.73527949754865],[4.514654394726949,46.73206109421095],[4.523794824445771,46.7193698546435],[4.524163086404262,46.718863832034614],[4.52606188557245,46.716254554419244],[4.528013494366269,46.713478446696655],[4.52987211428476,46.71101066415322],[4.530897199326636,46.70979019230872],[4.53373105422833,46.70679903365057],[4.537081204744526,46.70399009712643],[4.539745991399432,46.7020697476356],[4.542378740022503,46.70045688856681],[4.544856608395001,46.699111296157135],[4.549916174745571,46.69651626414793],[4.553011237771971,46.69477126330716],[4.555742245608975,46.69307299314252],[4.559480935357138,46.690439582363474],[4.562709080044876,46.68770131561149],[4.565886691569927,46.68462859297365],[4.568374542635773,46.6815652074932],[4.572429711350517,46.675897612912266],[4.575504403410291,46.6714160057602],[4.57687088209746,46.6688843469153],[4.578026827712241,46.66609031689904],[4.581938614104311,46.651529809164394],[4.582210839779092,46.650516229845486],[4.583065155203376,46.64760696935771],[4.584009229706728,46.64522063693204],[4.585915851572577,46.641089872181304],[4.591881144220073,46.628833539395835],[4.593126708794011,46.62638708167102],[4.595519110728266,46.62297532138008],[4.59782880114612,46.62020684879868],[4.599726496903605,46.61790478021434],[4.601157293299054,46.61626535514604],[4.603165937261164,46.61361265562373],[4.603940910591794,46.612329772921555],[4.604693554620931,46.61100711512861],[4.605325342897951,46.60989678926614],[4.606099965623348,46.60800123355835],[4.607013852203946,46.60533587669185],[4.60889926459364,46.59509772739864],[4.610106405978941,46.591190912494035],[4.61202597920132,46.58717227332444],[4.616971606082587,46.57710658238913],[4.618970468797839,46.57351831351685],[4.621277574353724,46.57009316927853],[4.636463949908318,46.549304586969804],[4.639685920973994,46.544114833462245],[4.639812929122615,46.54386960330006],[4.642114961036325,46.53942437981852],[4.643578994696846,46.53566838673126],[4.647220496557572,46.52362343579357],[4.649533445708254,46.515841678381605],[4.65079271297059,46.51268225103675],[4.652165160751676,46.50992604440218],[4.654422714498043,46.50569109164994],[4.655560339270764,46.50320349593027],[4.656117878833776,46.50158988453517],[4.656492860843897,46.500103626776884],[4.657850016552889,46.49472378941688],[4.658481266275379,46.49221557464891],[4.659134361025159,46.48976288236146],[4.660491363119138,46.48653209249489],[4.66496394663117,46.47744804845609],[4.667187751355441,46.4715239608298],[4.668635005040347,46.46768887453053],[4.669676954957325,46.46465224787374],[4.671150446174786,46.46038077923174],[4.671272410131163,46.459763576398764],[4.673161605033245,46.45020143236726],[4.673964060725896,46.44607106773601],[4.67453442763873,46.44227916976413],[4.674600331455361,46.43831380830919],[4.674111959756995,46.435434588924814],[4.673388343662264,46.43256487113789],[4.672718563523022,46.43088181672172],[4.672412553708421,46.43016287200314],[4.671560257163164,46.428160367310994],[4.669730059069122,46.42519095597462],[4.66823283420058,46.423104669746714],[4.666953706509843,46.421545714198764],[4.663237629003237,46.4175231845384],[4.661915021953825,46.415853117538376],[4.660430129408839,46.41350629856859],[4.658688500126561,46.409980413692864],[4.657953658900713,46.407715381470545],[4.657666242777186,46.40622568582435],[4.65759744499324,46.405709171506935],[4.657352586473619,46.403870763048396],[4.657336610782666,46.402014127261225],[4.657544484952609,46.39955389887371],[4.65820016256421,46.396556628504285],[4.659210512022908,46.393945115558985],[4.660313738048491,46.391737121794286],[4.66115678346389,46.39034523481036],[4.663002406550858,46.3878772275699],[4.665207312761216,46.38546691716996],[4.666575083234583,46.38376567328292],[4.667092739767335,46.38312177592332],[4.669162913704858,46.37987514274465],[4.671478658019073,46.37613269175467],[4.672388159588529,46.374723367900046],[4.673914842483921,46.37269035475614],[4.675409650318015,46.370997483236124],[4.678131776526761,46.368532840123116],[4.681300576104707,46.366243175000236],[4.684171157242825,46.36449750727889],[4.687584949131977,46.362715803770854],[4.691393884167046,46.360676825138185],[4.6921035558999,46.3602250780798],[4.696199315193119,46.357617657972376],[4.71113727377679,46.34781674253376],[4.714509301534448,46.34540654955349],[4.717908617158647,46.34259094966893],[4.726919449242501,46.33491543399942],[4.729074742888312,46.33295602913807],[4.730856389100967,46.331295454015816],[4.732962780683294,46.32884799799454],[4.733169708085688,46.32860755119808],[4.73721639871362,46.32339401478451],[4.738815143002727,46.32166098293082],[4.741146941928815,46.31962016833103],[4.744273333279637,46.31718486988878],[4.755103988630555,46.30918673131675],[4.761455995366649,46.30449438016576],[4.764476344553199,46.30194843980468],[4.766548458791962,46.29998956676322],[4.769713867743964,46.29633822872598],[4.770957422562787,46.294702721739235],[4.771336992937462,46.29416814023723],[4.771995825973767,46.29324022131621],[4.773191503916429,46.291266088529774],[4.774587811986858,46.2887738926066],[4.775916073759912,46.28654000776586],[4.777027519240472,46.28460791844861],[4.778747742354114,46.28238901403702],[4.780435288781374,46.28040794750641],[4.78052562855802,46.28031914117278],[4.782874322300322,46.27801018801005],[4.784932480255869,46.27626417605148],[4.785810833175599,46.27560525628927],[4.787997724661717,46.273964603053436],[4.791600115927986,46.27152713457785],[4.793410383342863,46.2704373375982],[4.795015327251662,46.269564966156416],[4.795970998360162,46.26914367672058],[4.799225618459125,46.267616434215164],[4.801887364627028,46.266535235912684],[4.803685465281866,46.2658804055412],[4.803678963639924,46.26588277337799],[4.804121873949485,46.26572146807138],[4.810460519509064,46.26382794603592],[4.816321218490635,46.262248726496196],[4.824420137834996,46.26002485959819],[4.82794393788269,46.25885133769991],[4.831459186239656,46.257426519792006],[4.834687464044862,46.255852630743426],[4.837295679178554,46.254400357531736],[4.841334714442257,46.25180789076989],[4.844606179401371,46.24914394389107],[4.847066772556989,46.2469119342944],[4.848270052432142,46.24559389192614],[4.849157671580882,46.244567988996636],[4.851000235694603,46.242321696895644],[4.851394850293773,46.24177643412893],[4.852460547919649,46.240373610227806],[4.853358109935854,46.23894878636809],[4.854020909955067,46.23772325463984],[4.854836926788392,46.23601192268839],[4.855449421141119,46.23460251539458],[4.855953154119665,46.233291672663384],[4.856325333590729,46.23216572408164],[4.856702829701669,46.230835686858],[4.857014133492928,46.229540728547235],[4.857242941424111,46.22825136592224],[4.857496377691321,46.226183540423364],[4.857578699463502,46.22478850145845],[4.857589320524848,46.22376082040451],[4.857595151517863,46.22319660414118],[4.857470245110878,46.21896988338715],[4.857401473291307,46.217130757164135],[4.857328874505414,46.214437429263384],[4.857223329680508,46.21105189233531],[4.857141040888696,46.208352352160965],[4.857047426622087,46.205408620535046],[4.856984977421638,46.20320388216579],[4.856926662211579,46.201753453928205],[4.856832869465807,46.20033973009521],[4.856687630114096,46.198671845228006],[4.856397158144568,46.196239203438225],[4.856129413374583,46.19457564701879],[4.855696049737538,46.19224925104942],[4.855257202272986,46.190314162546514],[4.854642224572421,46.18796331269915],[4.854092654414309,46.186002569455525],[4.853981145147869,46.18560471189672],[4.853462545224551,46.184110788169185],[4.852625011416644,46.18177843285564],[4.851743212017813,46.17931079280026],[4.85065657619652,46.17630035535121],[4.849702203364363,46.17376163291795],[4.848862574731531,46.17144841248653],[4.848142817832254,46.16951361348481],[4.847618129163192,46.168011265428376],[4.845106008969244,46.161178259623654],[4.84402849192946,46.15799468533828],[4.843543066733723,46.15619808459389],[4.843070514348052,46.15402253898982],[4.842875703114294,46.15289849987777],[4.842696241664083,46.15165190700027],[4.84261963783599,46.15103879630144],[4.842461692908043,46.149037702779],[4.84243568346203,46.14855362866855],[4.842386815419634,46.14680765955843],[4.842391826484723,46.144680445615776],[4.842365212218373,46.140525701507904],[4.84231677702199,46.117856275641635],[4.84235756219829,46.115704370457806],[4.842524451554891,46.113211148269016],[4.842732653782354,46.11153739827793],[4.842897383103856,46.110485078936236],[4.843183806501777,46.10900566964645],[4.84361051492258,46.10716692791777],[4.844283054441735,46.10452953578234],[4.844843154678544,46.1022870430669],[4.84538994209463,46.100104263488795],[4.845917616189545,46.09808116739575],[4.846150212665224,46.09715354073217],[4.846386282498933,46.09621202927504],[4.846964599815248,46.09397135101019],[4.84736013219177,46.092381774943604],[4.8479442005641,46.08986049403026],[4.8481959359318,46.088628133665125],[4.848450885362638,46.08721934362058],[4.848794868410474,46.08473596757384],[4.84899413801373,46.08303483023424],[4.849197937936162,46.08074286303345],[4.849277084634972,46.07901180715837],[4.84931052609539,46.07701161861782],[4.849319139969299,46.07536246288759],[4.849304599998913,46.07393256156527],[4.849282267397455,46.072069322350856],[4.849284559928163,46.06970834834761],[4.849287983179742,46.06772352352861],[4.849273632229058,46.06530123411654],[4.849266159981674,46.06344621288667],[4.849254906046134,46.06120662441137],[4.849247352369026,46.05871409791059],[4.849231252114461,46.05696546801669],[4.849257721158573,46.05606205417294],[4.849248697599085,46.053401522638524],[4.849250988738715,46.05083870918827],[4.849288563249933,46.0486896993058],[4.849379683574958,46.04622743754843],[4.849482603031255,46.04447899040983],[4.849718770472863,46.04175140873196],[4.849808382479624,46.040533232726496],[4.850152334290698,46.03735773609988],[4.850416238754277,46.03522628008558],[4.850699539850602,46.033309133701756],[4.851143593218809,46.03060869476428],[4.851574613024791,46.02821815922752],[4.851807860233391,46.02708171030766],[4.852918588191991,46.02214686067906],[4.853324220172714,46.020569220111454],[4.85370577729,46.01910109621055],[4.854536755674791,46.016001825624585],[4.855150660121493,46.013675496510196],[4.855674847365583,46.01176501297854],[4.856100499364496,46.010130988449404],[4.85671784256273,46.00787824886797],[4.857030966808637,46.00664033535521],[4.857808162267239,46.00377181829934],[4.85864842840468,46.00072189801834],[4.858883803635651,45.999867493014165],[4.859447300733573,45.99768433814357],[4.860017493756515,45.995520194982255],[4.860176813876932,45.99494623166631],[4.860592329325097,45.993147064853616],[4.861011591120517,45.99110717501297],[4.861308363546703,45.989425647704785],[4.861640633973566,45.98717190194591],[4.861816690813387,45.98561773376003],[4.861982117633661,45.983479355747676],[4.86211758252596,45.9806359588279],[4.862262206465682,45.97608175876677],[4.862326133559588,45.97391742312394],[4.862408793897386,45.97212678511345],[4.862533144978347,45.97057771495693],[4.862777645145029,45.968636010983666],[4.863188148957966,45.965978988811784],[4.864573856518394,45.95740715773782],[4.865332156666785,45.952989464726734],[4.865767484239863,45.95019211694207],[4.868560206967624,45.93341292249724],[4.868847386523637,45.931997371830825],[4.869154507854414,45.93075694277156],[4.86977140008338,45.92835537246935],[4.86988829598344,45.92792301998038],[4.870222320442674,45.92668755530562],[4.870796677867666,45.924470851193824],[4.871223959079502,45.9228260870498],[4.871695978073728,45.92094540955865],[4.872323361757926,45.91790330269239],[4.872768657136372,45.915119211220066],[4.873021209720768,45.91311465761132],[4.873415811893458,45.91039373652415],[4.873855559893128,45.90711100094872],[4.874347420873806,45.904249681295205],[4.874736596502318,45.90244686160233],[4.875365684051069,45.89994304776648],[4.87546517581199,45.89956093844993],[4.876033248029888,45.89737908998533],[4.876746614333743,45.894851201130244],[4.87697645919164,45.89399369018693],[4.877079522758015,45.89360917805628],[4.877700036712517,45.89146842570577],[4.878262070539046,45.889670575139824],[4.878733293991572,45.8882071985942],[4.879299714970596,45.88683974932391],[4.880127618541247,45.885165772893785],[4.880659213951437,45.884063016833515],[4.881097112254732,45.883023528698196],[4.881386303664268,45.88221721331242],[4.881667135035508,45.8812659571042],[4.881867899409748,45.88036360000353],[4.881998977493753,45.879614616911525],[4.882127600437625,45.87839476190969],[4.882217223467477,45.87673080537048],[4.882347104349157,45.874949639285546],[4.882520509555064,45.87364579565826],[4.883019414760943,45.87169297974937],[4.883514959916955,45.86996419452188],[4.884031125823708,45.868031507808666],[4.88456280582803,45.86605574923446],[4.885067229184913,45.86408044229926],[4.885537513181935,45.86210332391955],[4.885818056108545,45.8608500094667],[4.88627085674629,45.85896273806529],[4.886655093540203,45.85725662194038],[4.887110842233287,45.85525595463571],[4.88754551153293,45.85333650108054],[4.887950771858071,45.85155310280531],[4.888375503934206,45.84964332472752],[4.888808473996478,45.847776217213124],[4.88887181836078,45.84749921524157],[4.888869423088511,45.84750968969943],[4.889243595076242,45.84587339642288],[4.889689603977846,45.84389190586664],[4.890079430729514,45.84215870163642],[4.890444570088866,45.840599528490955],[4.890886216776758,45.83869183394965],[4.891296596497436,45.83686552477452],[4.89138425557579,45.83634557642955],[4.891462869531322,45.835561782550855],[4.89149260939038,45.8345433504171],[4.891425690893078,45.833583617507166],[4.891286654663335,45.83270357791591],[4.891078822428871,45.83190079744691],[4.890828014154745,45.83113441150945],[4.890494385813238,45.83033373634434],[4.890158932622344,45.829678170225236],[4.889719610837093,45.828969639368644],[4.889062252713698,45.82805308151284],[4.88845894209247,45.82732350588528],[4.887767816327604,45.826612043788714],[4.887702497409719,45.826551982143506],[4.887697715993014,45.826547585555375],[4.887079390264604,45.82597901810621],[4.886296188068346,45.82535946344616],[4.885665289453843,45.824915736384796],[4.88502128853509,45.82448649476758],[4.884080690960875,45.82393852486854],[4.883384425387058,45.823571983306216],[4.882336930664378,45.82308048423504],[4.881274400104549,45.82264630649163],[4.879422660587386,45.82201120699368],[4.878437226738378,45.821604854485756],[4.877835495939628,45.821290618090636],[4.876822823398737,45.82073764651625],[4.874857945411633,45.81950000574453],[4.871685303263066,45.81766451837594],[4.870569398158531,45.816828369697625],[4.87025024284727,45.816443610101196],[4.870036070057909,45.81604521923096],[4.869810512540174,45.8155114515453],[4.869650208495591,45.814895739581615],[4.869611198643383,45.81444688058174],[4.869628787397891,45.813861519328505],[4.869665007850313,45.81362546451495],[4.869887128566966,45.812953474186635],[4.87036921304504,45.81217588162272],[4.870709372390303,45.81180878663035],[4.871245017617694,45.81137316682001],[4.871748689713968,45.81108179543707],[4.872743655119304,45.81053188363443],[4.873095691116351,45.810386385559084],[4.873660515621604,45.81019388079688],[4.873936007365391,45.81009417470476],[4.874265801405759,45.80999118805551],[4.874907736419392,45.80986636843894],[4.875522799665197,45.8097515049126],[4.87584433005385,45.80970573095526],[4.876248000799581,45.80967523929277],[4.878493671979156,45.80960697544931],[4.879105405732595,45.809594416243755],[4.879671415019247,45.809537426597146],[4.880077267227235,45.809471209762016],[4.880734315468978,45.80929140316775],[4.881919316947099,45.808836418443875],[4.882451878801039,45.80849694957164],[4.882766587268078,45.80825148870358],[4.883129438398202,45.807921981849425],[4.88345076932013,45.80757176142802],[4.883714316247461,45.807222504280126],[4.883901066284008,45.8069149599587],[4.884123164990071,45.806447476329545],[4.884224049046447,45.80611520277308],[4.884290863472884,45.80578111947846],[4.884313493874842,45.805447773697026],[4.884323583811346,45.80514555570764],[4.884286895123435,45.80476801161708],[4.88414621179367,45.80423285444707],[4.884019871155388,45.80391864363521],[4.88386998507794,45.80361196069873],[4.883686277067548,45.803310598699746],[4.883476436631279,45.80304059093771],[4.883278496388296,45.802820329458065],[4.882744181434297,45.802333610183446],[4.88251443555754,45.802152869100546],[4.881586298175321,45.80155948935754],[4.87949963954598,45.80029568099302],[4.879036894926475,45.79998706645558],[4.878642607879547,45.7996915807384],[4.87835181157173,45.79943955992379],[4.878026350977104,45.799109924167745],[4.877795690440086,45.79881175107888],[4.877581880157906,45.798496278593],[4.877139821170295,45.79759510667541],[4.876875759114043,45.79702869727567],[4.876706107782621,45.79673898292781],[4.876495437960016,45.79644281533666],[4.876261790982433,45.79617081273582],[4.875991089868788,45.79590893895228],[4.875676700234645,45.79566206065516],[4.875352522707467,45.79542723584923],[4.875005126256071,45.79520944425405],[4.874661856824948,45.79501298810159],[4.873159344049546,45.79431967850647],[4.872083457737699,45.793773865171744],[4.871096745259455,45.79325034686787],[4.870321494861991,45.79294687917255],[4.869658527651314,45.792746192765165],[4.869049188883151,45.7926230993157],[4.868618234046846,45.79254699410532],[4.868198760701742,45.79250875049047],[4.867738834359608,45.79248068814009],[4.865589521163078,45.792361646902],[4.864718235123705,45.79223334686872],[4.863691669782879,45.79193636502555],[4.863195716393816,45.791747153021745],[4.862639276820387,45.79147807413786],[4.86185630411427,45.79095515069685],[4.861346148235783,45.79047500746528],[4.860225220322215,45.78887808665939]]}}]}