{"type":"FeatureCollection","features":[{"type":"Feature","properties":{"name":"LGV Sud-Est, 1983 section (Combs-la-Ville/Paris - Saint-Florentin)","opened":"25 Sept 1983"},"geometry":{"type":"LineString","coordinates":[[2.566802650158626,48.63554538081882],[2.56751513211966,48.634603524568824],[2.568389653584861,48.633028726848785],[2.569169046378748,48.63070721670856],[2.570444977526266,48.62710392390012],[2.571441701250868,48.624827733869495],[2.572432606953289,48.62345002781068],[2.5736396585575663,48.62204555871012],[2.573688323189057,48.621988932883596],[2.577144544211664,48.617966921370986],[2.579069988590922,48.615861270690694],[2.579976445910463,48.61493372764355],[2.582611603416472,48.61279914298067],[2.584545853145379,48.611519595408275],[2.589264566257568,48.60909929070989],[2.605058940763903,48.601706727847215],[2.610517172523505,48.5992461869525],[2.61600458342729,48.59703647690847],[2.620004114289888,48.59557474273749],[2.624302661839915,48.59415564905276],[2.628126100562996,48.593006822701334],[2.631443388250949,48.59211634686513],[2.634365077101017,48.591331961385414],[2.639133574331013,48.59023796930874],[2.64361670131002,48.58935209123056],[2.647688909132563,48.588600782227125],[2.654489586498602,48.58762720993909],[2.660152629153838,48.587026493597165],[2.667076049133364,48.58651270401329],[2.671206878268664,48.586377775428936],[2.678237874499588,48.58628195328539],[2.691997097073037,48.58663209460018],[2.702795901520346,48.58690089828253],[2.706482312791043,48.586856941776475],[2.710440366455919,48.586594730000506],[2.714795435046088,48.5861185836514],[2.71781110123863,48.58569736728133],[2.723458323812131,48.58453845969581],[2.726912835048487,48.58360085510275],[2.730512476773696,48.58246914028661],[2.732628566916339,48.58168956391199],[2.735314275533435,48.5804615237925],[2.739643250784681,48.57837947142738],[2.74351554371693,48.57631275755921],[2.746582268981473,48.57443909404887],[2.748420789496744,48.573171230714664],[2.753576995933852,48.569120482853656],[2.753587849583509,48.56911195524857],[2.7675827485128957,48.55761233903479],[2.7676010299828455,48.55759731256203],[2.769165855863036,48.556311061992076],[2.776021098502246,48.55064842258035],[2.78050063173827,48.54698286270667],[2.783217926002196,48.54503214959568],[2.786197892376994,48.543099899149254],[2.800379038912605,48.53450974888613],[2.806407932257255,48.530901119508236],[2.808775191484421,48.5294512333388],[2.810514377359131,48.52823358258998],[2.812732758112008,48.52660648847403],[2.814947950422663,48.52490113028225],[2.817569482906053,48.52262524050306],[2.819417677517113,48.520839665071485],[2.82167719332178,48.51842716701071],[2.823530963009864,48.516224071302624],[2.825645041596621,48.51348617792722],[2.831647596786904,48.505637452105404],[2.835934673417744,48.500030171315146],[2.837530017817996,48.49812888971513],[2.839305332880499,48.49619113318315],[2.841255427801971,48.49430605252078],[2.843416860297052,48.49240543890011],[2.845473901767975,48.4906807575303],[2.865123869684656,48.47682759851353],[2.866883746244142,48.47559468972678],[2.876625836851674,48.468768176277],[2.880469825955357,48.465977275921674],[2.883652208542379,48.463480755684024],[2.888221378927048,48.45945845220299],[2.893247348903917,48.45469378407532],[2.901643077278388,48.446658044739216],[2.91098071040069,48.43782748050502],[2.914696074811426,48.43426364135094],[2.917749733160893,48.431410444110604],[2.920645302131048,48.428954506302446],[2.923776175967388,48.42660323698948],[2.926576078891219,48.42474326066976],[2.930004624911615,48.422674403360155],[2.932693608397247,48.42120120453434],[2.93481465883619,48.420150963038814],[2.935964005158027,48.419581828652035],[2.939249755845668,48.4180983392868],[2.951462982731364,48.412993682532345],[2.955158075352142,48.411400998030935],[2.958770005536663,48.40982158644047],[2.961729133573515,48.408373818406005],[2.96457044238177,48.406802071517234],[2.96776817764278,48.40484297873844],[2.970055049245286,48.403163716724976],[2.979009989263391,48.39620500925097],[2.982483466701295,48.3934180068227],[2.986861199196026,48.39015784799758],[2.989489024063707,48.38837735728419],[2.991795441938662,48.38686831888256],[2.996367555561291,48.38427763068795],[3.00065432131853,48.382070717862554],[3.001336278644128,48.38175191856257],[3.00512915323729,48.37997869378117],[3.006573591657143,48.37936150694807],[3.00968218435518,48.37816890025748],[3.013010461827428,48.377059863900335],[3.015553692159155,48.37627508677882],[3.018850435072443,48.37546921793149],[3.021409294699987,48.37491442344012],[3.025004237705466,48.37428614201586],[3.028269514891915,48.373856563339764],[3.031283599717059,48.37351063819918],[3.035632135329764,48.37324791971278],[3.056181674083191,48.37251824477249],[3.094975182082407,48.37124312398507],[3.120385706064938,48.37031572810233],[3.125628031620847,48.36992327897813],[3.13077523228894,48.369185533320646],[3.133461954885877,48.36865634812089],[3.136329509680309,48.36809146647605],[3.141783444135261,48.36686042149003],[3.146917996759728,48.3654115877377],[3.150242509845537,48.36427776952672],[3.152876489831448,48.363228427686565],[3.158660827934874,48.360710485051364],[3.163424845339105,48.35831918361821],[3.193092589253752,48.342438342769455],[3.201456688243244,48.33793888240123],[3.213046609878869,48.331701820581806],[3.221678037654588,48.327074888405626],[3.229627708774207,48.32281295685138],[3.232396277981914,48.32110256235627],[3.233821696404532,48.32008665449302],[3.236616289346328,48.31785157326155],[3.239005578289341,48.315608308040815],[3.246964890426437,48.30738074283555],[3.248869096563989,48.305535758733534],[3.249204441073807,48.305241401825974],[3.251055032283178,48.30361692239635],[3.254819413927981,48.30069047111916],[3.257958512735653,48.29821504927578],[3.260268965199195,48.296243458283996],[3.262171938632187,48.29432502398298],[3.263465485396375,48.292815866847164],[3.267848065765123,48.28663414740479],[3.275539068232496,48.27550781559793],[3.286189439136382,48.26008465533795],[3.292156861603678,48.25138776162751],[3.294376563495405,48.247783792066755],[3.296013223810055,48.244720946295196],[3.296684325248439,48.24346493588622],[3.299075933139313,48.23963357553049],[3.301774355497811,48.236176666446866],[3.304271161731436,48.233553080798266],[3.306731613576926,48.23123488779601],[3.308268796914662,48.22993908978368],[3.314878569595332,48.22424655528902],[3.316479208516728,48.22276249784732],[3.317073698983908,48.22221127952467],[3.318800315757809,48.22038644219889],[3.32022991214445,48.21864606949106],[3.321782721456189,48.21659151441908],[3.322682123648877,48.21520822096775],[3.324228309636384,48.21210755259112],[3.325168996986077,48.20977009041122],[3.327179249914129,48.20337496391222],[3.327917579739712,48.20131209662761],[3.328935874802827,48.198986916286444],[3.33014236264514,48.19674488571475],[3.331103136430615,48.1952567252673],[3.331862631446785,48.1941143366612],[3.334566782758451,48.191031603391735],[3.33595302303868,48.18967096857574],[3.339459642551376,48.18667361059182],[3.342082157886914,48.18485847314656],[3.344574948399297,48.1833029738823],[3.347006604456583,48.18198820657664],[3.352933101870195,48.17934488249634],[3.35676680162322,48.17792772742953],[3.3600490507825,48.17689639596769],[3.363357899718337,48.17587151991244],[3.36668189718408,48.17479419677249],[3.369162089297485,48.17384495545222],[3.371422871190873,48.172844045401625],[3.375055770203169,48.171032267388604],[3.376691328676054,48.170084121528895],[3.377182355989453,48.169799458021636],[3.3807835163378,48.167447586896074],[3.382975793004088,48.16569345637089],[3.385305603656849,48.163520380574106],[3.38927931148094,48.159532030194036],[3.394123651480287,48.15496525210198],[3.399018239005251,48.15110823774421],[3.399656581142968,48.150605156564964],[3.405111161542241,48.146339207822585],[3.416390141448393,48.13747043397948],[3.422431103674111,48.132605256302675],[3.42594252758216,48.13006092540502],[3.431967532650906,48.126262644273886],[3.439811368961461,48.12156748904126],[3.444157355305653,48.11910606457438],[3.459762251537986,48.110087641057696],[3.460162249703891,48.10985640474026],[3.477288988835941,48.10011114567682],[3.481981373464372,48.097434742374844],[3.486458676381897,48.09517358506442],[3.49057997040814,48.093334485349956],[3.501364568188165,48.08931585968078],[3.505254056240115,48.087869250878164],[3.508822756572219,48.08667849712139],[3.515293919950778,48.08494989639521],[3.520704321122574,48.08381620862463],[3.533733166993978,48.081435131683115],[3.536599145117399,48.080763008294184],[3.541051579818951,48.07950812890658],[3.544267469434612,48.07831485747732],[3.547526763704246,48.07706714666985],[3.550382371875049,48.07577855504056],[3.553190727356731,48.074325352051],[3.555483213805712,48.07293770057073],[3.55806071142339,48.07124710222046],[3.560755164652336,48.069257318655204],[3.561793287920409,48.06835565382135],[3.564049482556742,48.06639589040838],[3.570772090102268,48.06016990191377],[3.576115733690065,48.054996474543664],[3.579372268985678,48.05216615452324],[3.583414346364466,48.04890986970842],[3.592783215916354,48.04178615045123],[3.605649488317233,48.03209967932694],[3.610845409904874,48.02818080578653],[3.625470174906554,48.018018154290345],[3.634977376431579,48.011494402339785],[3.651470596243076,48.00020224448849],[3.659698573342258,47.99461237821892],[3.679144760629141,47.98139410723621],[3.682584314420201,47.97903051656617],[3.693890347405464,47.97383014983529],[3.705154659760743,47.96889043144035],[3.715938570646365,47.963861985610954],[3.717532362045234,47.96312267056174]]}}]}