{"type":"FeatureCollection","features":[{"type":"Feature","properties":{"name":"LGV Nord (Paris - Lille)","opened":"1993","codes":"226000"},"geometry":{"type":"LineString","coordinates":[[2.426926084387215,49.00074815106869],[2.429590187496709,49.00212110265689],[2.433524363733191,49.004291500367565],[2.437135342936477,49.00623937565123],[2.437364686004904,49.00636308176198],[2.441116537120049,49.00817742183347],[2.443636091061661,49.009279820190535],[2.447017528600764,49.01071165717343],[2.450626895977935,49.01209723254111],[2.452997864453042,49.0129292416965],[2.455526886309423,49.01365465278537],[2.457793303254336,49.014206918209666],[2.459508824584061,49.014572731981985],[2.4684506031343627,49.01647897847959],[2.4684430684792003,49.016477372570506],[2.471363808375318,49.01709984678803],[2.476234056548703,49.018112532008],[2.479993617571169,49.01896285717935],[2.483251210099435,49.01977943291042],[2.485696799992125,49.02045869201001],[2.489369932202129,49.02161519129008],[2.492885945750155,49.022951870097444],[2.495995854386403,49.024239533270986],[2.498746561121154,49.02557282079545],[2.499897711862817,49.02617652530433],[2.508029334336107,49.03044031421871],[2.511341691741433,49.03222570318123],[2.516531769633852,49.03498384805181],[2.523977997071722,49.03895684668802],[2.527809969361192,49.0410010056665],[2.53224246194747,49.04315045391479],[2.536303889014742,49.04490737418614],[2.54730179314972,49.049723540377016],[2.547611527555893,49.04986252108785],[2.549429792980955,49.0506783622192],[2.550128044022814,49.05099164756907],[2.557654639612119,49.054365790084574],[2.560038555398321,49.05541303789199],[2.569593479090377,49.059609580791815],[2.571063619133722,49.060275546016804],[2.572894491166803,49.061089761520314],[2.575991617865896,49.06246697581427],[2.578689703286152,49.063712625117155],[2.584634244537654,49.06663189297453],[2.588366056150006,49.06846699360355],[2.592483062007147,49.07046502700391],[2.594797627929207,49.07158818300893],[2.598042984891896,49.07303339776865],[2.598490050453082,49.07323247062109],[2.600049311939696,49.07390485239187],[2.602717570072886,49.07492349115718],[2.604770895417912,49.07571442987914],[2.608235094712613,49.07685865414277],[2.612106968428433,49.077956889720326],[2.619448582637804,49.07999977278212],[2.630441536297714,49.083057533607125],[2.641702801533612,49.08615573384341],[2.648397482922657,49.08799689538626],[2.651985357788168,49.08882551631651],[2.652662817885815,49.08896487154728],[2.654700714659978,49.089384044351846],[2.65793135418373,49.08992037640615],[2.666213274786169,49.091045049569296],[2.67162242146344,49.09187812297686],[2.675762116751883,49.092683934000576],[2.679739292393986,49.09360213334059],[2.681264278081802,49.09402818217044],[2.684182243745547,49.094854057152986],[2.686331481656871,49.095535079439294],[2.687386676425546,49.095869414928195],[2.69004067368638,49.09679673082406],[2.693411738871716,49.09803704667002],[2.694700261712244,49.098606513012534],[2.695084644594962,49.098776386965866],[2.697832939379054,49.100018447494],[2.700855430483541,49.101520737093956],[2.703280197994536,49.10281693287113],[2.705214957770143,49.10391520301913],[2.707280622667493,49.10518683288406],[2.709859201314326,49.10689234702762],[2.712521130380536,49.108723873073004],[2.713761902589798,49.10971020046369],[2.715002462510788,49.11074371508176],[2.716123711620811,49.1116903980433],[2.717196585768214,49.11270431982436],[2.718806491295505,49.114182644667494],[2.720701388691791,49.116145916606975],[2.722726495821625,49.11843986337613],[2.724452646790799,49.1206386838681],[2.728107048895954,49.12604303674581],[2.728496428578166,49.12661880050199],[2.729554924671691,49.12821814447459],[2.731195940572226,49.13077065904439],[2.732980857446408,49.133347064089264],[2.735995849676404,49.13690161459752],[2.738413139498854,49.13956949529685],[2.738545294393359,49.13971583743215],[2.739036226408737,49.14025946383666],[2.740084947071615,49.14145080990302],[2.74220693868563,49.14401083680254],[2.744445896798841,49.14712293907635],[2.746402569452023,49.15057646439938],[2.748183663581281,49.1540566621261],[2.748800535181029,49.155824645292086],[2.749053005097692,49.15656057014972],[2.749799779190217,49.1591457567748],[2.749910627061629,49.159611280427455],[2.750442781182927,49.1618460271946],[2.750874108354455,49.16444286954477],[2.750987649644037,49.16610929201447],[2.751333554520956,49.17118538889163],[2.75201659041613,49.181373796700925],[2.752268044083547,49.183993811391574],[2.753200407620495,49.19734482730919],[2.753227133206744,49.19789175768045],[2.753517590450315,49.20383510466903],[2.753456677479186,49.206540945755705],[2.752933218592128,49.21056734392515],[2.752377873732019,49.213712653935836],[2.751859051527853,49.21586114976691],[2.750656313398334,49.21980063746405],[2.749279529333785,49.22429774934184],[2.747380090021829,49.23037791823273],[2.746250114395417,49.234166964681386],[2.743624438135619,49.242969169340675],[2.742339581839117,49.247097422496374],[2.742286625243917,49.2472710678074],[2.74063430371947,49.25268843671936],[2.737332169753175,49.263511388776244],[2.734280859299722,49.273385804213596],[2.733432534153836,49.275553822113125],[2.732705716616231,49.2774608852805],[2.731417337064761,49.28000836877922],[2.729609731131141,49.28311123370178],[2.728436032980206,49.28479702989956],[2.725600147792385,49.28873391013021],[2.722692526477116,49.292777997950324],[2.722573906350305,49.29294828734684],[2.720498857643413,49.29592699291148],[2.7186323897631,49.29857331342231],[2.717855586400767,49.29986929693566],[2.716700933318018,49.30206891030419],[2.715473623270238,49.30433912515986],[2.711716847098959,49.31151129088961],[2.710598839776787,49.31355794580379],[2.709515048860608,49.31569948717052],[2.708056613017304,49.318447563547004],[2.706803710034611,49.32085130079048],[2.706085315984163,49.32234395284482],[2.70541523539826,49.32379739004594],[2.705337823893388,49.324005218287795],[2.704926421018229,49.32510969028001],[2.704775207014627,49.32554134546248],[2.704614139347041,49.326001120529476],[2.704318120004615,49.32689142448918],[2.703845859894132,49.32888234612408],[2.702905267319947,49.333085568444176],[2.701885022384254,49.33846993186851],[2.70153937520631,49.340132967283076],[2.700994733531075,49.342820741771746],[2.700714721328201,49.344052352827426],[2.70045168789577,49.34574207679308],[2.700066025556283,49.34771783982714],[2.699753672579955,49.349675456735106],[2.699743647311293,49.35139787003986],[2.699986358730542,49.3531366377555],[2.700424080641198,49.35654325911432],[2.70074886504938,49.3585787385659],[2.700936706223318,49.35950175031914],[2.701708077537628,49.36195363868238],[2.701928602025227,49.362886117785386],[2.702589968458098,49.365137108296196],[2.702836874080601,49.36617588053456],[2.703129696862808,49.36760800747538],[2.703384280094968,49.36940968597838],[2.703541446342634,49.371399877803555],[2.703531543377109,49.373122251692685],[2.7034504128808,49.37466355712057],[2.703395847550411,49.37519589682646],[2.703220710113172,49.37690446229073],[2.702897115736723,49.378712568407586],[2.702477721751564,49.38041819266856],[2.701889607130564,49.382131261437905],[2.70111760747326,49.38438653664019],[2.700948903068809,49.38479570364332],[2.70042111495388,49.3860757292254],[2.698629168930613,49.38966544681607],[2.696133828356871,49.39398477284096],[2.69529959036503,49.39560660417115],[2.694787116754933,49.397117307056774],[2.694631297324025,49.3974414301891],[2.6941770068575,49.398863778476596],[2.693880889273156,49.400026991419296],[2.693609809775251,49.401840736898244],[2.693291022300823,49.403973519452244],[2.692585180897936,49.409162329323244],[2.692175539200529,49.411542988872],[2.691805218781457,49.41373595067707],[2.691595367943097,49.41524572245154],[2.691510417851111,49.41689885252061],[2.691303897702802,49.41889369226621],[2.69119548871423,49.42113976312455],[2.691127140887913,49.42320605148819],[2.691095989776642,49.42435267630508],[2.691197611086708,49.4255011367904],[2.691253803262304,49.42619560686222],[2.691321087897826,49.4270271415059],[2.691554169149258,49.42837254254488],[2.692132272216269,49.43049738941655],[2.693273284038218,49.435297522686405],[2.693630607647182,49.43692880673047],[2.694662075081395,49.44105768405418],[2.695025716167366,49.4431275634006],[2.695281910237095,49.44430354836515],[2.695347494581979,49.444511915277744],[2.696063423964695,49.44678636733796],[2.697097309599082,49.44941559763811],[2.698779000119672,49.45267555647852],[2.699996934881427,49.45481762594361],[2.701597591984377,49.45755042968006],[2.703808641882221,49.461165474698674],[2.70479995740458,49.462921581789765],[2.705897818536009,49.46504754600764],[2.706135084122849,49.46557754195061],[2.706993934636826,49.467495915815746],[2.708555015005237,49.4709598435727],[2.709683415695302,49.47414746302972],[2.711049306726844,49.47848220390676],[2.71158054175286,49.480167904595575],[2.711865358154389,49.48103361179274],[2.71306415800201,49.48682426955026],[2.714652970119774,49.49417282785512],[2.715323474904474,49.4973592325897],[2.715395597640156,49.49800226946294],[2.715599621996443,49.49982123414124],[2.715608156939568,49.504842545076194],[2.715612088014551,49.507154951185434],[2.715727645940637,49.51160920099932],[2.715941375475943,49.514366640647694],[2.71627444586476,49.51649437025009],[2.716344734602381,49.516742851281556],[2.716659365256171,49.51785508616724],[2.717203968602125,49.51985370443497],[2.718181647984807,49.52292117351401],[2.720008640851415,49.52694674621736],[2.720723279410219,49.52839957094577],[2.722547922464025,49.53232184072489],[2.724904619340579,49.53752091922126],[2.726260106268692,49.54080703285746],[2.726531252234959,49.541484850299476],[2.727607696001602,49.54417558378908],[2.730375219059088,49.551046437994174],[2.732841657450276,49.55727327897436],[2.733150832821841,49.557972845319874],[2.736899603689041,49.56560770950244],[2.74020894487289,49.57231127430085],[2.740855025326455,49.57367432817304],[2.74203397595223,49.57595871170176],[2.745336743325848,49.582932325578554],[2.747463664867073,49.58827407954125],[2.750344260237856,49.59520104630101],[2.751348767392433,49.5975934203766],[2.753031758174139,49.602306695824616],[2.753674253705181,49.604556763998154],[2.754466643557835,49.608363954962556],[2.754862922294052,49.61152558131324],[2.754864391681628,49.613750736204864],[2.754506236410925,49.617791440810684],[2.754108475906312,49.62250823289875],[2.754224880041261,49.62599947309204],[2.754503624243866,49.62845316646614],[2.754590557103703,49.62898516431825],[2.754738826465741,49.62989249316138],[2.755259604541318,49.63237024944414],[2.756839417913567,49.63873419869607],[2.758527077733818,49.64542065394334],[2.758920671831288,49.64670901328673],[2.759147171519319,49.64745038840052],[2.759851820183178,49.649535318596506],[2.761073317782171,49.652462529626014],[2.762727911707225,49.656043137750245],[2.766556009090745,49.6637791828017],[2.767624572317052,49.66586472533889],[2.768603481419187,49.66788523574417],[2.768680683224934,49.66804457627141],[2.769530345108978,49.67035767886939],[2.770495102618923,49.67403900440566],[2.771040843423398,49.67703305598068],[2.771090846920713,49.67802973497645],[2.771143987604221,49.679394609883474],[2.770977293540009,49.68257436516347],[2.770696286100846,49.685934759341],[2.770211529682461,49.6886462506905],[2.769734750011154,49.69079427774088],[2.768850841790208,49.694776038170716],[2.768468340536766,49.69627694754409],[2.76815409141863,49.698760726265284],[2.768145260581519,49.69893562834719],[2.768007622887656,49.701661498387416],[2.768072091518229,49.70348558329129],[2.768125047611791,49.70517599035348],[2.768525512975394,49.707763307412904],[2.768595514606726,49.70836880328279],[2.768831799378305,49.709737213227825],[2.769271790055229,49.71164061067808],[2.769640361096676,49.71282589981697],[2.769690075735818,49.712985772919495],[2.770192442772776,49.71451191155551],[2.772117432614285,49.71886043019829],[2.773539931573028,49.72161226940795],[2.774115451060883,49.722499244009384],[2.775337122301431,49.72442559188751],[2.77718277113145,49.726930720687434],[2.779667143631138,49.73015852133562],[2.78209605640548,49.73383020114554],[2.783053235861213,49.735337546154156],[2.783835736730843,49.736738300334935],[2.784184217037521,49.737517214665786],[2.784522583168405,49.73825213962675],[2.78524201704374,49.73981466126506],[2.787614090644376,49.74554339767123],[2.78872408284204,49.74840595062285],[2.790207167566065,49.752230139122574],[2.791431475498858,49.75549473115143],[2.79375907602943,49.762055080189356],[2.794418390281523,49.76408441868919],[2.794993398583102,49.76596424202397],[2.795266852811695,49.76706502027456],[2.795518957765896,49.76807981413781],[2.796007081267623,49.770462599049544],[2.796429739539355,49.774055896588735],[2.796544025700918,49.77584058527578],[2.797004028420707,49.77922166795255],[2.798092641537459,49.783303419740186],[2.798753206349053,49.78512829530765],[2.79953566643732,49.78684330809185],[2.800272038378472,49.7885890262449],[2.801016695547289,49.790029477443966],[2.801950068865652,49.79174854658969],[2.802101780933072,49.792027955043544],[2.803459793743627,49.79431033795034],[2.804757718619269,49.796088533143525],[2.806135854133214,49.79774154430154],[2.807393373212925,49.79919782128297],[2.810803971060783,49.803031452854],[2.811567968625232,49.80391610776471],[2.812884187066877,49.80544010996345],[2.814105562899373,49.80691983098724],[2.815991344839827,49.809438179498414],[2.817921813477341,49.813104243807885],[2.81804946058164,49.8133700590109],[2.820683511961855,49.81885460073447],[2.823505526074697,49.824911510622336],[2.82659379499813,49.831487493546774],[2.827364817434904,49.83347733645699],[2.828230851959816,49.83614331839924],[2.828785265215012,49.8384429472194],[2.829997732233068,49.84570427034007],[2.830034605130206,49.84592417069719],[2.831148382045658,49.85256552065684],[2.831750189052245,49.85615329533133],[2.832311344804595,49.85928251808505],[2.833874944263194,49.86826119856267],[2.834269697949052,49.870281836481496],[2.835057063383204,49.875014793856025],[2.835115637964547,49.875242350961756],[2.835609631314864,49.87716138738067],[2.836522370393432,49.88080189565875],[2.837519993311179,49.88456825626394],[2.837941295777,49.88597578483407],[2.838700996050288,49.88809902920222],[2.839462614690126,49.889632756917344],[2.840285332976403,49.89109581583256],[2.843314752855657,49.89634207476752],[2.844048773181725,49.89775029746653],[2.84542904668093,49.90002359908603],[2.846771967640074,49.902619091543215],[2.847581432149241,49.90458509921778],[2.848510675924296,49.907219340987254],[2.849209279262347,49.90968036446303],[2.849388546207884,49.91079669380979],[2.850163805008977,49.916197388232455],[2.850245526262191,49.91738432633115],[2.850605842834975,49.92102032605161],[2.850777587591093,49.92275323526878],[2.851392994577064,49.928806004591536],[2.851360484418069,49.931604026471746],[2.851155613345344,49.935046322661854],[2.850989270231017,49.937797001913566],[2.851306622836369,49.94171934307645],[2.851699777512822,49.94472218563627],[2.852028034999127,49.947030938279774],[2.852666640911617,49.951521861735635],[2.853265997441811,49.95488644647654],[2.853915583050732,49.95775592864581],[2.854483148515844,49.95950926055945],[2.855087503941734,49.96119189474113],[2.855300875765809,49.96171577076037],[2.855740856305065,49.9627959860763],[2.856661434606971,49.964706899831775],[2.858250441611277,49.967512228694126],[2.859802305502632,49.97008633656498],[2.860299834531863,49.97084140052464],[2.860897603033338,49.97181020493963],[2.861294658575609,49.97245369088574],[2.864774811924793,49.9778714672627],[2.867109228277351,49.981443453098144],[2.868383255341216,49.983283704338135],[2.87030046865375,49.98664947884449],[2.871646684798988,49.98934658540782],[2.871997862249614,49.990252893612215],[2.872134553780468,49.990605653726654],[2.873063463150664,49.99313615636931],[2.873727806168906,49.995096428087685],[2.874065701440836,49.99675579021407],[2.874295402265752,49.9978057172547],[2.874595554507524,49.99969219498051],[2.875028113869989,50.002286113497235],[2.876097721086089,50.008684405257796],[2.876356406422889,50.010795374216],[2.876587997697655,50.01268509166272],[2.876996542022307,50.015265455569796],[2.877428623061514,50.0181085594012],[2.87808843304706,50.022706630218664],[2.878833306352689,50.02749336463033],[2.878902141756525,50.02932452017194],[2.878849094760265,50.03110839868298],[2.878855866735275,50.03338743015911],[2.878433442445724,50.036569776883326],[2.877915103572705,50.03902116076212],[2.877349591846283,50.040773070700375],[2.876230558970594,50.044316176098704],[2.875222150865744,50.04747429893486],[2.874532702823507,50.049917601753016],[2.874076427535711,50.051818895755204],[2.87374283545882,50.053453121086164],[2.872653197520557,50.05966803795315],[2.871526628487541,50.06589857374588],[2.870493448296352,50.071497337479265],[2.869928670820952,50.07491824373661],[2.869591022558354,50.07802189831903],[2.869464065553128,50.079907739820975],[2.869482494019382,50.082241648965386],[2.869574584200258,50.08442632395825],[2.869681677193951,50.08552658211716],[2.869974805661732,50.08846549951781],[2.870360956341863,50.092135992933684],[2.870525011031078,50.09486292235097],[2.870589465862308,50.09757121822987],[2.870613285706954,50.098572017066196],[2.870689176164467,50.102351802745204],[2.870765919173036,50.10663621697969],[2.870774756500483,50.10712953998984],[2.870798956210054,50.11202505131589],[2.870892168053802,50.11861789709594],[2.870898185588177,50.12449268952318],[2.870899186683504,50.12546990151839],[2.871090449496516,50.13197629956495],[2.871398654869577,50.137777780256265],[2.871778944535158,50.14493424474971],[2.872127982816008,50.151990663374306],[2.872415075309605,50.15940053448527],[2.87221379924162,50.16647196032256],[2.872231118845877,50.1693084710901],[2.872428212971355,50.17363018165376],[2.872482508636989,50.176364559828734],[2.8723907348755,50.17880020274993],[2.872227456437487,50.18047361645243],[2.872185673276253,50.180769301812404],[2.872003203944363,50.182060533882726],[2.871606649309264,50.18403226838151],[2.871174090860341,50.185713244815],[2.870680315936065,50.187394151648164],[2.869447070855257,50.191077827976315],[2.869423311169663,50.19114004381762],[2.868991161931069,50.192271618340335],[2.868522095841476,50.19381110140018],[2.866808287496243,50.19859418653982],[2.866253308495017,50.2001728399924],[2.866092415699759,50.2008405083725],[2.864710477028305,50.204948184618075],[2.863844444428694,50.20736823623754],[2.862107662415847,50.212220781783465],[2.859432372624945,50.21886462832564],[2.857110102853921,50.22452549302218],[2.856362101014468,50.22634856666419],[2.854832512491538,50.230172980924586],[2.853943233684859,50.23274891276326],[2.853506758555292,50.23438300535141],[2.853435542883257,50.23464961486547],[2.853000786067631,50.23673109904355],[2.852825640428182,50.23798794511167],[2.852607868891688,50.23945770638676],[2.852497398151498,50.24133445173549],[2.852468593899361,50.242811447863815],[2.852512792352198,50.24446137198597],[2.852606549526385,50.245922795650316],[2.852773801578623,50.24739216073812],[2.85305044574998,50.24916805568178],[2.853425155379107,50.25093620603059],[2.853691695600828,50.252078447141365],[2.853848768460796,50.25275154762865],[2.85446573981273,50.25551773729942],[2.854998638530606,50.25771029901878],[2.855460116736815,50.25917998295741],[2.856007162752412,50.26073618209826],[2.856651998459554,50.262394621623855],[2.857589961535122,50.264430496094235],[2.858528702768818,50.266214957423344],[2.859638760210635,50.26812530281487],[2.860546056516422,50.26949825852836],[2.861421022388466,50.27078273423324],[2.862837977971456,50.272606965123295],[2.8634334697575,50.27333713706494],[2.864255267524695,50.27434475725],[2.866418815297188,50.27670397828198],[2.868558596371912,50.278851012118494],[2.873229983323985,50.28356958220601],[2.877718559054409,50.288185634127764],[2.879296263118215,50.289899806405614],[2.88021335408743,50.29099268877903],[2.881607413402083,50.29265165412275],[2.882793358971512,50.29419256236877],[2.884358260531755,50.29629944154369],[2.88624882560873,50.299275820481526],[2.88637053932354,50.29946742498666],[2.88772618776227,50.301722839353275],[2.889588504738458,50.304875041767865],[2.891241457072261,50.307715802779114],[2.892900592737566,50.31054202345474],[2.893915158142839,50.31227117635028],[2.894697629628599,50.31355233966624],[2.896361701903076,50.31602435143231],[2.897193117361895,50.317097391681614],[2.898012998117053,50.31815859623271],[2.899016641530685,50.3193770586375],[2.899731686261664,50.32019223113241],[2.900106175390573,50.32061914749335],[2.901550984122864,50.3221757360228],[2.903363623412576,50.323928984576085],[2.906050482955392,50.32632678283298],[2.907705669253326,50.32765621058134],[2.908754555353,50.32844222680345],[2.91089939082366,50.32998349333999],[2.913816812196998,50.331941607005746],[2.916304550834919,50.33342124373504],[2.92089150306816,50.33614906693225],[2.93206400736058,50.34265221761584],[2.937645165986208,50.345930882497086],[2.943067583818203,50.34909137580977],[2.947435444367729,50.35164630971594],[2.9506747713122,50.353587917885115],[2.953288342944459,50.35532496222231],[2.953758481099598,50.35566374283968],[2.955447942868472,50.35688111202937],[2.957521663366163,50.35850788867867],[2.959251833160641,50.35996169797279],[2.960748873162355,50.36130543260887],[2.962270464858616,50.36276698263173],[2.964012928993386,50.36459777078813],[2.965890397675286,50.36674277484651],[2.967031609968795,50.36815701831943],[2.968933695179722,50.370639743563174],[2.971363748472208,50.3737745294417],[2.973499386118547,50.37674423417938],[2.974677617152293,50.37870039467731],[2.974864792040142,50.379042717082314],[2.975364904219228,50.379957342617665],[2.976174944929574,50.381481379412364],[2.976911288738239,50.383083944042376],[2.977794834494852,50.38529921675398],[2.978518742122639,50.38750659366018],[2.978972600608362,50.38925047211451],[2.979463255358286,50.39122999857189],[2.980169770502234,50.39430522267125],[2.980972078910137,50.39779692758781],[2.982481322399127,50.404285230059465],[2.9832591865068,50.407662797670326],[2.98401548275858,50.41094626191652],[2.984285410300129,50.412525091184044],[2.984444770192404,50.41394680900416],[2.984467711410018,50.41567273534359],[2.984465458412148,50.416587983882735],[2.984419224648394,50.41705725043411],[2.984308111258427,50.418581035108275],[2.98391453731966,50.42096237443349],[2.983606235237841,50.422084097789636],[2.98320975066918,50.42334400115439],[2.982670936089243,50.424754524279265],[2.982074690812925,50.4260834181394],[2.981920332436037,50.42642743524699],[2.981329732938522,50.427542690918244],[2.980246961905817,50.42942760620779],[2.978991978393896,50.43125749648789],[2.976949568454673,50.43377841751256],[2.975522191734889,50.43560037468829],[2.974799633361662,50.436547530087076],[2.974611554128752,50.43679406434729],[2.973688460294107,50.4382076660884],[2.972728269721262,50.43989615360949],[2.971595484659525,50.442189376367246],[2.970560606433327,50.44515022309437],[2.97016595692886,50.446917350662616],[2.96988196514668,50.44872377101542],[2.969720896588777,50.45064803031158],[2.969756453455922,50.45289435649237],[2.969890884301649,50.45438669415593],[2.970185142574416,50.45607542239858],[2.970491884680256,50.45748925216238],[2.970958503212474,50.45905234532364],[2.971462195770632,50.46037981701967],[2.974178281906432,50.466357404922356],[2.974310753479119,50.46663970306488],[2.977005751696542,50.47238202720398],[2.979858413639167,50.47865786386413],[2.981371176033189,50.48179182252841],[2.982183071711052,50.483213500430566],[2.982958139718419,50.484470233349526],[2.983819403978297,50.48576623984058],[2.984988429283479,50.48720364515403],[2.986797488363736,50.48937151356422],[2.987982274343907,50.49088377787325],[2.988668210927359,50.491759261168355],[2.989935917501023,50.49365213628635],[2.991043655004051,50.49556068935416],[2.992015991005869,50.49774409967067],[2.992889847883621,50.50032017568485],[2.994286135847425,50.50532087997083],[2.994335299873891,50.50549693833453],[2.994773111473767,50.50722364942837],[2.995265567002153,50.50888078439234],[2.995721132691445,50.510231621785586],[2.99642301912683,50.512014409368206],[2.997248126755138,50.513750069836014],[2.998578286332634,50.5159962073802],[2.999982472561805,50.51799101100875],[3.001251258244555,50.519608826734434],[3.002639648207512,50.52106861259458],[3.003850631344504,50.522341784412696],[3.006105251706942,50.5243757382773],[3.008717340421011,50.526448887608865],[3.010812053648907,50.527917310224396],[3.013079389184698,50.52942494314281],[3.015741154900485,50.53099530875161],[3.018144242123713,50.532306491205894],[3.019894090625696,50.533152959140764],[3.022742539160635,50.5344871003595],[3.025760588219699,50.53564280848341],[3.030125572182559,50.53708836958142],[3.034985521305528,50.53833498173587],[3.038713910748661,50.53908703498454],[3.053435148884761,50.54125714635736],[3.055771844857403,50.54160142855526],[3.059432501238474,50.542039508656494],[3.06707581961707,50.54269813989331],[3.075350148248462,50.54337567083258],[3.075691496265918,50.54340611615127],[3.079264164520042,50.543724708837416],[3.084245487387766,50.54427068213779],[3.087523338248785,50.54484216122803],[3.090211089231506,50.54540566501919],[3.093841401781108,50.54629503318756],[3.096517237217851,50.54706754804061],[3.098950085613805,50.547871181316445],[3.099668907351941,50.54813545135094],[3.101346697631996,50.548752252377845],[3.104777975561386,50.550228821792324],[3.108429056748622,50.55206140070982],[3.113431824543179,50.55472916437393],[3.117323067466498,50.55680385666409],[3.118435122960523,50.5573967157746],[3.122330653686807,50.55944118244084],[3.125703436950716,50.56119262918168],[3.127698910403029,50.56214097532601],[3.127882667148442,50.56222830199953],[3.12948389675043,50.56292131675011],[3.132009473514927,50.56396671831041],[3.134078826520647,50.5647467937079],[3.135977678761815,50.56541083845255],[3.138302489743613,50.56617507041995],[3.141517979424067,50.567102908715526],[3.147674073572263,50.56856303815506],[3.153404475769276,50.56952658349872],[3.156925682501039,50.57003210039971],[3.161106426408743,50.570632159263596],[3.166484748262554,50.57144607060229],[3.168360859516315,50.57171290968156],[3.171339839104123,50.57213654523835],[3.174381799106979,50.57252732103255],[3.176997708234099,50.57280244965509],[3.180695893482204,50.57301398721137],[3.182386283523478,50.57309346346499],[3.187885273544826,50.57335184560874],[3.191479142302778,50.57360872606581],[3.194563142454183,50.5738944827558],[3.197659941458907,50.57429008287114],[3.200240233553167,50.57463785502967],[3.202323871227882,50.57491864520608],[3.210862462151865,50.576090205403816],[3.215822495792649,50.57667063781633],[3.21796458927923,50.57684545000038],[3.219967641425928,50.57700888066639],[3.2258883919751,50.57727308732229],[3.231327082972877,50.57728661957657],[3.236412518836938,50.577115514661685],[3.237973087454689,50.577030604465],[3.240648261943283,50.57682911977239],[3.241062982787573,50.576786523346584],[3.247661842544599,50.57610855065061],[3.259480898502755,50.574647300477906],[3.261632942519939,50.574368083706446],[3.267417142002165,50.57361741218861],[3.26886051628486,50.57340942613664],[3.278596362805509,50.57200603336857]]}}]}