{"type":"FeatureCollection","features":[{"type":"Feature","properties":{"name":"LGV Atlantique + LGV SEA (Paris - Tours - Bordeaux)","opened":"1989-90 / 2017","codes":"431000 + 566000"},"geometry":{"type":"LineString","coordinates":[[2.311963978120568,48.83408628350256],[2.311625538518386,48.83379408866265],[2.311268980568097,48.8334862463881],[2.306396977472028,48.829279403775935],[2.305232203281499,48.8283351065311],[2.305149895666119,48.82826837689903],[2.303288570664626,48.82675927327633],[2.301324818808902,48.82518850363935],[2.298069374681109,48.82250056860943],[2.296007667751747,48.820667315116005],[2.295352023929092,48.820113964507684],[2.294993032926892,48.81967510274551],[2.294824217215061,48.81896731072251],[2.294794579998347,48.8182276168343],[2.294963482329005,48.81746291562047],[2.295433100753094,48.81644475339846],[2.296678503717678,48.81521518822262],[2.3000458296305486,48.8120847863197],[2.300077173573335,48.81205564541451],[2.300582008296834,48.81158628780533],[2.301706649173938,48.810565680866546],[2.302319050334983,48.80959533654061],[2.302753422899193,48.80848934319372],[2.302899566365971,48.80742125719704],[2.302819018799746,48.80627266743381],[2.302566962349381,48.80540020871617],[2.302136500370383,48.80442377220785],[2.301101567194543,48.80293704231171],[2.299455612743444,48.80099450702881],[2.2994460325917365,48.800983200135065],[2.299402424993251,48.800931732591906],[2.294760629487803,48.79584474644285],[2.293153861649451,48.79413284983257],[2.292161569208057,48.792187024107875],[2.291509862645012,48.79075788866162],[2.290429655405092,48.787968096430745],[2.289843194155483,48.78684186946065],[2.289231995581658,48.78587092372711],[2.288380091269378,48.7847531215341],[2.287664675963869,48.78361655026371],[2.287072725759038,48.7823197782963],[2.286991939624573,48.781465882971325],[2.286370510667291,48.77714237624961],[2.286167579296702,48.77605473539339],[2.28589665352052,48.77497605214234],[2.285490951442148,48.77268391880707],[2.285424515069168,48.77111097496773],[2.285320123172718,48.76845484274166],[2.285222745963261,48.76419417873975],[2.285225896821104,48.762214600511015],[2.285138202763939,48.76060784827503],[2.285095790661337,48.75983072691525],[2.284825924317176,48.757799280504116],[2.284072115469607,48.75551662566507],[2.283435453238924,48.75391328053044],[2.282316926893571,48.75164980155153],[2.281489638979375,48.7503555304905],[2.279807110953651,48.74768522347332],[2.278026388345243,48.74490613412952],[2.277839814110031,48.74461493752261],[2.275330105487579,48.7407080783691],[2.274293113938039,48.73877037585922],[2.273395429148691,48.7371319295367],[2.27236166169804,48.735244967752784],[2.271329815929341,48.73378492016374],[2.270517409542236,48.73309641588272],[2.268661236391887,48.731437985644085],[2.267436084330131,48.73048443049274],[2.266683602700547,48.72991339405284],[2.266610935079423,48.729857305878035],[2.265132385389834,48.72871605763056],[2.258572374950105,48.72360232414698],[2.256541550591284,48.72174985116857],[2.255649881496976,48.72049313766893],[2.255509647237675,48.72003594660411],[2.2539861274089983,48.71506843976916],[2.253939288638686,48.71491570388431],[2.253442924521063,48.71329705914216],[2.25258990228407,48.710599374603504],[2.25208062100626,48.70898863287153],[2.251593287235028,48.707268148977676],[2.250918964061524,48.7048873231318],[2.250574943892776,48.70384779681873],[2.249813237895566,48.701902895230575],[2.247396006002754,48.697347945732],[2.246625327005896,48.6964821416809],[2.244616576002825,48.69393539257679],[2.242612409167012,48.69191128041436],[2.240145988435443,48.689567107974824],[2.239000896958643,48.68857026033555],[2.237971394052082,48.68781138696828],[2.235340884021658,48.68612365024915],[2.232044476485133,48.684186077305306],[2.22858842071967,48.682548297454694],[2.221612928988257,48.67955709715137],[2.215231550532176,48.67687031154168],[2.208141737339538,48.673632055154975],[2.20140940224647,48.670530382354826],[2.197558825510686,48.668473169723626],[2.196827066633929,48.66807680189023],[2.192053236324917,48.6647418124564],[2.191020382324287,48.66393119594383],[2.190139758200205,48.66324002690896],[2.188359226579106,48.661652002501825],[2.185599295399476,48.65924950369655],[2.184113274113912,48.65795643112556],[2.182082114288278,48.65636658743718],[2.178026642045954,48.6535352809103],[2.175587385939877,48.65207712988109],[2.169534498821717,48.64862981927694],[2.163210486489744,48.644998137989575],[2.162342655501501,48.644496598964665],[2.156497008914409,48.64111784780437],[2.153559807797451,48.63931879288262],[2.1535474037478792,48.63931119488321],[2.153181157414025,48.63908685223947],[2.15305553830428,48.639009904169974],[2.150621882345522,48.637179784774034],[2.146239287258599,48.633355071172296],[2.144855072872168,48.631785019315735],[2.144081251822726,48.63088456767354],[2.139340719845802,48.625360462478554],[2.137922293099829,48.6239647809826],[2.136532794091049,48.622776004846806],[2.135465219908769,48.621931756540604],[2.134198095699453,48.62092965355766],[2.132178944290385,48.61951320575608],[2.129601076481858,48.617942168182964],[2.126593441508708,48.6163383787679],[2.126022252306782,48.61603377826609],[2.123789594555554,48.614987042777564],[2.122267653684635,48.61434830942286],[2.119727853890705,48.61338713434962],[2.116401858541817,48.61230919834066],[2.113126105459209,48.61140311758161],[2.109596602187249,48.610603919811425],[2.106087145392843,48.609959288944665],[2.105090653252438,48.609773855707616],[2.10205142730741,48.60920823851625],[2.094994887456398,48.607737200666215],[2.08721562750646,48.605959254755454],[2.082430988853055,48.60484561305284],[2.077011351992813,48.603583882555284],[2.068567253661013,48.60165699186281],[2.068163237023595,48.60155516965039],[2.065226877700491,48.60081508093251],[2.061579315577806,48.59970566244614],[2.057201385428093,48.598096737853254],[2.053294203346064,48.596404531387186],[2.051317905152174,48.595430507227626],[2.048242521392074,48.593888821355485],[2.046133704765711,48.59294186803103],[2.043100194157826,48.591689952638774],[2.040687788837505,48.59078274896008],[2.036956020674675,48.58950997071857],[2.034638749632835,48.58873031826158],[2.031095013056501,48.58753788487724],[2.027677996603723,48.58639605737392],[2.025176832081638,48.585454157418155],[2.021623543355473,48.583959824667964],[2.020285970310253,48.58333712116568],[2.01949344591918,48.582968149360255],[2.016987016476712,48.58168029057217],[2.014092689055663,48.58008028738379],[2.009562842319669,48.5776725944598],[2.005452938592649,48.57557323341008],[2.003444336967955,48.57451874357434],[2.002616854691218,48.57408430362928],[1.995655636322796,48.57056761126785],[1.992412758010532,48.56911169983796],[1.989096931477814,48.567784690139206],[1.987404231578623,48.56722143774161],[1.985433124628219,48.56656549839501],[1.981172638361583,48.56535692264433],[1.97784694441166,48.56459716385102],[1.974897633762505,48.56405164849184],[1.971388541931122,48.56349071405194],[1.966072218374447,48.56260509828999],[1.961053382001791,48.56176936190439],[1.959884962021843,48.56157255402285],[1.956391653219131,48.56098406597049],[1.952885338040292,48.56030380357274],[1.949434728720012,48.55947533898566],[1.949049852158937,48.559382925239994],[1.946276884292333,48.55858653478726],[1.942109102452971,48.557129453734014],[1.940045323312804,48.55624585177785],[1.938284149995094,48.55543020810121],[1.93606313162681,48.55434905919158],[1.934328193974479,48.553422706789966],[1.932347510758466,48.552264436639966],[1.930428168272259,48.55102748134511],[1.928171123169565,48.549391439451725],[1.925789353169217,48.547445335934455],[1.92329614159586,48.5451259196542],[1.921220709216609,48.5428023154823],[1.919787126612458,48.540964588367856],[1.918912505342834,48.53962908265969],[1.917931086585698,48.5380598577516],[1.917001675556713,48.53628516795792],[1.915303122724582,48.532491689310966],[1.913490343620708,48.528362067225075],[1.912524572629218,48.52616169922657],[1.911203700268239,48.523084931680394],[1.909885951996636,48.52001505937359],[1.908057835026819,48.5158138278369],[1.9079516488999,48.515569777437605],[1.905129689126199,48.50912030665803],[1.904073604990969,48.50717796832859],[1.903084299968274,48.50546592859286],[1.902148015127388,48.50407118896611],[1.900595308554803,48.50194996805793],[1.899165162225938,48.50024172704366],[1.897580041393698,48.49853994827393],[1.896085513086511,48.49706868393909],[1.894355775625828,48.49545263872509],[1.892422597058103,48.493882192315915],[1.891097352242267,48.49287183143765],[1.889547971671944,48.491756391307106],[1.887408849273968,48.49035818476404],[1.88567551259145,48.48932339081449],[1.883796512209057,48.4882015607021],[1.880555541751477,48.48652356147],[1.878042001927388,48.485383029300564],[1.874701822379802,48.483989549852154],[1.872374557873508,48.48297691051189],[1.868229683633471,48.48125829293121],[1.862243942215922,48.47873775018137],[1.855645480388843,48.47593376528369],[1.854292762410557,48.47536712455083],[1.852316565826538,48.47453926440707],[1.846084346667533,48.47192044692296],[1.844029211247711,48.47112421730104],[1.841631244720589,48.47027142510185],[1.840424908536947,48.469821740491064],[1.837254210430958,48.468848152939955],[1.835840550440749,48.468467956997046],[1.834625615495456,48.468141189106035],[1.831308702538583,48.467324421489025],[1.828783903921165,48.46677676502946],[1.822953693685222,48.46544384667812],[1.820633103971696,48.46482675068178],[1.817439081281379,48.46386031281955],[1.81493463475912,48.46295530606456],[1.812690613940084,48.46211784298502],[1.812304418109102,48.46195016510077],[1.810225729324397,48.461047603004374],[1.807315331356657,48.459671838880645],[1.805467993154959,48.4586869083558],[1.803951206877014,48.45783201402305],[1.800793330067565,48.455835753084926],[1.798190864211898,48.453965752715156],[1.797392008228794,48.45339169650156],[1.79307568357129,48.4501811435858],[1.790251622281622,48.44820381780638],[1.786644654875808,48.44590707102404],[1.784884961225865,48.44486268845726],[1.780281485671672,48.44212229528833],[1.777279809556147,48.44014281343349],[1.775523862722143,48.43886524950074],[1.773695051451009,48.437439961731734],[1.771786792221936,48.435769068842895],[1.769063937030885,48.4330951858714],[1.766419078586781,48.430152722667465],[1.76466827928939,48.42816348575079],[1.762767457565971,48.42600359197228],[1.760635244007025,48.42355743899935],[1.756079796295207,48.4184163870153],[1.753843574649236,48.41586602365265],[1.751572258672438,48.41329939886658],[1.745223495938494,48.406103188929485],[1.742396384221046,48.40288960640085],[1.737360007799666,48.397163589258604],[1.735445039417008,48.39517866258653],[1.728168091291977,48.38867650263411],[1.69931420824675,48.362736966934534],[1.698062257551621,48.36144782187102],[1.696388978901426,48.35964431007231],[1.694996681049632,48.358039440526134],[1.693581843861488,48.35613847231938],[1.688950548000548,48.349765732642695],[1.68793101788684,48.34837385597508],[1.674967773486233,48.3306689435052],[1.673540048007009,48.32870957519171],[1.672407080046364,48.32715460536374],[1.668321383060228,48.321484118759905],[1.662021020398946,48.31279391253529],[1.659724437182597,48.30970209009899],[1.659365067438491,48.30920984480726],[1.657945794710461,48.30726569927149],[1.655434655510853,48.30424466515349],[1.651687743267277,48.30030232271931],[1.649239411147419,48.298079964422136],[1.645319000565732,48.29493757632884],[1.642217538557523,48.292757362067526],[1.63957831193633,48.29104528603595],[1.637030025329811,48.28951073430459],[1.633306666075296,48.287518909675974],[1.631842797986264,48.286812856612706],[1.622772729031606,48.282437346035785],[1.619814150483181,48.28088391928166],[1.618316911615956,48.280029039692494],[1.61758500153644,48.279611123271216],[1.614632733451975,48.27782935233032],[1.612111116019202,48.27618425831373],[1.607736826644182,48.27298079518079],[1.600565304171219,48.26766319503317],[1.598017852140657,48.26603503228714],[1.593731695449223,48.263534468278955],[1.593153786471592,48.2632362464359],[1.591241233684193,48.26224925567687],[1.587397731479095,48.26039510196573],[1.583329023691935,48.258677754488154],[1.577821893995792,48.256644863788175],[1.573546018744687,48.25528509183152],[1.570506329473187,48.25447887924166],[1.568794342984513,48.25402476597254],[1.561126838659467,48.252184413031955],[1.54409533091581,48.247650815702535],[1.543838168083313,48.247582336936574],[1.52934925966255,48.24371538967726],[1.521275464599936,48.241463445546714],[1.517430216960701,48.240308934523355],[1.516968117884957,48.240178825907435],[1.511587917471217,48.238663795590625],[1.503389933036585,48.2366724548043],[1.497909852220283,48.23525950613687],[1.490134100621998,48.23317993016371],[1.483327799376542,48.231359070627676],[1.465292528443469,48.2265251481675],[1.454365138593491,48.22362556780382],[1.44639649771095,48.22158051012248],[1.440885036341232,48.219997614669616],[1.437736109710261,48.21895500725559],[1.430493887445257,48.2159437849742],[1.424258469192102,48.21312115296172],[1.415114566217621,48.20917913815226],[1.412335796309235,48.20809689207187],[1.40699387579409,48.20619853334131],[1.40301112271326,48.20497688303554],[1.393695913369978,48.20244457166715],[1.389526721779412,48.20132529169489],[1.372119502779542,48.19674000834442],[1.369618077712775,48.19608204230024],[1.3669695101605,48.19549680683931],[1.363956838337348,48.194827076633025],[1.360915456384024,48.194222908239645],[1.356181092780065,48.19342898388903],[1.352291547298468,48.19285692834131],[1.348562946759645,48.19234725617282],[1.343267315190499,48.191605704117286],[1.335527059311188,48.19051335307916],[1.331727122953566,48.18982747767367],[1.325790689276406,48.18860189122958],[1.319981882628335,48.18708803605874],[1.314230395400821,48.18543420678273],[1.310787243592555,48.18428733131984],[1.306244110845194,48.18264160377775],[1.302342097227874,48.181075167632976],[1.298692781581686,48.179415644767275],[1.291832049935274,48.17623840709501],[1.282717993498069,48.17200991729013],[1.280376298977446,48.17092027052511],[1.265517988632559,48.164074595673895],[1.259553382824079,48.16135055273138],[1.255043691328441,48.15968746896553],[1.250657182492245,48.158182339899405],[1.246344387369433,48.156836207244254],[1.238502944522006,48.154664159059514],[1.233095919200148,48.15294981029837],[1.230494728474537,48.1520260591202],[1.226896368187479,48.15059822634384],[1.223877821079232,48.1493342998005],[1.220642595814085,48.14766126029053],[1.216768633720553,48.14534552489659],[1.213906850614165,48.14344049470802],[1.210766271603791,48.14125014343706],[1.206665685008285,48.13835487673057],[1.203278038350174,48.13612189377401],[1.201093075027354,48.134788873956076],[1.199008632562771,48.133589073953594],[1.195636469228876,48.131684552796266],[1.189971330599268,48.128559198574386],[1.187879090483173,48.12721855852532],[1.185187048960011,48.12539442346631],[1.18313981534009,48.12389630989221],[1.182966711275807,48.12375366510759],[1.181239316800271,48.12233016501796],[1.179432507299384,48.12071274077041],[1.178924862595766,48.120204408401655],[1.177695587043516,48.118973417386115],[1.175901228655885,48.11692119838358],[1.174704950268114,48.11556363878705],[1.17288954768751,48.11342904446494],[1.170590762705957,48.11111298915906],[1.168155934040582,48.10888545947214],[1.166838411039218,48.10774819285383],[1.165097493036914,48.106333818131105],[1.162632218023461,48.10445116898706],[1.159605463617701,48.10250700457793],[1.15732881512917,48.101241931205756],[1.153392778667963,48.09944145702791],[1.148750671556402,48.09759462753519],[1.145448169209944,48.09643614565123],[1.143553189673551,48.09577933281011],[1.123272554612923,48.08874697871361],[1.122567842706034,48.08850252138987],[1.116994845301756,48.08657397490546],[1.116024262117419,48.08622891798093],[1.1128906909331,48.08506609904374],[1.102879264752012,48.0811438195937],[1.095794680463834,48.07801800869141],[1.093953148279398,48.077085619171186],[1.093053207120144,48.076629945691835],[1.087958434136914,48.07364035595596],[1.08485277191196,48.07146453374704],[1.082427447693189,48.06968613245468],[1.080267061858796,48.0678329518191],[1.07767900478666,48.065581251003124],[1.076532821181489,48.06458395045287],[1.07259149422948,48.06019846822964],[1.070107512587595,48.05682038204319],[1.068673600232655,48.05482955613351],[1.065152422517514,48.049240003073045],[1.063085381865321,48.04569467173292],[1.062618280720916,48.04489344076003],[1.060502879589427,48.04114350222502],[1.05924361774386,48.03881131836951],[1.056713622266462,48.03412503230734],[1.053812852972199,48.02896548980707],[1.051076799562029,48.02415596900145],[1.049377637432949,48.02104894086004],[1.048562797086306,48.019357892665695],[1.047173149912039,48.01550547579956],[1.047091322047464,48.01517791800308],[1.046088776818429,48.01116438000293],[1.045079343892689,48.006179165579034],[1.04504883725852,48.00602848965566],[1.044924702637273,48.00265374609187],[1.044762480001617,47.99782915774154],[1.044776725891362,47.99460600859919],[1.045091479299247,47.99068520074798],[1.045303308820779,47.98884427021058],[1.045595841552847,47.98694319684818],[1.046091010173312,47.98415839197876],[1.046910439172362,47.98073779778233],[1.048256414241312,47.97686920952922],[1.051192258062767,47.96995284929263],[1.051685935689119,47.96881600754558],[1.052892477007617,47.966037364713486],[1.05366400335183,47.9642583660393],[1.054217993550309,47.96270412423274],[1.05429596068357,47.96246945062325],[1.055114715414906,47.960004946625716],[1.056380960362594,47.95578358450555],[1.056870006459024,47.953499239643165],[1.057683966709178,47.94805426023341],[1.057805161089789,47.94724343391141],[1.057937230114278,47.94577880502784],[1.05815819724535,47.942190902706194],[1.057964106178833,47.93826072083101],[1.057954846926011,47.938006073143626],[1.057742672892293,47.93217018862138],[1.057570525220825,47.92651961822521],[1.057318015132666,47.92128052007134],[1.057044665929252,47.91661198451608],[1.056911543007828,47.91484533738946],[1.056816043037228,47.91357790307282],[1.05624859380031,47.908737588442314],[1.05534595069113,47.90269153096074],[1.055220606882475,47.90185184557593],[1.054345756455977,47.89649694265464],[1.053239987482891,47.8916067681702],[1.053199425834199,47.89142736994125],[1.050914354706882,47.88287810340087],[1.050867958743156,47.88274025537111],[1.049916748628141,47.87991393062014],[1.048706173691425,47.87668415710776],[1.048653129303834,47.876542627044046],[1.046168007098511,47.87098509884951],[1.044335947271091,47.867203915771775],[1.042121535545745,47.86317914867721],[1.040568248707699,47.86065461141023],[1.039757175290797,47.859336279145694],[1.036188203765108,47.853704693912206],[1.034151238550366,47.850344425373024],[1.032387003602751,47.84724048072458],[1.030259751305503,47.843374986571924],[1.028673949726004,47.84004558038121],[1.025357260523202,47.83274299982375],[1.022271522826469,47.825918513592704],[1.018896380028779,47.81813155029396],[1.015341418442615,47.810297472606194],[1.014824455782445,47.80904953697679],[1.013032922663667,47.80472434076942],[1.010575352933605,47.79931550630875],[1.009309168665793,47.79649192933201],[1.007519175745738,47.7924997223954],[1.004432935800345,47.785463699879855],[1.002187995831121,47.78033932123065],[1.000292301522404,47.775642489857006],[0.99881585023618,47.770969719417],[0.998475626161029,47.76989283513238],[0.996564008745632,47.76245318403143],[0.995872844071826,47.75793253047485],[0.995636850186777,47.756388802041556],[0.995223466698245,47.75322477732207],[0.995069482868428,47.752046091830195],[0.993894606713625,47.73981290451479],[0.993217367002749,47.732758670576956],[0.993035729873751,47.7282490629556],[0.993148725429119,47.720982320183204],[0.993154674128223,47.72059970369198],[0.993717278033875,47.714286733632484],[0.99458262481394,47.708949381079044],[0.994871557138619,47.707640719188376],[0.996139157017683,47.70189859702214],[0.997439807750756,47.695656462532995],[0.99832649959047,47.69140015753253],[1.000092442577937,47.68247869246102],[1.000580559882248,47.68009574827291],[1.001159326217977,47.67726998122457],[1.001211981705475,47.67700621532828],[1.001944009045656,47.67333901139597],[1.002537218994198,47.66861412144366],[1.002730132295849,47.66589411262906],[1.002906897013101,47.66291027768356],[1.002867793489763,47.65874557327289],[1.002641491587717,47.653330201282365],[1.002291367350785,47.646015145892925],[1.001823749921666,47.63593956098409],[1.00148191162368,47.630838403198396],[1.001038376165494,47.62671941464626],[1.000521916117629,47.62316141006476],[0.999663655652798,47.61901772487356],[0.999058237443279,47.616450889244874],[0.998402751847496,47.6146253312653],[0.997545585058993,47.612213589177394],[0.997035916357631,47.61079537913366],[0.995321690991644,47.606275105643924],[0.993278112637013,47.601891333482996],[0.991789410681231,47.59891428865788],[0.98567021087452,47.58836280993114],[0.983585719825362,47.58472249009166],[0.979886466053841,47.578194873377534],[0.977405443519659,47.57376800384171],[0.975050022105517,47.56913170787905],[0.972554796966059,47.563721177099914],[0.970989439783711,47.559548253055105],[0.970092388921381,47.5569264169935],[0.969431935129144,47.554995918930224],[0.96866358880096,47.551802265094715],[0.966825740630902,47.543186196043514],[0.965821680533481,47.53987591516244],[0.964764097448114,47.536755375323025],[0.964327882508736,47.535468154730104],[0.963090716735541,47.53244880809039],[0.961956527630032,47.529861604803266],[0.960464296506062,47.5268132594122],[0.958894189927487,47.52420354909906],[0.957118154182072,47.52150157923596],[0.954636058755921,47.517767349048135],[0.9497865340472,47.51030215461907],[0.94746155967355,47.50668543520579],[0.943545013933264,47.50063327741478],[0.940966170757248,47.49689769965935],[0.937590429471233,47.49232207825281],[0.932346844972514,47.485112581492196],[0.929700019309068,47.481498495086825],[0.92737360327101,47.47832054868427],[0.925905297512491,47.47641422049524],[0.924518593935994,47.47479625827477],[0.923552374101757,47.47370491503612],[0.921780752419829,47.471833495365104],[0.920369707543178,47.47046405017379],[0.918407104184325,47.46861906939278],[0.916489592672463,47.466950578110904],[0.91386322828443,47.46485640986339],[0.91035882231138,47.46235983393027],[0.90683596167225,47.460012174527044],[0.904126340676873,47.45840828868401],[0.900401457476834,47.45637201464866],[0.896024010076929,47.45426445073011],[0.892852972437084,47.45288038383238],[0.882499185322893,47.448721134930565],[0.878427620291094,47.446872175481566],[0.876358686204329,47.44580645593836],[0.874545194663251,47.44483322539352],[0.868746601049742,47.441473303405175],[0.864164732196572,47.43881789112291],[0.861158079756239,47.4372514251712],[0.85925351121941,47.4363624390408],[0.857611284701137,47.435595856007964],[0.853456484420638,47.433909132504695],[0.849290898616419,47.43221777355819],[0.846659801363189,47.43099173636048],[0.843907920712811,47.429552525982],[0.841113988836089,47.42787523470376],[0.838932736679192,47.42642012846843],[0.8371775639664465,47.42502330315341],[0.8371869733709156,47.425030791737],[0.836988373554639,47.42487273304022],[0.835013472254446,47.42312264639162],[0.832898023164045,47.42100966100491],[0.831080050118567,47.419227277449224],[0.828052070303783,47.41664027861293],[0.824075422192648,47.41383335836249],[0.822043739387998,47.41241786925109],[0.817492328435418,47.40924646264135],[0.808210994562013,47.40279515569863],[0.805259821425178,47.400739297033525],[0.800343534129873,47.39692087256528],[0.797599087549134,47.39474255277992],[0.795166972423439,47.39252615280679],[0.793730412679152,47.39096123424551],[0.792715055455486,47.38964249835688],[0.791907058860915,47.38849144700846],[0.791644332415492,47.3881171616306],[0.790486110512201,47.38624417199335],[0.789629102817167,47.38448068965448],[0.788875126762749,47.382381829657646],[0.788323148950791,47.379783981909],[0.788149952208259,47.378968789655154],[0.787915394637469,47.37662896517511],[0.787991088793636,47.37448533222356],[0.78796973260776,47.37372028777858],[0.787821517320779,47.36841015062097],[0.787791164015731,47.368169634892666],[0.787696779556088,47.36742173044911],[0.787338304667812,47.3659271861892],[0.786847768546935,47.36423983425394],[0.786044375621963,47.362114039874356],[0.785188613087239,47.36033322071015],[0.783816196531549,47.35811870931911],[0.782198309517788,47.355994636816156],[0.780307033500815,47.35402100649957],[0.778361544526477,47.35222975444589],[0.776549550808718,47.35081076878584],[0.775057959400957,47.349755965098794],[0.773699235648279,47.348851824721095],[0.771125728524956,47.34738392833901],[0.769055037783244,47.34637541274207],[0.766992105134501,47.34548810282078],[0.763422255646689,47.344145460147416],[0.762556584555734,47.34381984908446],[0.759627319943142,47.34265621931659],[0.756906681460158,47.341375446286406],[0.754235121900215,47.33989085233663],[0.752907998173981,47.339014616760856],[0.75131590344548,47.33790745863999],[0.750648382421828,47.33740225568219],[0.7503824004548751,47.33720094759752],[0.7873829903027787,47.366593914601054],[0.787630840048774,47.36828081957423],[0.787925309067272,47.37075019328284],[0.788095483154775,47.3751281618903],[0.788263025993904,47.37820985862657],[0.788850721818368,47.38165219017476],[0.789932137225831,47.38469407006043],[0.790436228362607,47.3857425263505],[0.791665999800701,47.386890546929216],[0.792286443289343,47.387159667664754],[0.793838601631526,47.38763709043742],[0.794649593327963,47.38770966515797],[0.79625214928823,47.387644749141884],[0.798343221281031,47.38730313773747],[0.800722149308652,47.386785848762145],[0.802770700415506,47.38645288514628],[0.804306214915012,47.3863103445679],[0.805989736507672,47.38632307177323],[0.808382585636307,47.38649211396249],[0.809898245391764,47.38683519981478],[0.811422893590279,47.38730233593658],[0.813341240392046,47.3881819193933],[0.814530786932076,47.3888666839673],[0.815673455782226,47.389755467754235],[0.816789712020777,47.39086295228677],[0.820531368016816,47.396179870797084],[0.822285234523563,47.39861449372678],[0.823213009271235,47.39961830270732],[0.824544637972909,47.40052958714106],[0.825758182728508,47.401238501192104],[0.82702136984798,47.401762479916435],[0.829392797240944,47.40247869159494],[0.83085305110415,47.40264413803383],[0.832964089398793,47.40287242910323],[0.832964089398793,47.40287242910323],[0.84157677547354,47.40380340136139],[0.7874020293415672,47.36672350117949],[0.787083191231602,47.3645532890666],[0.785017445181927,47.36022495218177],[0.782379629928974,47.35617157771255],[0.777523681377922,47.351503843566995],[0.772064581611624,47.34787274073369],[0.7705554808273859,47.347213626757984],[0.7708510225365801,47.3473427102344],[0.764076186183166,47.34438332061014],[0.756640059713552,47.34125729613827],[0.753683317806458,47.33957258386343],[0.750924535096635,47.337688252366796],[0.748247671991333,47.33552034704995],[0.744966159783104,47.3326933860982],[0.739364605998877,47.32797256914486],[0.737350801339793,47.326180864194804],[0.734707200044619,47.32346763327147],[0.730680424103491,47.31877474168115],[0.726761124755217,47.31466641879838],[0.722765224069458,47.3115716871507],[0.718952301829574,47.309283511409404],[0.715571625068071,47.30765033165316],[0.707626040845625,47.3046768733156],[0.703944212256278,47.30328469126828],[0.700737589807104,47.30182071580779],[0.696658740151911,47.299502628683385],[0.69431426196878,47.29787815933293],[0.692189266925668,47.29619575834372],[0.690575831354062,47.294763694766054],[0.688450944752742,47.29261832280023],[0.686675824970603,47.29052574831817],[0.684885819425178,47.288011333451436],[0.683075065082046,47.28486773877418],[0.681410733773493,47.28177575382723],[0.678927274991562,47.277353720541775],[0.677360613422626,47.27501361218396],[0.675291393223027,47.27220064973985],[0.673163484677836,47.26930318264584],[0.670745888780551,47.26553574742543],[0.668933111962923,47.26196869118874],[0.667379121687742,47.25787976717356],[0.663209876599122,47.24373839562178],[0.66163746372306,47.23820029736308],[0.661012172748221,47.2352079331169],[0.660521227548221,47.23131520077781],[0.660033708102042,47.224598952565835],[0.659085393749406,47.21731474617379],[0.657033093919351,47.206638610282155],[0.656383520189462,47.20305444913015],[0.65596523808976,47.199104472655925],[0.655942427429089,47.19457294900697],[0.656396280356793,47.19011508171188],[0.656899804475782,47.1874320190853],[0.658603965848506,47.181612199988],[0.661257295624634,47.175663317145165],[0.665537179720635,47.16881316696066],[0.669003966674042,47.163830538423234],[0.672513898079302,47.158783626783595],[0.67648512587373,47.152275558878515],[0.677974389183922,47.149122691500416],[0.679183753382901,47.14600758038489],[0.680398912216468,47.141895979931945],[0.681386016153755,47.136280125966664],[0.681569953643089,47.129438345014385],[0.680874650922042,47.12374349600205],[0.679482059920078,47.118327521787606],[0.677282877741242,47.11278567565928],[0.675708208998769,47.10971908339399],[0.673427351013676,47.10599457788644],[0.669124632690974,47.100351497443256],[0.662812418843347,47.09396412940367],[0.658024247239466,47.09005822760244],[0.652710359755828,47.08638820161981],[0.647536188292793,47.08334050856289],[0.640656796004959,47.079867396815395],[0.63274896054234,47.07600744196321],[0.623414989561005,47.07128213099427],[0.617889568255036,47.06799649249643],[0.612460059376084,47.064290936424314],[0.603695298986676,47.05803597282742],[0.598641005529932,47.054338996778995],[0.588861242236885,47.04744197775932],[0.58367645155257,47.04341442080239],[0.582396639011306,47.04230440638013],[0.579507467667739,47.039589331430356],[0.57483395599355,47.03440758467095],[0.572279684651933,47.030988934925766],[0.571149778168508,47.02928802756663],[0.567327973057739,47.02313008091199],[0.563791744913771,47.017410275625274],[0.560819903021573,47.01260232887586],[0.557883138912634,47.00813689954626],[0.553320725734661,47.00270393130067],[0.548360344620811,46.99809139197172],[0.542862508542571,46.99393354273573],[0.534806653211409,46.98820349809551],[0.525973791783717,46.98277590741863],[0.518958973217685,46.97924627244504],[0.516385605559928,46.97808541119286],[0.509807356173534,46.975154908591655],[0.505068036896162,46.97304319962894],[0.495632920843979,46.96880769290002],[0.491971851781058,46.966988918413634],[0.486325125344721,46.96377587700483],[0.481200354375386,46.960347919954636],[0.477314007372343,46.95737723958829],[0.472098684967972,46.953268545664976],[0.467136253005108,46.94909925388445],[0.46354611028953,46.94556356010864],[0.458890206532288,46.940007102886],[0.456167671142359,46.93597609409969],[0.452903885325634,46.93026502973806],[0.451354738022277,46.92761467293214],[0.449373553570598,46.92462768715422],[0.446756639313304,46.92121804710728],[0.443371326833789,46.91742301642705],[0.440634058583401,46.91451641445411],[0.436577378155282,46.90995926823114],[0.43447757099555,46.90722348857499],[0.431303107354893,46.902503792745605],[0.4277321520934,46.89706146045399],[0.425532588165311,46.89370859984293],[0.420370461191684,46.88583800700649],[0.412709696651856,46.87415311185876],[0.408234969835887,46.86732526360162],[0.405015597877012,46.862411741903934],[0.402115990526871,46.85817665120606],[0.398581269510541,46.85349204975317],[0.394769859068926,46.84809291665425],[0.392957300667995,46.84496924500545],[0.39021791905152,46.83890049368387],[0.38860378931305,46.833574003897795],[0.387775004483253,46.8290053957847],[0.387455186763708,46.82222749314538],[0.38766760448357,46.8151060030339],[0.388029248301324,46.803137770539635],[0.388190876323919,46.79778748348078],[0.389164202350914,46.78719417384989],[0.391125654270453,46.778046175486836],[0.393672672523638,46.76684464627078],[0.394590561495699,46.75329433311673],[0.394302205435979,46.74940582389602],[0.393005356529499,46.74287412011349],[0.390936929805262,46.737004671656905],[0.387889064327413,46.73103476106933],[0.381640292862955,46.72189018010042],[0.376884981453244,46.71515546695666],[0.373833484665747,46.71070024407908],[0.371604137763485,46.70688019285066],[0.368156371593868,46.70065438190668],[0.364335725617311,46.693753427593975],[0.359881496498983,46.68550476696774],[0.35763782351421,46.67994702700259],[0.35611290987407,46.674042016975946],[0.355284737085785,46.668363617367135],[0.353986247812081,46.65794600690599],[0.352243266270868,46.65037221101998],[0.349918507708563,46.642321816502374],[0.346479854940689,46.634465305253045],[0.341714689440529,46.627185548397236],[0.337212992499612,46.621977170455615],[0.327715186949118,46.61362090268694],[0.319628130371466,46.60712187918806],[0.31246193077479,46.601361104741216],[0.30300844123207,46.593741942606655],[0.295871537957049,46.58694848668729],[0.290284038056102,46.580526960247454],[0.280781124404669,46.57053509414605],[0.27184106778188,46.56185698918024],[0.263859669856665,46.55410651408647],[0.259369958426056,46.54974548278202],[0.253377265457846,46.5437945332345],[0.24924593516323,46.53892929552997],[0.245658940910859,46.53374786593962],[0.241319017891079,46.52604630175488],[0.236827947968346,46.518306747576844],[0.232795132634241,46.51142791878122],[0.230096046354084,46.50646144490456],[0.22486000572453,46.49724437487677],[0.220485406825003,46.48969905046576],[0.216126795734153,46.481757054451705],[0.21295633655949,46.47478337241405],[0.2107795249645,46.468256701050386],[0.208958197367882,46.459240048739964],[0.208456866983919,46.45209497770983],[0.208243415642158,46.435642003686155],[0.206708687124738,46.424192762994544],[0.204734205939496,46.417292314371586],[0.201088644086227,46.40864329685249],[0.195643109719517,46.39741564989449],[0.190141682732812,46.38745036725127],[0.179464920885177,46.37514638012135],[0.167423484834337,46.36246963260672],[0.15259401961676,46.34240539388645],[0.144359051943877,46.32540379606463],[0.13657562088617,46.304755244006095],[0.134368901975765,46.290242828207795],[0.134487542374907,46.28368545169036],[0.136883907474451,46.270029108976445],[0.139988503105314,46.2569330072247],[0.141546723559841,46.24643357159837],[0.141901946248603,46.235224547145556],[0.140806055598673,46.223308364309666],[0.137486392869261,46.20913017425734],[0.133772608397271,46.19700522284283],[0.132882368855919,46.184731740270955],[0.133376681332443,46.17137772026297],[0.133194162084097,46.15614094726464],[0.13116288644583,46.13909100346855],[0.128916391198539,46.12337853253969],[0.126543972109577,46.102291472703804],[0.125086535543145,46.09272507785728],[0.125433492858435,46.08234375406019],[0.12632899731591,46.07559032084466],[0.126942250474232,46.07095491403543],[0.127676611236524,46.06166399317267],[0.127626267591254,46.0547538321002],[0.12736764823825,46.050768824132994],[0.126756358811008,46.043345494280416],[0.126340491204931,46.038294364722155],[0.125940855163557,46.03343950719288],[0.125484328666285,46.02789248158274],[0.125015730887811,46.02219761723166],[0.124497613879922,46.01589956999348],[0.123783626439879,46.0072182222125],[0.12323292929999,46.00052043937179],[0.122454067600431,45.990871674412304],[0.122289582681225,45.97241329631911],[0.123141106359051,45.959750279679184],[0.124931802002259,45.941344317331726],[0.126194116207355,45.928361998667064],[0.128275076904415,45.90692859591736],[0.128240885626278,45.89766554546244],[0.127339042687271,45.892424272953555],[0.125821743449422,45.887312434750214],[0.122649779847633,45.8802507480628],[0.118226855042514,45.871689685022524],[0.114916315239156,45.865279935020226],[0.11183535777304,45.85902845820571],[0.109040048863769,45.85375913343298],[0.106554077966078,45.84763343599926],[0.103112864182956,45.83867217441995],[0.101030229645633,45.83232415116559],[0.10013678050495,45.829562279634516],[0.098771173274902,45.82534030377125],[0.097267932199052,45.820692047398545],[0.0953974359631,45.81490706068402],[0.093213015424792,45.808254501030056],[0.091003646737496,45.803144442410215],[0.088610526656963,45.798966459278866],[0.085133654003938,45.79416491177643],[0.08079122535281,45.78939315871949],[0.076013654787468,45.78500631742977],[0.069711558222976,45.7791715507435],[0.064905921894298,45.773627306307944],[0.060804398593203,45.767359974344274],[0.058113057977665,45.76163144910613],[0.056463566796832,45.756461522719796],[0.055455061256983,45.75083962447206],[0.055224024517752,45.74569331211621],[0.055912230148755,45.73896101100385],[0.056808316260604,45.735150125517556],[0.058552540273253,45.72970577773663],[0.061157721818517,45.721787892421844],[0.063292222821974,45.7152988067526],[0.066534902951626,45.70543776515729],[0.068491104627146,45.699487182558734],[0.070941991213029,45.6920299635572],[0.072957641028288,45.685883877727086],[0.074622135624263,45.67888905477636],[0.075045868957286,45.67334858288696],[0.074747850509214,45.668258611504335],[0.073532365592512,45.66208393873989],[0.072043814182959,45.65598934980618],[0.070901725215073,45.650979250658445],[0.070419064670884,45.64732336731487],[0.070416634378475,45.639286130969],[0.070541262817929,45.63522614015501],[0.070652069332362,45.63011143639704],[0.070419782747202,45.6262817265894],[0.068808515226599,45.618224166952125],[0.066733071836416,45.60943230522579],[0.066257910241464,45.605955490652214],[0.066083825210943,45.60069957959368],[0.066097454083213,45.5938877342279],[0.065846579940759,45.58713328500073],[0.065275942697367,45.58028313387309],[0.064311957669614,45.57347234750122],[0.063769701644742,45.563518895583144],[0.063533490540935,45.55971126946994],[0.062915730880853,45.553785558197035],[0.062023075895108,45.54975613709379],[0.059395804831038,45.542382391406804],[0.056517652874638,45.53504210086414],[0.053890925027074,45.52604557791664],[0.053298540517459,45.51985544143306],[0.053405957702449,45.516163648390275],[0.053811651729727,45.51141343121178],[0.054334371393693,45.505448810718214],[0.054542767634794,45.49953967091049],[0.053913394575858,45.49376032967738],[0.052805155961079,45.48919494142799],[0.050637132400997,45.48351905076482],[0.047093558562205,45.477189062160754],[0.043242328457576,45.47206383360678],[0.039411739986597,45.467520726932506],[0.034186327003269,45.461009074531624],[0.030576423569012,45.455974299764804],[0.026190962122275,45.44984907396815],[0.021064201802862,45.44268654469573],[0.01449780936177,45.43350969616929],[0.008156324998876,45.42464393783276],[0.002355238671018,45.41687124495179],[-0.004796033089399,45.40794415987217],[-0.012137216566465,45.39877183368253],[-0.017337805661018,45.39128989618581],[-0.021821306537261,45.3822436856963],[-0.024473482445028,45.3736074976334],[-0.025647663860625,45.365166873341224],[-0.026287700384759,45.35333497600275],[-0.028015167950918,45.34318111523334],[-0.032431862446618,45.33254901914799],[-0.036144680961174,45.32670052946483],[-0.041388110687867,45.320357081936464],[-0.046784893251028,45.31503618838351],[-0.053018794269087,45.309044494268896],[-0.061643211232356,45.30156574195757],[-0.069170360783003,45.29627153562271],[-0.079703214232076,45.28964255721358],[-0.091846443726226,45.28200728883472],[-0.10281817562592,45.27494438737484],[-0.112608511852888,45.26861468618201],[-0.122238303900817,45.26219700418394],[-0.130448349950844,45.25488951965004],[-0.135443657542571,45.248682099533376],[-0.142370144818274,45.23877637786168],[-0.147147697639047,45.23193997616023],[-0.150256586861572,45.22749033112645],[-0.153894617476875,45.222464890165035],[-0.157466883761985,45.21836974810186],[-0.162852049418047,45.21337327380334],[-0.168412034182859,45.20921836075547],[-0.173445600220854,45.206095331014396],[-0.179941024210251,45.202761965343726],[-0.186374952622956,45.20009264045701],[-0.197273897048637,45.1964825998033],[-0.20817577610484,45.19298036172128],[-0.221984360472289,45.18854218718991],[-0.249429679444402,45.17963892529188],[-0.257765938147216,45.17614731202235],[-0.263262805340022,45.17326031260437],[-0.26795130023779,45.17034542289829],[-0.273182392755189,45.166474177050084],[-0.279389635415758,45.160713294222546],[-0.284805016824508,45.154961545355064],[-0.289590503795957,45.14989333068702],[-0.295352893673934,45.144634364355674],[-0.302002423856011,45.139859806274856],[-0.312480104319628,45.13421911778362],[-0.324518252842842,45.12925280626545],[-0.330476829996953,45.12682851842768],[-0.340961598537283,45.12172532800318],[-0.348356792101348,45.11689116181659],[-0.353228333041241,45.11291901380012],[-0.355688766815778,45.11059082738683],[-0.359107915306417,45.1068718447459],[-0.363040056654978,45.102306503550906],[-0.367718178829591,45.09535890850339],[-0.370507300169596,45.091627094766345],[-0.375644811786114,45.08523397524592],[-0.379216726683235,45.08093823183327],[-0.383806149557299,45.07576815091207],[-0.38636280578027,45.07290073284367],[-0.387850541019115,45.0711421523023],[-0.390575785232648,45.06745653049529],[-0.391826679725185,45.06550360329431],[-0.393309555393154,45.06307712629602],[-0.3951286515277,45.060093062419206],[-0.397102707107355,45.0568544104285],[-0.400421386971585,45.051408839154604],[-0.40337802765894,45.04655636307686],[-0.406627797055131,45.041460253067534],[-0.40828512720919763,45.03901787201638],[-0.4082179664610274,45.03911685025647],[-0.408554726899635,45.038620545217576],[-0.411198927362838,45.034726757354186],[-0.412997392983616,45.0320604913287],[-0.413985062426556,45.030473946236356],[-0.414857282431916,45.028879156952584],[-0.415504219400989,45.02752793821051],[-0.416219089290987,45.02578617678041],[-0.41681393162663,45.02401529498906],[-0.417377298643343,45.021962680484194],[-0.418027714414741,45.01945358091601],[-0.418682514265932,45.016927211333],[-0.41911872462846,45.01530086759298],[-0.419868806403887,45.013001377548804],[-0.420683203322852,45.011042334845214],[-0.421650885706691,45.009094965828524],[-0.423071568454168,45.00640200861706],[-0.423894120496061,45.00466306465795],[-0.424801550081316,45.00230149529761],[-0.425202872766604,45.00099564329978],[-0.425952355177343,44.997409034927436],[-0.426189033986077,44.99481302765576],[-0.426360788472491,44.990941773479165],[-0.426619800163251,44.98738640592184],[-0.427423610865921,44.983469159281135],[-0.4283454769781362,44.98085499750607],[-0.42830091811664334,44.9809813599767],[-0.428600958086455,44.980130478928174],[-0.430617760660314,44.97619632758904],[-0.433782186692691,44.971334689584694],[-0.435926517418457,44.968114845385465],[-0.439111477590414,44.96414578786927],[-0.445108271934531,44.95859729017626],[-0.447576953009707,44.95644937080648],[-0.452248675030252,44.952384060166686],[-0.4566073189603897,44.94859048363224],[-0.4564303148474871,44.94874455341898],[-0.457160021947848,44.94810938690668],[-0.461652799486975,44.944198266362704],[-0.466694021054917,44.93980884564447],[-0.468488880936959,44.93822354396923],[-0.470855494514855,44.936598914545165],[-0.472291593989563,44.935876604060006],[-0.474425109134307,44.93514684442377],[-0.476480459828509,44.93445661206969],[-0.478807891459089,44.933905732789285],[-0.48410471427224,44.932504256469215],[-0.48974267716448,44.93090710808193],[-0.494553873388215,44.929465599550305],[-0.497612683628972,44.92855178740667],[-0.502693902893427,44.92705909405306]]}}]}