{"type":"FeatureCollection","features":[{"type":"Feature","properties":{"name":"LGV Est europeenne (Paris - Strasbourg)","opened":"2007 / 2016","codes":"005000"},"geometry":{"type":"LineString","coordinates":[[2.642498842106691,48.875336594579416],[2.647262184614903,48.87572792239916],[2.650174536302749,48.876004762204396],[2.652514520828879,48.8763556493346],[2.655665342405351,48.87705614267547],[2.658052131469475,48.87774887220981],[2.6605304142642923,48.87874059936021],[2.6605231673174243,48.8787376995103],[2.661731,48.87922100092084],[2.661752,48.87923400092085],[2.664455787429951,48.88066790404117],[2.667381075307065,48.8827167357602],[2.669691252057528,48.88479260921241],[2.670781912232286,48.88606963426534],[2.672169916194188,48.8879589101064],[2.674612238942288,48.89255402230679],[2.675819088320923,48.8946745398383],[2.677284634398948,48.8970125132294],[2.679092813265486,48.89958349694645],[2.680565551636457,48.90147810093485],[2.682773824809128,48.90437985701061],[2.68552933249357,48.90827665883372],[2.687070430501772,48.91079922119103],[2.68934736380621,48.91498786216883],[2.695275502111517,48.926057661093616],[2.697985630258659,48.931032264291474],[2.699652830694245,48.93344334215827],[2.702206008063318,48.937195830699785],[2.703880095225595,48.93943555661203],[2.709743106357262,48.94784565615889],[2.711273835809035,48.94975451387027],[2.713119053235405,48.951932385644525],[2.715187183277758,48.9541540887185],[2.718558476742817,48.9570891466531],[2.718950935516263,48.95740775547407],[2.719240011752726,48.95764243213036],[2.72186170480902,48.95977063309828],[2.72767035658757,48.96453884121124],[2.727824696797537,48.96467456910024],[2.72989979904881,48.96649933915068],[2.731961621769339,48.96817456708726],[2.732500023535719,48.968611993687674],[2.734228889104887,48.97001843780177],[2.735779493475417,48.97125321411329],[2.738235511525649,48.97330235190185],[2.740094478374978,48.97493997846089],[2.743223059230415,48.97713892660723],[2.744365538672259,48.97789301415736],[2.748450720446945,48.98030934589932],[2.752671336224839,48.98228213412117],[2.75580397144318,48.98363270947886],[2.759403509441731,48.98495277734687],[2.76263616061179,48.985928591665726],[2.76531911015005,48.986716208250364],[2.772235439285068,48.98829617011502],[2.77626971493763,48.98902391133388],[2.783151659516906,48.98982712113396],[2.7853860014053518,48.98999540010186],[2.785364400667622,48.98999377346222],[2.794562926459093,48.990686092458034],[2.801177311491642,48.99118325396484],[2.813278177888207,48.99199517277985],[2.816933281992567,48.992355583580064],[2.822128061021231,48.99298491547528],[2.825376188313115,48.99351466288179],[2.829689201700535,48.9943109362065],[2.833158310210722,48.99513232338367],[2.838036015653966,48.99644111209381],[2.842139849900879,48.997808185290815],[2.845624200714172,48.99905781637658],[2.85538065104457,49.00293447624923],[2.859835003361077,49.00436382559042],[2.867127243049693,49.00658901211181],[2.870925302947158,49.007495511008564],[2.87847439307187,49.008693726197194],[2.883554625965979,49.00932822098562],[2.895228305270827,49.010333285418525],[2.902096506223141,49.01107842092698],[2.90540761121726,49.01148473652281],[2.910239676976657,49.01223171334361],[2.914856479384092,49.01308298895448],[2.923750804465065,49.01534408314497],[2.929887818722531,49.017276733679836],[2.933267336645568,49.01831476841463],[2.947561168439415,49.02308479777638],[2.952845321223649,49.02461978992287],[2.957451008700628,49.02589075336774],[2.966008665294855,49.02819718976642],[2.970314761107791,49.029240720002576],[2.977412433512957,49.030907757308555],[2.991465799229127,49.03397517936116],[2.996034743486641,49.035001699048635],[3.006274747699231,49.037421395760994],[3.015925639298803,49.03952801706264],[3.023424,49.04130300092043],[3.033104246088256,49.043456925231325],[3.054420874706536,49.04821049272915],[3.064968337599155,49.05063408912966],[3.07098000000012,49.0520920009204],[3.072340000000203,49.05239400092045],[3.08052300000036,49.05397500092047],[3.086494257427939,49.054976520124185],[3.091341900471815,49.055574444005636],[3.09713374908928,49.05610322590783],[3.101588540765067,49.056379585669184],[3.109891408837875,49.05665307595881],[3.116319789562541,49.056475004557605],[3.125716792899281,49.05587690747339],[3.130294141851464,49.055405585227994],[3.139668296771562,49.05417025514928],[3.143129102633797,49.05367928742974],[3.149756022330672,49.052692725551736],[3.161782247913528,49.05097217731452],[3.171774700032857,49.04952613618377],[3.177816000000304,49.0486210009205],[3.186471652296648,49.04760454607667],[3.19101449465766,49.04724982919345],[3.195663337189359,49.04688374285195],[3.209185672566056,49.046290843949514],[3.212246411205698,49.04612266948033],[3.218482,49.04580500092041],[3.21862200000011,49.04579500092043],[3.221778468901813,49.04568105410648],[3.226278698308824,49.045458129756604],[3.229882562493296,49.04524928404434],[3.236934146064108,49.044923900352615],[3.240343139109034,49.044779224275054],[3.247165318972749,49.04458532892966],[3.252317112733848,49.04453060712825],[3.256108211629402,49.0445625164593],[3.259670632067387,49.04460369831723],[3.265314259473557,49.04471409925305],[3.272085961898556,49.04502435685419],[3.277673848899685,49.04538150027374],[3.284007237335602,49.045868675385364],[3.287497491476935,49.04619028376693],[3.293596999998232,49.046897275991434],[3.297097008977889,49.04736775574934],[3.302971040248154,49.0483942903159],[3.309023655874994,49.04964522951151],[3.315656930354723,49.051323536377936],[3.323076845007025,49.05326933714685],[3.331360707618276,49.055416448061116],[3.342370785397613,49.058429950839155],[3.351042523484721,49.06112695952589],[3.367588964791651,49.06672129109255],[3.370783686240648,49.06773106306352],[3.380579986208574,49.0711015446378],[3.386928988531252,49.07325118215442],[3.390987900325651,49.07461309896411],[3.395817686122646,49.07627286971248],[3.403669525876064,49.07945627436084],[3.406818278473555,49.080840049646426],[3.415265757558868,49.08484891106141],[3.427979942296229,49.090859129660856],[3.435937867811807,49.09439164346452],[3.443538325403137,49.09734915106959],[3.45068928037169,49.099791821857174],[3.457474241979546,49.10188910462252],[3.461612038943358,49.103062026123645],[3.469346044750652,49.10498498876844],[3.479072220866893,49.10734722690561],[3.485164281318444,49.108863991233235],[3.494129223977688,49.110974769219936],[3.50703718643987,49.114044607832625],[3.513702017095356,49.115763161030294],[3.522306718619624,49.118193485709526],[3.529084980385138,49.12002435550826],[3.534690649563149,49.1212591256786],[3.540244784908589,49.12227372682481],[3.550566697694872,49.123786536515134],[3.564185052063435,49.12583016838189],[3.567229125719426,49.1264445065041],[3.572264155499534,49.12751015295979],[3.579595548813602,49.12921306247363],[3.589934569355451,49.131678284173546],[3.5924092683519624,49.132240751803685],[3.5923946927715065,49.132237439157066],[3.597161348247477,49.1333206546284],[3.604359228113968,49.13498070402948],[3.607929059914309,49.13591032929319],[3.613554272445568,49.13761104766654],[3.619647885949702,49.13977104376377],[3.625428907123623,49.1420689461015],[3.630160000000204,49.14379700092016],[3.634681592286671,49.14535526182269],[3.639355310522673,49.14676018294504],[3.643693441016466,49.147850726365284],[3.649439444503047,49.14921990228425],[3.65588326832051,49.15074701966788],[3.662594336776626,49.152563926825124],[3.668334795644786,49.154339751597284],[3.671715674923256,49.15552597592599],[3.676926000000115,49.15759600092001],[3.679299897708453,49.158542413817784],[3.685342753854902,49.16136101051693],[3.690273470550009,49.163994022657334],[3.693366782534704,49.165776315214615],[3.694939925719306,49.166790460274434],[3.697858020058001,49.16863604751941],[3.703636000000221,49.172717000920045],[3.703658,49.172734000920066],[3.710039,49.17765500092009],[3.71006,49.17767100092012],[3.717159478865001,49.183064176184025],[3.722482084459986,49.18688886895275],[3.727290334696469,49.18973657723044],[3.731422851243704,49.19199606322428],[3.735424881203581,49.19400666787063],[3.740699948874172,49.19638625367169],[3.74626786315381,49.19864901960495],[3.754946851899799,49.201654669074514],[3.760474000000102,49.20337900091995],[3.77100700000011,49.206847000919986],[3.772725,49.20741200092006],[3.784965258560204,49.21136301297747],[3.793224000000272,49.21426900092004],[3.79776585983631,49.21599098678803],[3.805302455500412,49.21936234106854],[3.810875937720256,49.22189705385737],[3.826574315151983,49.22859655407524],[3.831713999999853,49.23052100091997],[3.838726904817142,49.23271400091881],[3.84830197949111,49.23511026100612],[3.852554705590648,49.23596675132362],[3.859958941709911,49.23719348849768],[3.875951529855068,49.24000132327088],[3.879073213198078,49.24046211874524],[3.883599299846615,49.24111937395885],[3.887511438342767,49.24152528072147],[3.889575960422645,49.24170371956078],[3.891965153337054,49.241896765683144],[3.897191967798368,49.242122014505426],[3.902508481694031,49.242199526252136],[3.908404914201453,49.24196597261264],[3.911884147802974,49.2417320216934],[3.914604959223929,49.24148733976176],[3.91893,49.24098200091984],[3.919426436507854,49.24090351835625],[3.919423921172749,49.2409039160134],[3.925033000000205,49.240017000919934],[3.929680175332254,49.23913049015719],[3.931972562089005,49.238591011535114],[3.934561094515356,49.23799042498441],[3.937476962374356,49.23717599063443],[3.940969657508006,49.23612729303977],[3.943791863475629,49.23519048241245],[3.947629223365897,49.23377737504821],[3.950575714199932,49.23258591365653],[3.953350628645066,49.23135364783016],[3.957232299624488,49.229535021848605],[3.961915,49.227327000920056],[3.963092888094179,49.22678501471992],[3.972695,49.22218200091997],[3.978031000000139,49.22007000091997],[3.984585,49.21766600092003],[3.996639000000248,49.21334100092003],[4.004688,49.210442000919876],[4.019068000000111,49.20526000091996],[4.021597,49.204474000919944],[4.024562,49.203552000920084],[4.032949,49.20123400091993],[4.034509000000111,49.200852000920015],[4.03875,49.19981400092003],[4.045829,49.198210000920014],[4.05222877787639,49.19695293200102],[4.060771343605987,49.19527123090466],[4.073985941053098,49.192690607949636],[4.08246800000027,49.19051400092016],[4.08930819059256,49.18879838753826],[4.093865401610746,49.18788622784811],[4.09752092991173,49.18724738992437],[4.101779694596698,49.1866516140911],[4.105105067942788,49.1863076051837],[4.109416640261134,49.185991067808374],[4.115103658260707,49.18568911464863],[4.122080252288388,49.18537384584304],[4.124982710602404,49.185152807512544],[4.128457782339686,49.184774779230146],[4.132734463810725,49.184139051729375],[4.135750389798812,49.18364855854765],[4.140471240379337,49.18262812686241],[4.143425183766642,49.181863708312065],[4.147922319132285,49.180570178084736],[4.151940476474805,49.17913767760832],[4.154377885801272,49.17824031323709],[4.156850988430876,49.17718409572453],[4.162373957908121,49.17457046112225],[4.173594798253642,49.16922718884236],[4.178941108397177,49.16657342232222],[4.184618,49.163280000920196],[4.18813913006942,49.16131045861737],[4.194266057368797,49.157542372697776],[4.198652625695457,49.15416466844009],[4.203431,49.150005000920146],[4.2189,49.135169000920285],[4.227088890776739,49.1280741523304],[4.230607203828253,49.125260267272544],[4.235229995475945,49.12216734536177],[4.241852405419008,49.11813401643934],[4.246214,49.11569100092022],[4.25259900000018,49.11231200092022],[4.26237565821252,49.107215296606704],[4.266623696990296,49.1050763132247],[4.274358196112929,49.1015475443325],[4.278849,49.09966800092039],[4.305034000000132,49.09040300092037],[4.329077482117152,49.08195786197164],[4.338530132569145,49.07860058506334],[4.345962,49.07590900092033],[4.351024000000216,49.07407300092029],[4.364394395896179,49.06953495535909],[4.369193825727746,49.06780216062166],[4.373595802166052,49.066267499227365],[4.380327381398592,49.06418084852468],[4.382725869328033,49.06350053678594],[4.396993214830542,49.05960273558916],[4.41909937921907,49.053541474549576],[4.43804280646441,49.04841213230857],[4.446543645005431,49.04623113141731],[4.458077763145582,49.043599792163526],[4.466460871898756,49.04186892092178],[4.47262914710967,49.04068221908791],[4.48173723075397,49.039101881628234],[4.488797181201011,49.037992509431525],[4.505028999999833,49.03579500092048],[4.517432766134057,49.034499611498994],[4.524887000000143,49.033844000920375],[4.590505715611845,49.029599023331414],[4.595600469866461,49.02924522875181],[4.60459032448134,49.028661054823424],[4.613481433948517,49.02811217594929],[4.624080509048219,49.027433566918816],[4.635447287354031,49.02669953520111],[4.643288426932836,49.02620023356568],[4.653146729921888,49.025555300767664],[4.662698560858368,49.024847518533925],[4.668610958899579,49.02449154835533],[4.674981677759822,49.02406696563337],[4.680890582309016,49.02369003941665],[4.69160833265516,49.02298652550048],[4.697047492614852,49.02262417791267],[4.70158273068831,49.02229743095619],[4.703531446989978,49.022247795663255],[4.707719324030743,49.02193904305909],[4.713904344988675,49.02152506726609],[4.720795081507196,49.0210620855671],[4.726364484973081,49.0206851956277],[4.73088,49.020440000920516],[4.735862,49.02000200092053],[4.737141,49.01993600092052],[4.747941811287854,49.01927565334515],[4.750922859051014,49.01907585928066],[4.759394426491684,49.018460609693555],[4.762883777719085,49.018265997374876],[4.769782677106739,49.0177952475495],[4.776429379492956,49.017412505875846],[4.783398221939122,49.01688822001715],[4.790330786569283,49.01647886384986],[4.799430098937493,49.015844737067155],[4.805567803289604,49.01542321604359],[4.809613622389753,49.01517488839073],[4.813379829130363,49.0149294103095],[4.81649238484689,49.01471479750038],[4.822058178582275,49.014326332814015],[4.832759740975865,49.01357490708026],[4.843689,49.01286800092057],[4.85134638073859,49.012373353811846],[4.857041,49.012034000920444],[4.862972916058607,49.011598476445876],[4.870346,49.01122600092061],[4.880611955228868,49.010965528871544],[4.884130438165661,49.01093853419118],[4.886965009467287,49.01091498956173],[4.899904000000235,49.01094700092059],[4.900439,49.01096100092051],[4.915155027057924,49.01121791776298],[4.92280477926101,49.01139779454508],[4.926328893285401,49.01147286439935],[4.936687047007158,49.01163538591133],[4.953446038038077,49.01193989652916],[4.964868127662694,49.012072844931666],[4.971519386324178,49.01202786973675],[4.981767707202129,49.01165589314482],[4.986831997344743,49.01141212187298],[4.995769343815923,49.010750069441976],[5.006136631790852,49.00968542052751],[5.015149960796798,49.008477485620844],[5.022115215722327,49.00735383684957],[5.026464145304288,49.00657256451658],[5.031911802282837,49.00553913689605],[5.040036487189322,49.003789517897765],[5.048481516410026,49.001751897363626],[5.061770127280541,48.998472743814084],[5.06843223104037,48.99700865521153],[5.074825334790228,48.99569854119244],[5.084920222780749,48.993984076513634],[5.093553826520988,48.992787456029326],[5.098348004216053,48.99218654651881],[5.10279015267719,48.991700695729314],[5.108356465777245,48.99116765615006],[5.117790814807873,48.990506536511056],[5.123182372601516,48.99020505676728],[5.125822572711993,48.99002799272189],[5.132778400277934,48.9896396077559],[5.140207202705859,48.989199263241844],[5.146095149284061,48.988915678090706],[5.162944051211777,48.98831746405531],[5.173524700237977,48.987881453089514],[5.179001817177157,48.987535601582],[5.181162424842248,48.987392006147424],[5.186132137793445,48.986986768328606],[5.196120382597413,48.98592992661199],[5.215765325709941,48.98367647714582],[5.226722233423787,48.9824601241052],[5.235325288811656,48.98167911430556],[5.243608,48.98100300092062],[5.252151928737628,48.98030034044938],[5.260236116126879,48.97962580283379],[5.265823399723559,48.97915077563212],[5.275692578934734,48.97834471578953],[5.278897829647387,48.97810692249623],[5.290173073719774,48.977171767008194],[5.307140062205689,48.975728507686554],[5.319046,48.97469800092065],[5.332539109505594,48.97305440020308],[5.341956,48.971891000920714],[5.343337,48.971695000920654],[5.344515557211573,48.97162281846079],[5.346978314412643,48.97139046504736],[5.35099846734916,48.97103463465283],[5.358184820792806,48.970617204019874],[5.364608621183056,48.97043223009338],[5.372501005397289,48.9703945067742],[5.379074198878138,48.9705773367589],[5.38501266935029,48.97083215067839],[5.390019075186118,48.97118147149108],[5.39240400000023,48.97132900092058],[5.403250171290924,48.97215813367627],[5.411232183288538,48.97273457235943],[5.416545317951799,48.973043381826756],[5.420928882183022,48.97315363676175],[5.429151711799697,48.97313059780508],[5.434173189194581,48.97298378872638],[5.441414607879845,48.97250231549087],[5.448726930741945,48.97177258329936],[5.452117584035757,48.97131418100191],[5.455454383954958,48.970865688123745],[5.459632746636345,48.9703253463762],[5.465308965857171,48.96956993291183],[5.46915814756666,48.96906231774558],[5.474865396806489,48.96827974815193],[5.482348218669587,48.96730369243284],[5.488837300706392,48.9664069425288],[5.497190203549234,48.96528416147416],[5.503335094319254,48.96447022081314],[5.509102475731265,48.96368396342064],[5.522564,48.96187200092061],[5.533585896940004,48.96037642632049],[5.536822428026382,48.95994057131094],[5.546495297447937,48.95827642751955],[5.553882819660349,48.95697722536584],[5.559088463757324,48.956091540358145],[5.56579850706937,48.95488501379349],[5.569327484549683,48.95423011452544],[5.573671760803695,48.95348982990218],[5.5799159703615,48.95243660469954],[5.584996536056288,48.95171517257567],[5.589443787890915,48.951249837179],[5.595764784010845,48.95075964265668],[5.60009228508358,48.95054775162272],[5.605918971834252,48.950423095574315],[5.610908516809304,48.95050580421885],[5.614027398000038,48.95064472804104],[5.617378000000214,48.95081500092063],[5.62608025229911,48.95155541361937],[5.629019000000104,48.95183100092065],[5.642214000000176,48.953101000920746],[5.649412,48.95376100092066],[5.652765999999867,48.954068000920586],[5.661671709537943,48.95486118943125],[5.666639230854266,48.95536720846966],[5.669940395590745,48.9557861790209],[5.67611405633369,48.95675357073832],[5.681652569699483,48.95785751269791],[5.685866859026932,48.958832205438085],[5.691771903025066,48.96035628592071],[5.697250426796233,48.96207911821761],[5.706984566148093,48.965225258355915],[5.711562972951931,48.96660821244116],[5.714997727322066,48.96757045618721],[5.719674968952748,48.96867806135797],[5.723712706815848,48.96957185139301],[5.727709,48.97030100092063],[5.731358870403191,48.97092103757285],[5.733224084272139,48.97120325246769],[5.736804054835269,48.971645744434525],[5.741965960266126,48.9721375228779],[5.746770000000132,48.972527000920586],[5.751139329067451,48.97271256918852],[5.753922117261287,48.9727875036568],[5.760338005676095,48.97274237998505],[5.768235011848954,48.972430578052986],[5.775739028874605,48.97206406369512],[5.780890272121457,48.97179052723765],[5.803245447151852,48.97062157802975],[5.811719705303743,48.97019391772408],[5.81705,48.9699140009206],[5.838409293254855,48.96885093963778],[5.843277467977834,48.968476503326464],[5.848737647027888,48.96790292287962],[5.85253364730679,48.96735353071667],[5.855282572401652,48.96685445199262],[5.857167816831925,48.966465390269676],[5.860417000000105,48.96578600092062],[5.868633380312327,48.96392867603903],[5.870413833487043,48.96353004169922],[5.872933072740402,48.9630230153676],[5.875105976617645,48.96267336698325],[5.879816684199566,48.9619613980106],[5.884027431430325,48.961474261037104],[5.888560919805003,48.961065466428465],[5.892775500718888,48.96085764220843],[5.897321639029589,48.96076206719382],[5.901517229479992,48.96085583302087],[5.907839989686418,48.961166270546734],[5.911307597914711,48.96146670803066],[5.917788356890554,48.96226060007718],[5.921698,48.96294100092061],[5.927943000000246,48.96422800092071],[5.934269970487265,48.96577883527585],[5.944870611632934,48.968511938136956],[5.948667808689462,48.96946359357293],[5.95306152077876,48.970435272186755],[5.957709678826616,48.97122634954599],[5.961709065197843,48.97177202910948],[5.966853384277304,48.97233527153766],[5.969587849044244,48.97253415101538],[5.972621000000243,48.9727500009206],[5.976223326562307,48.97281503473163],[5.981232434129079,48.9727604681194],[5.984733049881062,48.97259436712422],[5.988738,48.97232800092064],[5.993264037107405,48.97188529194112],[5.997240000000122,48.971316000920524],[5.997241,48.971316000920616],[6.001411532355397,48.970723655103775],[6.007356779328423,48.96991281168502],[6.014686,48.968543000920675],[6.017400290207772,48.967927426134466],[6.019331804386601,48.96747819621943],[6.021730161423744,48.96686912047177],[6.024852888737655,48.96598045907496],[6.027084015166967,48.96522744487592],[6.029603600359351,48.964432261891005],[6.03877478827426,48.96065917575305],[6.049584595504492,48.95534741138523],[6.054921392636242,48.952999438679335],[6.061409342917945,48.95044762886748],[6.066674367794363,48.94869313865217],[6.072695671616949,48.94698868567128],[6.074737547626539,48.94641376626059],[6.077561192430518,48.94564455281874],[6.082352097443811,48.94460695092919],[6.087993,48.94358500092069],[6.088004,48.943583000920675],[6.091725711704089,48.94304165611109],[6.097366391004097,48.94229503537733],[6.10355000000017,48.94172500092063],[6.107442812296635,48.94144188593786],[6.112849988859604,48.9409966948204],[6.122613,48.940617000920646],[6.124363068152361,48.940680202881246],[6.133781685486341,48.94112029161722],[6.138629001985854,48.941621801707775],[6.141733080972531,48.94199653673627],[6.146348785275281,48.94279564887895],[6.152642712936998,48.94400601864584],[6.162721522559512,48.946022250080844],[6.167238656205642,48.94680870704138],[6.1742380533009,48.948182470027696],[6.179625472710631,48.94935475405669],[6.184582965824184,48.95031863338658],[6.190338073141094,48.951437288867766],[6.1960793214048,48.95242693334503],[6.197501275190926,48.95275479771302],[6.201824152989807,48.95358870687191],[6.203665927871342,48.95409003203807],[6.20414420096001,48.95418082748902],[6.209086438525828,48.955118932047554],[6.214544902410132,48.9561310052464],[6.217725560332219,48.95666402334672],[6.22263678925919,48.95737688301902],[6.230532547630984,48.95822686926098],[6.238277559559032,48.9587755782456],[6.243530224047191,48.95901675604545],[6.249524696372815,48.959063399980494],[6.256873190746309,48.95893360179055],[6.268813882551498,48.95872172870793],[6.274902203230119,48.958589277433006],[6.282946806259053,48.958413792139915],[6.293582290712132,48.95822648673669],[6.29924386821743,48.95823624288482],[6.299603403242797,48.95825482488144],[6.304631558847442,48.95851458273102],[6.309460413715676,48.958947475121896],[6.313406920305978,48.95943941350755],[6.321557278561171,48.960720623818425],[6.331605975865052,48.96235317464881],[6.33263823486556,48.962520825861475],[6.341896074286514,48.963990072283316],[6.342452448219825,48.96405724258256],[6.345615,48.96443900092055],[6.349703537705031,48.96479746467268],[6.353184508390765,48.965031110838495],[6.359308727614719,48.96522544071153],[6.365984466784192,48.965151376670036],[6.372391804225519,48.964814476818766],[6.375028238550467,48.96455006087944],[6.377583318808915,48.964293746250846],[6.384406011071179,48.963430587281756],[6.39463661669626,48.96194258094921],[6.402583670607575,48.960786046788726],[6.414438729176626,48.959059704158236],[6.418183811508154,48.95868291460232],[6.420566598512739,48.958710739699235],[6.427586666956306,48.957329820838346],[6.436870080424062,48.95521547622849],[6.442003032955933,48.954011881780495],[6.44279513293881,48.953659130663176],[6.44279513293881,48.953659130663176],[6.449585671602525,48.9506346393444],[6.453520000756773,48.9493233793332],[6.458341308177055,48.94858442927121],[6.477997588569916,48.94663477318537],[6.526204180571258,48.9450935291201],[6.546675091261024,48.94250859668984],[6.562634832172201,48.938469837946954],[6.58335349201128,48.92974880362545],[6.626584920650705,48.90987648975917],[6.650250307632586,48.90453530482713],[6.666083347377433,48.90180645589912],[6.694883723164629,48.901184923744665],[6.711480918503057,48.89813087959719],[6.7226877704887,48.895040886125656],[6.733645260438175,48.88947504807939],[6.753657453826682,48.881653637111626],[6.769426822650659,48.87667329480972],[6.783749641660285,48.86988181087988],[6.79914837110366,48.860122704753294],[6.82080851144936,48.849172558459045],[6.846673639283178,48.837079101869385],[6.85988113680003,48.83211655937645],[6.882834638747248,48.82355992619361],[6.898664893792661,48.817555324189364],[6.905771414554077,48.814178366088456],[6.916160622240533,48.80726258993679],[6.925161286963505,48.80033424099984],[6.937824708062437,48.79036811516489],[6.944760983679204,48.78596489360873],[6.951066115523954,48.78238265611604],[6.96317554559726,48.77681962922849],[6.97567210558741,48.771852432000266],[6.982621301804731,48.76955429069535],[6.989359580572416,48.76829993732367],[7.029599013588607,48.767348405694676],[7.040143134161767,48.76722067368717],[7.056664761016371,48.76608835830133],[7.07320252245707,48.764204374402865],[7.085359646810016,48.76378880601514],[7.098754472950008,48.76447862953324],[7.13670558039872,48.769764514183244],[7.209372494436101,48.77698491014091],[7.229340493709647,48.778852724086484],[7.237770888568283,48.77929722852133],[7.249597277600774,48.778933963176925],[7.259886706846848,48.77776647099478],[7.275825755770487,48.774794357366034],[7.297171450106204,48.773398564223555],[7.306762321276776,48.77322443962776],[7.369697307616514,48.7801574403327],[7.418997248401686,48.7794126912015],[7.449777539682303,48.77497998123514],[7.464089149704885,48.77018857813939],[7.474911965564943,48.765316669022376],[7.522644088054174,48.725026881641305],[7.530811632244634,48.72108503565634],[7.538888193330808,48.718421357738805],[7.566206366476471,48.71383819599333],[7.585560744022387,48.7123442135201],[7.603845794622413,48.70892174923301],[7.628308580206769,48.69853194666986],[7.628418404880527,48.69848528067652],[7.632378267148747,48.69680255366926],[7.650680203430444,48.69365795094329],[7.6888634089735195,48.6906631874319],[7.689068836238316,48.69064704028654],[7.694258496041417,48.69023899386704],[7.694463919855134,48.6902228371008],[7.704427988606073,48.689438701968974],[7.706406563433268,48.68913516500089],[7.708192254100717,48.68838262228966],[7.713205112146091,48.68471343403253],[7.714363335383041,48.68315077230588],[7.715116080161432,48.67863056735477]]}}]}