{"type":"FeatureCollection","features":[{"type":"Feature","properties":{"name":"LGV Rhone-Alpes + LGV Mediterranee (Lyon - Valence - Marseille)","opened":"1992-94 / 2001","codes":"752000 south of Montanay junction"},"geometry":{"type":"LineString","coordinates":[[4.87697645919164,45.89399369018693],[4.877079522758023,45.89360917805628],[4.877311876142978,45.8927422745108],[4.878661542480256,45.88754399449231],[4.879227147935373,45.88560147525825],[4.880062195846241,45.88335912735731],[4.880554021074576,45.88223647851026],[4.881529510424422,45.88022931438225],[4.882597866433093,45.87840948698259],[4.88318459710791,45.8775345831798],[4.883823430500473,45.87660213974476],[4.884615260116485,45.8755575833794],[4.885966584740292,45.873952118338295],[4.887263351934549,45.872568478150896],[4.887850870009519,45.87197952417964],[4.889755062415039,45.8702394178617],[4.891190896574869,45.869074099189845],[4.892085113528918,45.868374809244166],[4.894190630787118,45.86689884621568],[4.896157192500855,45.86564784729839],[4.897763579960129,45.86471419139698],[4.899375397230457,45.863862345375104],[4.901575280443501,45.862814063851864],[4.902602667372739,45.86234342429714],[4.904927723266774,45.86140133798981],[4.907288518120777,45.860556824325826],[4.908798483694112,45.86007584456901],[4.910311306433723,45.859625512256834],[4.911880384279116,45.8591871834223],[4.914438496407775,45.858580963337396],[4.916339107820972,45.85819362214582],[4.917714742707154,45.85794058439067],[4.919290131450453,45.85769396295009],[4.922488344792876,45.85730713511096],[4.924812179998801,45.85712023253243],[4.92658742451956,45.8570279323703],[4.927023483519603,45.85701504634068],[4.928877941290954,45.856960226185016],[4.931159809622359,45.85697076675542],[4.933498175658742,45.85703992845725],[4.934695551115817,45.85711010184436],[4.938072346503215,45.85734690752735],[4.943525551790878,45.85774058930994],[4.947606634763376,45.85801410777624],[4.953189529327486,45.85840131205275],[4.957818897815562,45.85873298713575],[4.962644066328881,45.8590950742152],[4.965857643940357,45.85929610927442],[4.968209078196911,45.859428959458036],[4.970146733712355,45.85948208338795],[4.97176962351609,45.859502887876296],[4.974022325154092,45.859444664216866],[4.975809486546348,45.85937186942893],[4.977222701287242,45.85927536689897],[4.978990119796673,45.85910463988729],[4.980557047633267,45.858922287681146],[4.981757192132473,45.85876523720552],[4.983746374921673,45.85844698232789],[4.986039463336716,45.85801001115878],[4.987804326184398,45.85762006712868],[4.989803106078108,45.85712019225555],[4.99174036670604,45.8565646961202],[4.993311930256776,45.85606473237802],[4.99545315705541,45.85532045109764],[4.997297830301102,45.854600261171406],[4.999278012243804,45.85374163458862],[5.001101716936676,45.8528932999536],[5.002625127403579,45.8521144844062],[5.004643611100279,45.85097550976838],[5.009661430374042,45.84756879691484],[5.011189495071503,45.846331694929965],[5.01393368952037,45.84376538952363],[5.015354690522277,45.84211721300014],[5.016174584987078,45.841144854685346],[5.016794248051855,45.84035174305229],[5.018228120723201,45.83843334513471],[5.01935657217081,45.83692274739633],[5.020739878221149,45.8351780630949],[5.022028357458866,45.83372407677051],[5.023977817288376,45.83173869426035],[5.026007237024997,45.829923857721404],[5.02810989963268,45.82824267330378],[5.029534736366982,45.82719984033606],[5.031468266480154,45.82588432045972],[5.033385626300612,45.82468239806724],[5.033836423006188,45.82442764472198],[5.03500148410643,45.823769228475804],[5.036169554788623,45.823133295716715],[5.037558155466508,45.82243386698404],[5.039058760499585,45.82169556205458],[5.047463513811047,45.81756487299626],[5.05113462657364,45.81577575482948],[5.053681338892678,45.81451953506604],[5.055534421543487,45.81357340946707],[5.056616586887279,45.81299143238388],[5.058641603590415,45.81181383066439],[5.060538060339352,45.81062314367911],[5.06161796821277,45.80988593484685],[5.063554650275185,45.80850805006011],[5.064972247179513,45.80741104419348],[5.066273325962306,45.80634165446567],[5.068170263472503,45.80463228369436],[5.069201716890117,45.80360504268949],[5.069642697261404,45.80316584873897],[5.070711015998593,45.802052501827525],[5.071395400574231,45.80128905128877],[5.072802798301259,45.79960558163799],[5.074091330177717,45.79788744118708],[5.075435398421854,45.79592457714852],[5.076563127402019,45.79402801481523],[5.077499469164239,45.79221430316845],[5.078158171765636,45.79077405921949],[5.078742705152185,45.789301174442265],[5.079419217253339,45.787367553909085],[5.080070631742738,45.7849838545952],[5.080559059223331,45.78289784695804],[5.081031368807539,45.780814967579204],[5.081536001137186,45.778516138527905],[5.082093081373632,45.77610582973915],[5.082467763087562,45.77433643680301],[5.082800655840072,45.77231846017266],[5.08301587640179,45.77040183002035],[5.083134875788209,45.76894034669059],[5.083170674689526,45.767097868579896],[5.083155819821934,45.76552268113203],[5.08301412945363,45.763589973636655],[5.082921416942889,45.76265632250221],[5.082903189839092,45.76247276474654],[5.082650078338621,45.76080563641789],[5.082437891270152,45.75947211271677],[5.082023309248644,45.75770879045489],[5.081792915545592,45.75668707387789],[5.081141284337352,45.75363624165597],[5.080888627446481,45.75249810247739],[5.0803433953823,45.75007501131689],[5.079978119705926,45.74822010143875],[5.0796369176791,45.74625140470676],[5.079221154238662,45.74351035237772],[5.078715231691417,45.740099856495],[5.078471014895998,45.73828208754945],[5.07809758898354,45.73588063568015],[5.077650012441783,45.73280031117708],[5.077273239766437,45.73020321919769],[5.076773333310222,45.72688389969514],[5.076723411171818,45.72655240065799],[5.076258112137337,45.72353473987922],[5.075577921916896,45.7188860782926],[5.075196028767315,45.71623667947005],[5.074935049095651,45.71442597620751],[5.074435288063526,45.71116715253634],[5.073585061073883,45.705462817403884],[5.072970113758656,45.701284265896334],[5.072495082983885,45.69839145734257],[5.072076990711996,45.696585680998595],[5.071476346468494,45.69451124087679],[5.070633654683148,45.692018106255006],[5.069825742170345,45.68973212090741],[5.068782400923974,45.68677040688177],[5.068269204897765,45.685298836763295],[5.067759638945694,45.68349095218366],[5.067276720300006,45.681096980022794],[5.067163564537299,45.680388812284995],[5.067026373025834,45.679012316303364],[5.066963988065035,45.67763069718021],[5.066999900040171,45.67585057951895],[5.067240847661699,45.67349999186237],[5.067568540934822,45.67174096373268],[5.067953207331339,45.670135225449705],[5.06859117020386,45.66824638241035],[5.069222432679046,45.66668200759038],[5.069859306723,45.66526864736211],[5.069954734546748,45.66509551070268],[5.070424463796799,45.66424325435501],[5.07103745231655,45.66317366160213],[5.072294973157223,45.66109821834591],[5.073116689258032,45.65978921435693],[5.07348984437992,45.65919475122865],[5.074699794633331,45.65726454599634],[5.075986164647251,45.65536314165252],[5.079111182291618,45.65128326065517],[5.082210026711875,45.646977240024256],[5.083180220841404,45.64528309524751],[5.083989778857226,45.643715328002635],[5.084701768550812,45.6421323603723],[5.085745176554508,45.63982406160842],[5.086383451981247,45.638411925541625],[5.087230137876713,45.636441081057605],[5.087735996835824,45.63518578037748],[5.088133187819199,45.63403848508931],[5.088550237482885,45.63267347845795],[5.088829744566956,45.63141019740559],[5.088970146918577,45.630657993578616],[5.089089331897702,45.630019445429674],[5.089308827566422,45.628264571454736],[5.089384031471975,45.6268322363113],[5.08942941887004,45.621153189006776],[5.08950926972528,45.61912551303906],[5.089803495095188,45.61664920117455],[5.089991506141914,45.61571113473803],[5.090413107668701,45.61394896305494],[5.090997813721268,45.612067906915605],[5.09137489125645,45.61105005699554],[5.092159748432037,45.609302350734445],[5.09319221206094,45.60737750304709],[5.094253787700818,45.60566580333301],[5.095566368389492,45.603817222552784],[5.097527475254248,45.60131158074456],[5.100062945831928,45.598102428024845],[5.10122924016062,45.59649952399919],[5.102058316279099,45.59521948644215],[5.102811423260811,45.5939452598627],[5.103926582873596,45.591850244688615],[5.104766715518194,45.59003544228535],[5.105579316297735,45.587866510458696],[5.106199085608255,45.585845428488476],[5.106633843220043,45.583879430839666],[5.106846746623598,45.582818400467076],[5.10703675914356,45.58134139559143],[5.107121838611976,45.58050107146894],[5.107226456942088,45.578900990933555],[5.107245178683584,45.57780122453638],[5.107083250552137,45.574717085574434],[5.106957433435122,45.57374598899716],[5.106757847912048,45.572622140291735],[5.106289331124906,45.57040099537578],[5.105751009047235,45.56852670475114],[5.104798220833923,45.56553249907234],[5.104164233181908,45.5634957225033],[5.102971734231474,45.55970693730058],[5.102111068071152,45.55711335516143],[5.101542471546355,45.55573272559319],[5.100789228301746,45.5540551918163],[5.100497218197723,45.5534816961438],[5.09988723354982,45.55238893475472],[5.099018260439224,45.550954404245296],[5.098339869627108,45.54997250697293],[5.097544487057114,45.54888228275655],[5.096757125933872,45.547896744373894],[5.095967871731474,45.54696504304794],[5.094526859127011,45.545436342487584],[5.093257764987887,45.54418491035837],[5.092235791820088,45.54328305315294],[5.090620556628776,45.541938866161274],[5.090137402433777,45.54156655228993],[5.088066234905606,45.540068081454656],[5.084797288131961,45.53795265752474],[5.082648089903991,45.53654211473432],[5.082118560161476,45.53619456116621],[5.081053346372667,45.53542091847581],[5.078723634661288,45.533574662282426],[5.077307203573581,45.5322827331107],[5.075947094504052,45.530950631941046],[5.074812330376102,45.529713525715216],[5.073652789609917,45.528327917469284],[5.072948857248286,45.527421632765865],[5.071601653969241,45.52545737655178],[5.070730122359782,45.52403120096171],[5.070132398811525,45.52292015742922],[5.06934387568219,45.52123176168969],[5.068892904610803,45.520163344556465],[5.068145565660857,45.517955655325636],[5.067756823154106,45.5165007346328],[5.067313158185561,45.514111774026425],[5.066896773712593,45.51169680955973],[5.066412764270559,45.50952110216805],[5.065764340404638,45.506830298420624],[5.065157009935186,45.50527564916627],[5.064487002679845,45.50358997042926],[5.06365205221929,45.50174463830236],[5.06269353746852,45.5000744221235],[5.06157464051766,45.49836647407673],[5.05693023777005,45.492422264425876],[5.051238132793726,45.48548027864729],[5.049586198982404,45.4830193980839],[5.048361897345846,45.48078454646354],[5.047559334099637,45.47900969824602],[5.046665137559629,45.476707803098726],[5.045932343021785,45.474077597956864],[5.045561176921328,45.471847500567435],[5.04543883067443,45.470487277606466],[5.045157071065101,45.466628741823],[5.044841250323802,45.46432985324573],[5.044468697404767,45.462059112373545],[5.044016866757244,45.46025074464754],[5.042860037068,45.45772156477456],[5.041563001639791,45.45540790498627],[5.039284739557726,45.45204017113457],[5.036398116708255,45.44806014479723],[5.0330072758564,45.44447577351056],[5.03237632199868,45.44382229880878],[5.031515460287753,45.4428820875775],[5.031341956371841,45.44267267084521],[5.030482423840189,45.44163520030219],[5.028586733908512,45.43924787725194],[5.028006216508915,45.438455121948756],[5.02692331352882,45.43689788452189],[5.025661119704476,45.43480507506081],[5.024300850748728,45.43237401479404],[5.022962835542466,45.42996142896123],[5.021167309007225,45.42676750235078],[5.019320856809856,45.42349513421986],[5.017583057814734,45.420402123515174],[5.015925293694547,45.41743987682349],[5.014510218016529,45.414953037313],[5.012980409263003,45.41225668363861],[5.011250585722738,45.409216339584816],[5.008733897721566,45.404728051742495],[5.006052124304402,45.39996311282988],[5.004754468440859,45.3974362924086],[5.004171648490028,45.396143363360025],[5.003692437093111,45.394897691244445],[5.002870484803929,45.392471904418045],[5.002352077564579,45.39043358403125],[5.001880477334264,45.38790708604838],[5.001651254881029,45.385708706624705],[5.001583155164108,45.38426301486266],[5.001566112661701,45.38259729725836],[5.001749744238514,45.37995331528374],[5.00197681102055,45.37821901336425],[5.002241652618739,45.376790039798244],[5.003367953583134,45.37204384345358],[5.0040004295278,45.36936538609698],[5.00446303573364,45.36688263459091],[5.004645258563913,45.3654558300692],[5.00477914510989,45.36420227964086],[5.004825904209145,45.36282253858472],[5.004796770349437,45.3605261468467],[5.004634882126732,45.358560802666325],[5.004438058244109,45.35708337119804],[5.004161840422554,45.3555432409173],[5.003548462085821,45.3530910847478],[5.002773092245006,45.350751381472556],[5.002701645993373,45.350573066533684],[5.001996117482655,45.34881215108211],[5.001467508804481,45.347662882798424],[5.000418565098433,45.34561410509478],[4.998885041155027,45.342891258349454],[4.997305183546256,45.34006722085232],[4.994890506942028,45.335765819583735],[4.992796616524461,45.33203666600718],[4.991415372214175,45.32950746994507],[4.9898763005371,45.32675439993679],[4.988574518820604,45.3241935408076],[4.987604730730192,45.3219289952873],[4.986618910747635,45.31949178893159],[4.984571841710958,45.31451040487687],[4.983579610766283,45.3120573445529],[4.981648263213051,45.30728248609651],[4.980281298361261,45.30406915852967],[4.979339095542564,45.30195896134551],[4.978113805939129,45.29941176869024],[4.976589969416996,45.296140738130326],[4.975171423345415,45.29311716321893],[4.973793948065708,45.29019107100292],[4.972464748988741,45.28741522370293],[4.971069629195158,45.284738747148474],[4.970322315124112,45.283429713296876],[4.969478241704902,45.28210726867081],[4.968043753357543,45.28001748321602],[4.96572976700967,45.2768730907232],[4.963347733430937,45.2736547794025],[4.961307931419344,45.270879967734984],[4.959920949561856,45.268864332015426],[4.959809965199215,45.26868335887434],[4.958960014774056,45.267297371709034],[4.958055088646492,45.265701095358196],[4.956865718873884,45.26336464067904],[4.956080818863482,45.2615764195406],[4.955386355321074,45.25981615349359],[4.954274401452234,45.25673857845721],[4.953237515982913,45.25385922114258],[4.952205289420664,45.25095711034094],[4.947670832631572,45.238110255926514],[4.946608666921101,45.23553367082673],[4.945591657533965,45.232890221225496],[4.944241097061992,45.231011487950205],[4.941787094127437,45.22727148149916],[4.940668501213666,45.22579378213526],[4.938981987189751,45.22371892111407],[4.936859582042301,45.22140227241135],[4.934735153147751,45.21917628577206],[4.932345865865836,45.21670552169496],[4.931613816610067,45.215943468321065],[4.930161342620263,45.21443138710098],[4.92846176507889,45.21257571261177],[4.92679108799275,45.21062507603158],[4.924875115870013,45.20806667246831],[4.924224210617126,45.207167485494764],[4.923207717212806,45.205583289754145],[4.922071675368855,45.203674405352665],[4.921403741609242,45.202417425464816],[4.920546346921809,45.200608658816684],[4.919740574751991,45.19877526943974],[4.919138781390649,45.19723986944278],[4.918680328798905,45.195856893900405],[4.917866023963144,45.19300817017225],[4.917283017778516,45.190188770254515],[4.916931844138041,45.18742960855153],[4.91677457899293,45.18471622737071],[4.916834231987022,45.18209734038143],[4.916884825940415,45.18077054170084],[4.917123144552628,45.17868878171955],[4.917300965643297,45.17762276611515],[4.917610357598777,45.17576790226273],[4.918243685495144,45.1730598322383],[4.919303582017382,45.16878051011283],[4.920071641639474,45.16564702638366],[4.920646526264406,45.1632648212773],[4.921342431593019,45.16052166128837],[4.921948845708811,45.15797269474473],[4.924620106085946,45.14682882701536],[4.925836887478616,45.14174525175778],[4.926417393238252,45.13923071039854],[4.927051186555905,45.13671524600515],[4.92790958448659,45.134059904672775],[4.928960427021869,45.13141633897159],[4.930332440548708,45.12849522141131],[4.931717229084292,45.125947842340466],[4.93334114497183,45.122912774085606],[4.934421654140865,45.120831495757855],[4.935495518850313,45.11840656544733],[4.936435045062049,45.115802635725466],[4.937218817256174,45.11317118424118],[4.93772315620907,45.11094500384851],[4.938128088832797,45.108622333891915],[4.938505939814744,45.10628880152251],[4.938888529414208,45.103785197210684],[4.939446955335661,45.10112365453487],[4.940085625335367,45.09877802584928],[4.940820357201339,45.09658937755893],[4.94167464938832,45.09446663737193],[4.942561557936558,45.09251708844361],[4.943210476003542,45.091240304442074],[4.944729562471467,45.08861109119117],[4.947167596769919,45.0846587796416],[4.948875720342659,45.081803330539906],[4.950000839919023,45.079664455546265],[4.950522943682513,45.07858250052352],[4.951162826991244,45.07705651036364],[4.952123491904129,45.07454082056856],[4.952727280761935,45.07254140657332],[4.953391024253659,45.06987039713326],[4.953777391496855,45.067653773909896],[4.954118790250781,45.0644557850276],[4.95455003467247,45.06017445234496],[4.954901566892805,45.05741587976282],[4.95520180781389,45.055948684665395],[4.95539936275158,45.05510955795466],[4.955526859468892,45.05456799438274],[4.955994893173312,45.052863675721],[4.956631521249381,45.05095240832704],[4.957577515478567,45.04859373216905],[4.958658152149785,45.046337905043856],[4.959535486555739,45.04470246758637],[4.960186113252477,45.043595773803276],[4.96085981747121,45.04250331515555],[4.962759203835891,45.039840711475016],[4.963748955422398,45.03856788262887],[4.965784134570861,45.036160948209805],[4.967900016157122,45.033607755771925],[4.969395038382196,45.03158302320548],[4.970077169376658,45.030556141991354],[4.97108870206807,45.02898091096747],[4.97202170075837,45.02735861305789],[4.972743404409407,45.02599584282522],[4.973401277551012,45.02459878532143],[4.974080674986635,45.023020022336],[4.974573203697794,45.02169388490655],[4.975212702300092,45.01977868142093],[4.975974299891024,45.016789648585465],[4.97640788895352,45.01433183418921],[4.976560826041457,45.013028248465275],[4.976719696471433,45.011674024887135],[4.97687924439969,45.00972419166325],[4.976920591472079,45.009218867595166],[4.97735652217083,45.004372166518976],[4.977700655875847,45.000395920209115],[4.977925516576907,44.997563029039185],[4.978515578049253,44.992770851469444],[4.979132473471939,44.98908337328307],[4.979667394128172,44.98629933459896],[4.980369327061559,44.98222033389044],[4.981223619576824,44.977619325692274],[4.981848364177309,44.97436713839046],[4.982369258056019,44.971827454498126],[4.983178225210327,44.96878680037133],[4.984376361099109,44.96535439104614],[4.984896515571687,44.96403005990127],[4.985724208378795,44.96216296776008],[4.98671914334128,44.96014501221491],[4.987337904891734,44.958989389144506],[4.988525839935897,44.95693210804568],[4.990435800303622,44.95393641683558],[4.993421848694259,44.94949352925816],[4.995441783908141,44.94635760323367],[4.996945216924841,44.94372258127614],[4.997909163973169,44.94181654086113],[4.998882396600466,44.939725230599535],[4.999539024271167,44.93815333911155],[5.000260842798092,44.93625368583554],[5.001182015016794,44.933522854337184],[5.002027441715762,44.93039124732686],[5.002339354556545,44.9289207589885],[5.002813730893835,44.926217503045606],[5.003106515133131,44.923829298634466],[5.003240770863695,44.922229028450225],[5.003276193050094,44.92113671500162],[5.003313751197389,44.919062234360645],[5.003294971399245,44.91645237767898],[5.003182943362924,44.91331536668613],[5.003105860834646,44.9108105263587],[5.003083495073102,44.91008369678747],[5.002975994939684,44.90692394605921],[5.002904216109075,44.90361745904653],[5.00293113092957,44.90060516378932],[5.003080366506643,44.89778831308331],[5.003274928945309,44.895348385916456],[5.003506379695241,44.892900239731915],[5.003765548255852,44.890187177454976],[5.004016873503335,44.88725516975903],[5.004277631341864,44.884141679251115],[5.004430919270244,44.88123414270403],[5.004438807010945,44.879579476378666],[5.004362561287642,44.87729554237154],[5.004211390530823,44.87365688769199],[5.004010759749044,44.86907856717356],[5.003800112112779,44.86481395485589],[5.00368565311805,44.86220209206598],[5.003581172672135,44.8598695752477],[5.003458492036126,44.855824426596975],[5.003502719709765,44.853834434546954],[5.003660225281936,44.851369123791784],[5.003901715026016,44.849207903665366],[5.004556844533742,44.84493376607121],[5.005324419380146,44.84027525389981],[5.005802090580589,44.837297641763655],[5.006715960866584,44.83184274705181],[5.007160185052537,44.82804930509505],[5.007307078784529,44.826376635584786],[5.007563686346888,44.823308592800466],[5.007645470892463,44.82084430804198],[5.00778462124654,44.8175396500577],[5.007752468066842,44.81536067111022],[5.00720578391659,44.8043209772661],[5.006936201538434,44.797624556456725],[5.006866303741593,44.79524024923879],[5.006723159648522,44.79251027791731],[5.006573454074614,44.78959608871798],[5.006289159046118,44.78642758515466],[5.006160732834258,44.7840344630564],[5.005855740993432,44.78141545405603],[5.005403692600029,44.77870401242848],[5.00493627669004,44.77615527182594],[5.004004468197019,44.771883065657235],[5.003658196706367,44.76975110795813],[5.003174516343939,44.76771045009706],[5.002432225628569,44.76481783864228],[5.001945764626753,44.76312421854166],[5.000911146469935,44.76013929474568],[4.999001836610351,44.75566292736509],[4.997332460187703,44.752364135040914],[4.994701704730912,44.74769469822531],[4.993651859607009,44.745978671998344],[4.992369999542119,44.74423215423256],[4.99153000666078,44.74277470310499],[4.989979627624952,44.74066644657083],[4.988068574791145,44.73825019267141],[4.982465335787203,44.73163868539975],[4.980370589982912,44.72917139010028],[4.978123259910021,44.726685100023396],[4.975478267177484,44.724129963043126],[4.973218431218077,44.7221425916373],[4.970290409129426,44.71974418938647],[4.963199660273143,44.714405233644804],[4.958024087378903,44.71075604085151],[4.956345280381757,44.709364337165475],[4.94984601012867,44.70337996992772],[4.94857595116743,44.70181464520238],[4.945993330117286,44.69879152765121],[4.944657592299357,44.69709097890564],[4.943271870635148,44.6952611792736],[4.942326186402311,44.693846516465605],[4.941674060782356,44.69308970508002],[4.940849592891126,44.69181028841199],[4.939489797537608,44.68960118027115],[4.938608683880849,44.68807646893965],[4.937029007593768,44.685424847116856],[4.935699043591343,44.68312169911764],[4.933196464804052,44.6787909768798],[4.927405604437874,44.66866487135811],[4.923568474823067,44.663152943088285],[4.92129352643125,44.6605602532178],[4.919771469735978,44.65875673046016],[4.918181382968726,44.65695184830961],[4.917919506327229,44.65666440139046],[4.916654554297478,44.65527588676711],[4.913550613207868,44.65178588979781],[4.910718232549098,44.64856944016345],[4.90846174237693,44.64600372097028],[4.900687953552121,44.63657211180205],[4.886760122333976,44.620156663671146],[4.881231790404809,44.6137129358382],[4.874464598862558,44.60603228130394],[4.869173830040076,44.60021140374422],[4.86738256855216,44.59813040147502],[4.865781210138699,44.59622277091001],[4.864368579335911,44.594504554133685],[4.855785000848654,44.583754854754105],[4.848088311214736,44.574090255352985],[4.844943458831446,44.570140222686106],[4.842263519901519,44.5668270779507],[4.840445607644942,44.56453037475271],[4.838587867935132,44.56224859362034],[4.836794191022238,44.55996990837513],[4.834530310876892,44.557237305623595],[4.833040323601557,44.55541165080493],[4.831767042161863,44.55402332888892],[4.8282649715843,44.55076374496433],[4.817152743007811,44.54094020283972],[4.814915354108307,44.53894435670147],[4.814799322193015,44.53884380786754],[4.813223638442444,44.53747833330185],[4.811040257016346,44.53570987024898],[4.809590215355641,44.5345779903398],[4.807854417310353,44.533300651162705],[4.805725738449764,44.531746465267055],[4.80360068234274,44.53017801957515],[4.802078791628596,44.52901889759523],[4.799884935485671,44.5272730621493],[4.798942177811924,44.52649156575019],[4.797913606981127,44.52559265110688],[4.796472210127749,44.52429790994557],[4.794533227137029,44.52246285363281],[4.792578366121942,44.52049773085785],[4.790830744978613,44.51857170119248],[4.789059783052093,44.51652989468014],[4.787448825416084,44.51453645599983],[4.785947419870149,44.51249873721657],[4.784500259110714,44.51042046979674],[4.78313036244917,44.50827862428223],[4.781662433733127,44.505725951821326],[4.780701163721726,44.50391906899073],[4.779622508241451,44.501715840280745],[4.778617399312484,44.49945760231902],[4.777500090675078,44.49690092882066],[4.775818382190852,44.49294445924737],[4.773185739269673,44.486912431288964],[4.771473728617229,44.48291225149246],[4.769745611913764,44.47889531997775],[4.768157958291264,44.475187683845064],[4.765924508891392,44.470248304379446],[4.763870120899409,44.46581600314177],[4.761815170902501,44.4613028924656],[4.761423184951855,44.460446260724986],[4.760563294387926,44.45856699271077],[4.758718123392059,44.45455182488732],[4.757071631679234,44.45094133014014],[4.756323326590427,44.44936026658842],[4.754232313499306,44.44481485765554],[4.753158980661955,44.44245842982134],[4.752286451683879,44.44058313322697],[4.751502919561259,44.43889901683091],[4.750570618787405,44.43700483505914],[4.749268524561933,44.43452739376625],[4.747543353482287,44.43140238476342],[4.745796523267289,44.42820972359771],[4.744736304886005,44.42614358002027],[4.743844525757694,44.424252732385256],[4.743338845872491,44.42310515114079],[4.742431034771718,44.42083383744121],[4.742113799389776,44.41997902477685],[4.741546008655262,44.41827326421956],[4.740790738158821,44.41556052553849],[4.740457795068909,44.41424310196751],[4.740010906059666,44.41204663383217],[4.73975623950408,44.41057503026168],[4.739454571176484,44.408345115157765],[4.738172668450187,44.397641576559884],[4.737772885043126,44.39411112320154],[4.737524523306146,44.392188686165284],[4.737073685231298,44.389811512455715],[4.736562699641991,44.38775478161635],[4.735975819755107,44.38583202006221],[4.735231982503487,44.38377094742971],[4.734271424814523,44.38155143419702],[4.733521816189646,44.38002816019223],[4.73271915340728,44.37857652410272],[4.731292394878917,44.376214221651026],[4.730841058293687,44.375530251983456],[4.729555554877151,44.37379090350516],[4.728458040656247,44.37236443473137],[4.727011574961428,44.37063965076429],[4.725069029472621,44.368553782315225],[4.722311787563513,44.365932857452265],[4.719857375765719,44.36389485888726],[4.716335429137135,44.36114878134739],[4.715159507941987,44.360195587801314],[4.712875080957128,44.35820905115419],[4.712017594374848,44.35740245920625],[4.711376323258325,44.35679923044992],[4.710065399006472,44.355465862570725],[4.708978914321322,44.35427261908114],[4.707620318601991,44.352696971990476],[4.706767400281501,44.35160564992065],[4.705672723219814,44.35015271783034],[4.7044525511618,44.34836398263335],[4.703206257595977,44.34631543042989],[4.702822255586062,44.34563209588352],[4.701973216938594,44.3439735394791],[4.701365116640091,44.342711711062236],[4.700959857894984,44.341769493430306],[4.700460358219419,44.34051123371355],[4.700270749457982,44.340036937237706],[4.69994086573148,44.33907910328033],[4.699404756176356,44.33738808511401],[4.698943979183999,44.335617367518516],[4.698822268985503,44.33495201375332],[4.698527382603682,44.33349324876999],[4.698220337061944,44.33144396539884],[4.698040213866285,44.32928439416217],[4.69798494430998,44.32697676826757],[4.698052603317167,44.325154923768686],[4.69823786903922,44.3230428202702],[4.698479284968524,44.32142264444418],[4.699658637970276,44.31497356036254],[4.700270519557021,44.31159859238971],[4.701190953830992,44.306828987937195],[4.70121785942889,44.30668955361854],[4.701224148813087,44.3066497686586],[4.701392801450232,44.305582896573625],[4.701790147665546,44.30338881434335],[4.702098428969503,44.301440497955944],[4.702293337809316,44.29995274108626],[4.702414234692865,44.29872070496279],[4.702507581498382,44.297139254888286],[4.702537553608671,44.295182507857454],[4.702440410126922,44.29273494439165],[4.702253691382044,44.2908495282014],[4.701811233937976,44.288029231452526],[4.701222228317657,44.285349270778354],[4.700614700712153,44.283248962459425],[4.700433803009432,44.28262354339318],[4.699976457509642,44.28117563120326],[4.699575352796253,44.27992554932878],[4.699464443306408,44.2795798792634],[4.697940266353088,44.27478818784518],[4.696302980523929,44.269777906100394],[4.695114466412972,44.26591137651513],[4.69463744862531,44.26419997534086],[4.693970750661106,44.261397716570855],[4.693281744879705,44.25820622658564],[4.6927207748912,44.25560560803026],[4.69236867432309,44.253817341257786],[4.691968553935896,44.25134647063965],[4.691719245024095,44.24920605320947],[4.691550319668713,44.2468329764412],[4.691519427223954,44.24438657399586],[4.691574339648159,44.242527915290324],[4.691718357036414,44.240376769188046],[4.691960216125144,44.23804564898907],[4.692272990867983,44.236011043229524],[4.692822341683469,44.23339290824881],[4.693526049529588,44.23065620203314],[4.69414829930581,44.2286302090028],[4.695283361908999,44.22548992513255],[4.695999729468766,44.223806088592774],[4.697348009736459,44.220927029272424],[4.698537557081058,44.218593725829486],[4.700071977592985,44.21565490152609],[4.701201138399274,44.21345875435336],[4.702768000293493,44.21031539320983],[4.70476015726967,44.20637632246348],[4.70745254867234,44.20111983869733],[4.710051926562909,44.196102630958094],[4.711681870144504,44.19289030131845],[4.713332383400519,44.18967007681535],[4.714572539012801,44.18729072987028],[4.714811225097375,44.18687021883793],[4.715882941239864,44.184982014787394],[4.717489902841556,44.18241943025946],[4.71943600326946,44.179624951657466],[4.72057633709969,44.17812312574456],[4.721482368671368,44.17702899133873],[4.723680508389067,44.17442683275048],[4.726472074782204,44.1715056649387],[4.728034847581981,44.1699833699926],[4.730810133470475,44.16752542697109],[4.73452291265753,44.164389387905786],[4.73784641129014,44.16157279334193],[4.739798197240462,44.15991369515399],[4.743609012574844,44.15671987756596],[4.744945929815118,44.15558981191838],[4.750555943539649,44.15084713506758],[4.753202621134733,44.14858083047632],[4.754397348562204,44.14753089422011],[4.755932012282353,44.14611301295788],[4.757677861652852,44.14440475485491],[4.759049069539628,44.14296301859251],[4.761182823504997,44.14058014296699],[4.763626069008906,44.13753146294583],[4.765815645447623,44.13442640116785],[4.766946694095718,44.13269391439106],[4.768629563805366,44.12982729538351],[4.769622162382313,44.12786291061293],[4.770849801276997,44.12519995598013],[4.772056968954316,44.12222014580656],[4.772949908550427,44.11958901446448],[4.773732461489336,44.116782198567655],[4.774338010786346,44.11401600496373],[4.774799660691269,44.11134276285665],[4.775009466205747,44.10953944888088],[4.77522838171603,44.10627238265051],[4.775257163653539,44.103500436966186],[4.775149480198656,44.10055324171593],[4.774782552191697,44.097357270007855],[4.77421214716759,44.09418725401376],[4.773612042331466,44.09168118778204],[4.77344118214452,44.09096762720308],[4.772755881188556,44.088645260906326],[4.7718489178384,44.08609993122663],[4.770609633565449,44.08314085702084],[4.769265465609349,44.08034205370672],[4.767312884208087,44.076499614539216],[4.766252784264306,44.074406052199805],[4.764379037968034,44.07072844233295],[4.763308100473289,44.068616157405394],[4.762116713673507,44.06622813462931],[4.760335279971949,44.062743597392156],[4.758646540028798,44.05943674940837],[4.757040045675325,44.056271048196294],[4.7556860722727,44.05342420806075],[4.754769610287218,44.051456276411145],[4.753730763809776,44.049112262028046],[4.752652866578476,44.04653513803401],[4.75086404894583,44.042051183251665],[4.749751375622554,44.03899239962488],[4.748576940278026,44.035858469977185],[4.747377311052966,44.03258146187885],[4.746534318371631,44.03024211299067],[4.744973698709743,44.02604260307244],[4.743780522012057,44.02279190695627],[4.742510372314539,44.019487102562266],[4.741404535613518,44.01644513620981],[4.740259705496357,44.013393764514234],[4.739086550012532,44.01026732599459],[4.737968111026265,44.00721552540764],[4.737026708397835,44.00464796239407],[4.736204372575656,44.002036974818814],[4.735592205253918,43.999626533264085],[4.735172939192255,43.99753773269978],[4.734800235638539,43.99525941573523],[4.734501240910706,43.99257184633649],[4.7343786568502,43.99034274902884],[4.734374436599771,43.9881416586815],[4.734454357493847,43.9861280146569],[4.734660629749435,43.98379899701691],[4.735144277520707,43.98061985650207],[4.735768788444382,43.97804143648174],[4.736366972320019,43.97544304764143],[4.736879935048226,43.97360102219582],[4.736921035791498,43.97346083845738],[4.737936706957735,43.96999643311882],[4.738262746246867,43.96878710086771],[4.73875858997461,43.96694783804538],[4.740989930173084,43.95929450679866],[4.741476272020549,43.95751486115014],[4.742368317809892,43.955235339815125],[4.743531382461433,43.95250536209563],[4.744770466065838,43.94972239185032],[4.745995413423423,43.94733574306803],[4.746848609049763,43.94580473305423],[4.74783381274983,43.94410851386118],[4.749434498418009,43.94207831487452],[4.751003929496175,43.94013880686664],[4.752721460105906,43.938389649705655],[4.755499538182959,43.935962721612064],[4.757127476492965,43.93470574640978],[4.759655540083531,43.93299252175673],[4.760726739374645,43.93232210571408],[4.762528776379288,43.93129632229727],[4.765584274947405,43.9297556704038],[4.768033240288144,43.928708010671436],[4.770095278454336,43.927882586569254],[4.770411945343133,43.9277558207884],[4.775248490077045,43.925883976611615],[4.782819488994553,43.92293283801853],[4.786093129705595,43.921816586424114],[4.7883613279511,43.921115249977],[4.79338177279537,43.919788624274105],[4.79532372493046,43.91928297943345],[4.798575278571109,43.91843624398213],[4.80053619153224,43.9180320602988],[4.80310538192455,43.91759602567576],[4.805777881784,43.91724752719533],[4.80901167084122,43.91693116878341],[4.813706412990715,43.916688412260534],[4.819735222839958,43.91642293754569],[4.821097585930885,43.916363337117815],[4.838964099948309,43.915580132003385],[4.84319358369745,43.91527580201207],[4.846018458670422,43.9150037449127],[4.848795365966416,43.914639862752345],[4.85191809806222,43.9141414417536],[4.854519148964402,43.913655847980735],[4.857842595551713,43.91291570714041],[4.859791086368534,43.912448355296505],[4.862637793624751,43.911659833241046],[4.865114572657371,43.91090020796019],[4.867026310228381,43.91027100492796],[4.868528084364871,43.90972358096267],[4.870571918206078,43.90898327730521],[4.874347028749717,43.90753292097852],[4.877685900552256,43.90616166976167],[4.88108984739026,43.904709907388934],[4.884534001500025,43.90321581228364],[4.888590261229585,43.901446732852264],[4.893372942105722,43.89938929078885],[4.897138333747086,43.89795178618417],[4.898844718636275,43.897338530868055],[4.89926291761525,43.89719965149745],[4.899251901903647,43.89720330971939],[4.901785150369398,43.89636199896072],[4.903716474135865,43.89578122707385],[4.906354785326344,43.89504803999064],[4.908994669029979,43.894363842973945],[4.919773984410742,43.89200813786724],[4.9282010845679,43.89016561020367],[4.931189876214619,43.88943901703556],[4.933936724180828,43.88869190806002],[4.936081485124139,43.88804979864325],[4.937905157984512,43.88748508307515],[4.938641491600436,43.88723513036909],[4.941930640468279,43.886118522864045],[4.948427600139422,43.88390730150455],[4.951186522799095,43.882932155910105],[4.954289936336779,43.88175389673741],[4.956452018245074,43.88089054996323],[4.95933157779216,43.87966992257098],[4.962923554334099,43.87801048318525],[4.965974682698427,43.87648542469865],[4.970099442380846,43.874262749807286],[4.974045424334697,43.871945315678694],[4.976469840148694,43.870385242925295],[4.979579608304213,43.868256083535854],[4.981104140461974,43.86716523814711],[4.983123494211354,43.86563555391904],[4.98503163577846,43.86411847383246],[4.986814498796751,43.86263125006892],[4.988853413762116,43.86082926120186],[4.991909443215567,43.8580360066065],[5.003939129642002,43.84710053815509],[5.005803354541595,43.84534259769807],[5.007404439470252,43.84373707674005],[5.009017947421691,43.84204472232597],[5.010367334825017,43.840533237200425],[5.011910153806409,43.838767565704586],[5.013474913239162,43.83696111639796],[5.0150975398458,43.835134461982925],[5.016818848037104,43.83328047380877],[5.01861205669666,43.83147184993413],[5.02016691077627,43.82997767806384],[5.022151215916597,43.828186692884245],[5.024181399122359,43.82636933484044],[5.025890432687238,43.82484673382585],[5.027957431724532,43.822998888554125],[5.029801925364232,43.82125329437749],[5.031517847395842,43.81968117384474],[5.033273041900141,43.817900624510884],[5.034634906289885,43.81644382371327],[5.036235682644898,43.81461513885879],[5.037790749690596,43.81282338846905],[5.038992095738283,43.811395018571005],[5.047090069177631,43.80180663960817],[5.048752087887421,43.799773649124845],[5.050126522803958,43.79803608905326],[5.053445165416289,43.79364241415957],[5.053553792772924,43.79349858543396],[5.055177876538721,43.79133823344345],[5.056647695899511,43.78948632864495],[5.058031550460532,43.78786104979769],[5.059091481420077,43.78668572972608],[5.06045918014685,43.78526672516851],[5.062025533834087,43.78371223337667],[5.064880560587765,43.78111301413206],[5.067436723653793,43.77903728281933],[5.069424850180088,43.77753088124086],[5.071324202161375,43.77616582301864],[5.073402436920676,43.774773086587246],[5.075574383928737,43.77339302608504],[5.079590566350998,43.77107380821731],[5.082643371048092,43.76948460412144],[5.085316192892572,43.76820826632328],[5.089710228883772,43.76627030793183],[5.101723144942986,43.76117828134015],[5.108772149180357,43.75808316846448],[5.113275832099777,43.756131681667206],[5.118054281015972,43.75393621825266],[5.120376131908802,43.75283971819069],[5.122985866290001,43.751444920647174],[5.125649201468627,43.74988643791622],[5.128310780476095,43.74828456973917],[5.130833720754441,43.746576964758184],[5.133335919335235,43.744717969870635],[5.134890373007295,43.743506125781046],[5.137049936790983,43.741686276419394],[5.139527875241043,43.739589169957476],[5.1414138151083,43.73765538786682],[5.144014012519249,43.73484044487867],[5.148285041647471,43.730274052089555],[5.150842296755978,43.72760667036065],[5.152182356711243,43.7262795912249],[5.154766545385779,43.72373663596178],[5.156692977170517,43.72208960905521],[5.158011618064555,43.72102198472515],[5.160221876475529,43.719309394024116],[5.16209126729292,43.717947094884146],[5.177004847582843,43.70739941258985],[5.180271774817789,43.70491002508263],[5.181842936818679,43.703677038485736],[5.182536727883026,43.70308001025857],[5.184186381943325,43.701660366176654],[5.185258708866005,43.70071385481741],[5.186423878194469,43.699581078496045],[5.187701354721349,43.69834571611367],[5.189691550551898,43.696180466289334],[5.190983956849525,43.694754353303445],[5.191588537361802,43.69410035439579],[5.203794597243895,43.68080891218864],[5.206432640325701,43.67786803951635],[5.210334862980219,43.67368402256475],[5.214049723106306,43.66956846217119],[5.215855957474472,43.66744890665035],[5.217163098334461,43.66578681828889],[5.218941293607266,43.663316127380895],[5.219542362742397,43.66241539361962],[5.2208788282494,43.66030534754694],[5.222118134567594,43.658067657134566],[5.222303070841557,43.65771140120201],[5.223047131313308,43.65627801739393],[5.224479441289708,43.65312271756254],[5.225628580477197,43.65044511963175],[5.226866579484496,43.647648656038555],[5.227938255667896,43.64519223890761],[5.233841072776717,43.63165834177347],[5.233832388860434,43.63167825676769],[5.234230179453996,43.630765978081286],[5.236814485583062,43.62483845647848],[5.237950034178029,43.62245097928162],[5.238207987357636,43.621964463813526],[5.239568972442886,43.61964203009912],[5.240824584779394,43.617816429284794],[5.242414999285334,43.61574105068772],[5.244589538224993,43.61322722438891],[5.245727547576938,43.612003641366805],[5.247652080483444,43.60984131891417],[5.249155283421361,43.60816040996408],[5.251257351917588,43.60598761113681],[5.253542463028087,43.60400000446907],[5.254742740349593,43.60292908027907],[5.256088504493227,43.60187803884873],[5.257614557717221,43.60078925614852],[5.2599590007292,43.599245495926],[5.262386231295882,43.59782831915273],[5.265331602867826,43.59624927097582],[5.268267774301096,43.59470431089052],[5.270132846615567,43.59366112219071],[5.271745187549978,43.59266471533344],[5.273264354293269,43.591677784849225],[5.274633115622069,43.59069775811597],[5.276419818572362,43.58926085169602],[5.277730418055642,43.588122288350746],[5.278760488483928,43.5871375427012],[5.279642524157998,43.58631156699721],[5.281881034339481,43.5839616411755],[5.284424772875992,43.581325879149276],[5.286820585007631,43.57889326159551],[5.288138729053556,43.57769893844337],[5.289566377380763,43.5765173911769],[5.290851485357623,43.57553892086605],[5.292528210232775,43.574355853874614],[5.29424525403294,43.573273840413194],[5.295747144143188,43.572396437261844],[5.29734831473268,43.57153578847492],[5.302300577463915,43.569044924473054],[5.307425989994313,43.56646956606072],[5.308607544192345,43.56587580585402],[5.312449898427774,43.56395161578626],[5.314816981555516,43.56268927749614],[5.316428438251549,43.561711089157676],[5.318061814652427,43.560634251716806],[5.319847233646848,43.559338950528705],[5.321857058279019,43.55776842078368],[5.323769889842652,43.55603366666157],[5.325621938694409,43.554084702186636],[5.327025447847898,43.5524020467793],[5.328115468569868,43.55093286849681],[5.329409137101149,43.548980546163946],[5.330469210887638,43.54707592215381],[5.331385225266938,43.54509312634647],[5.331852178452169,43.54393919898844],[5.332288130683174,43.54266135396286],[5.33276820467005,43.54093708314101],[5.332930430667702,43.54024400761774],[5.333348327128263,43.537983675007595],[5.333451128740305,43.53710634436725],[5.333539557758715,43.535654071707505],[5.333571499795499,43.53458490934145],[5.333503051508387,43.53288739112139],[5.333362867747851,43.53131820806417],[5.333034735689671,43.529288763905946],[5.332736147978771,43.52801147018941],[5.332155936617307,43.525989119711625],[5.331395870563149,43.524008386988925],[5.330675853802187,43.522374107994224],[5.329459940923831,43.52021223939768],[5.328833246466019,43.51917491734266],[5.327944764584134,43.51782177648196],[5.327656410403899,43.51738260361638],[5.325770974873723,43.51495211802111],[5.323266503993524,43.51193881371664],[5.320536963615334,43.50850762387949],[5.319777411357149,43.50739679186635],[5.318698079257701,43.50574009130081],[5.317931173478692,43.504445173563354],[5.317083430326687,43.50295535440347],[5.316363920143555,43.50144558661186],[5.314900407322515,43.49758491185954],[5.312472778739354,43.490159058215184],[5.311754077199565,43.487833563331066],[5.311280702606656,43.48605553151495],[5.31094075702667,43.48426381935461],[5.310778051495661,43.48307419493732],[5.310540262141487,43.481335506648534],[5.310459617244189,43.48061620086762],[5.310425532341545,43.47886531532321],[5.310451884676777,43.477328319968976],[5.3106092066336,43.475174513095894],[5.310938815647373,43.47293514927544],[5.311401054040971,43.47076599016217],[5.311741314066849,43.469482447685834],[5.312119503312954,43.46826671668712],[5.312827908796869,43.4662923798321],[5.320237526655129,43.447999754374464],[5.321389281712527,43.445211689789076],[5.322472747319036,43.44257679559095],[5.323476154936913,43.440539634431474],[5.3245055380681,43.438586343874846],[5.325064604840071,43.43752543659115],[5.326983487175474,43.434026991208675],[5.328375929522418,43.431389327341535],[5.328492244585546,43.43113919291027],[5.329451985950821,43.429075192277196],[5.33240997524385,43.42136165906278],[5.334917855076066,43.413742885895076],[5.335229692912239,43.41239424046182],[5.33539876240881,43.40672197494134],[5.335571774887628,43.40146251339319],[5.335859876279573,43.394975217324095],[5.335724739562891,43.391921383806924],[5.335874409966213,43.37998897910009],[5.336053813657888,43.37635493038756],[5.336673997109405,43.37236249558946],[5.337330195810877,43.36982624215944],[5.337859907594997,43.368642425043504],[5.339459223820102,43.36586466561831],[5.340326919671655,43.3647869557595],[5.341807797665017,43.36316264497605],[5.341809594442999,43.3631606740849],[5.343386041937654,43.36143142029852],[5.344439134960368,43.36023088625016],[5.344746246843915,43.35989582841094],[5.345339168119782,43.359227793304626],[5.346287392539099,43.35861297775615],[5.34844193463866,43.3571507026935],[5.350125921278859,43.35607608090625],[5.351974395797825,43.35485064168315],[5.354034571940416,43.35339511797498]]}}]}