{"type":"FeatureCollection","features":[{"type":"Feature","properties":{"name":"LGV Interconnexion Est (bypasses Paris: CDG - Marne-la-Vallee)","opened":"1994","codes":"226310"},"geometry":{"type":"LineString","coordinates":[[2.5772455172724005,49.06379253111965],[2.575091750906931,49.062593194432935],[2.573456461797268,49.061573424840574],[2.57164168928717,49.06012993486116],[2.570628132908153,49.059156568066136],[2.569454056477465,49.05799079775576],[2.568218809951932,49.05638787335583],[2.567370640984469,49.0550420872261],[2.566668437926924,49.053696819777144],[2.566130718768995,49.05207506723262],[2.565768607206159,49.05078430160319],[2.565557508077312,49.04888664781163],[2.565606877803158,49.04686205170515],[2.565864129328373,49.04485984239039],[2.566055909017211,49.0433671022767],[2.566297621222034,49.0414855806765],[2.566616808493928,49.03852145580314],[2.567059533907312,49.03504439878482],[2.567697047787062,49.03003667931506],[2.568177628332609,49.02626102625168],[2.569115701230126,49.02046320688119],[2.569151270417778,49.02024334299708],[2.570276603718705,49.01152992466109],[2.570635724820022,49.00866971755731],[2.571317053678617,49.00324240826738],[2.571876413640412,48.99880569774054],[2.5720449429323,48.99746881065445],[2.572676362475543,48.99355985542129],[2.573010854717479,48.99227151755208],[2.573578061453035,48.991053373438156],[2.573966992777465,48.990218061664876],[2.57522434758814,48.98831395797865],[2.576423158469531,48.98690167926232],[2.577451964970742,48.98583957464265],[2.578642217981023,48.98483131410694],[2.580363351771404,48.983513755689785],[2.581769107366434,48.982604212434886],[2.583867267851486,48.98142854143725],[2.5864815546335684,48.9802389280863],[2.5863956641405403,48.98027801380947],[2.58681866481736,48.980085519946684],[2.58998111587288,48.978713822996944],[2.604076712632864,48.972598013805346],[2.609662044771019,48.97017400465359],[2.623694296913001,48.9640819003664],[2.624596476036258,48.96370508769981],[2.626226921819148,48.963024068882504],[2.62963411726471,48.96187296969328],[2.632731395675839,48.96104055036208],[2.636645701648516,48.960226929740095],[2.640429472095498,48.95966232215664],[2.644315435691682,48.95932763291307],[2.645796804837771,48.9592887774639],[2.647601478808446,48.95924141710979],[2.651404475055365,48.95929516334046],[2.654542793443983,48.95951739655906],[2.658780624747153,48.95990254434051],[2.66159553012766,48.96009169933877],[2.664200607925416,48.96019494053358],[2.664406434688875,48.960193725599204],[2.66787469143352,48.96017320036638],[2.671258596699405,48.95996937451821],[2.673947015677974,48.95968896144212],[2.676182644808643,48.959343321027006],[2.6783700214442,48.95894422181815],[2.681279532279523,48.9583191549649],[2.684495981500811,48.957512055288],[2.689375082005728,48.95628753484996],[2.689777689777328,48.95618653839822],[2.693011002792023,48.95537537982398],[2.695433867018868,48.95477337420416],[2.697916186757637,48.95415653017448],[2.70224372490004,48.95298436449361],[2.706005303506254,48.951704079444305],[2.706178299526103,48.95162913104984],[2.709087372705465,48.950368740395305],[2.71202459835846,48.94886245115976],[2.714670988970153,48.94724882010412],[2.715251049681377,48.94684070081447],[2.717237358304771,48.94544310224142],[2.719740439837628,48.943338764246135],[2.725446598645475,48.93819364743969],[2.727870095170201,48.93598250570249],[2.729345446219351,48.934636311530454],[2.734330376215321,48.93008711577684],[2.734662353179919,48.92978412071835],[2.736450142287358,48.92810413310779],[2.738984601953395,48.92587153813806],[2.740835642639114,48.9244260899849],[2.742583472042612,48.92323887277553],[2.745590297041625,48.92119629039229],[2.749070950920016,48.91887140565061],[2.752874896992707,48.91633022063073],[2.755162621161228,48.91479579814697],[2.76030419931034,48.91134674100628],[2.768558912746087,48.90585279379923],[2.770456310874091,48.904545508445985],[2.77266162181584,48.903046931773844],[2.774332115520113,48.90182441557265],[2.776327912254651,48.90012286989234],[2.778247442281174,48.89823916788132],[2.779640777620627,48.896579869318785],[2.78126675006421,48.89432333062178],[2.782292218637326,48.89261989853762],[2.783418144967222,48.89006398423988],[2.783974975260552,48.888306391946706],[2.784319856162969,48.886985398671825],[2.784618130900923,48.88520601613221],[2.784741701291141,48.88268023995583],[2.784630146606377,48.88107214236649],[2.784619690617339,48.88092141061816],[2.784510231429999,48.88003657850969],[2.783990710783271,48.87672091867727],[2.783149464543207,48.87255705023655],[2.782877325213687,48.87120991059409],[2.781896594197068,48.864886360491816],[2.78140560073785,48.86204337181509],[2.780298520337027,48.85563189552003],[2.779558942114265,48.85100473844439],[2.778597436116152,48.845428532348755],[2.778255648553194,48.843388924169524],[2.777747030138398,48.840353453050035],[2.777401074477274,48.83817844449297],[2.777234439131958,48.83560939334235],[2.777375896956401,48.832731807162915],[2.777690969983046,48.830781846542266],[2.777992735091409,48.82947065123498],[2.77808574022613,48.82906652217903],[2.778512091921312,48.82751113391514],[2.779572046890028,48.82499762100483],[2.780337619803608,48.82336823391408],[2.781573260340926,48.82126005226356],[2.783288288724788,48.81885450544738],[2.783554064785953,48.81848169797925],[2.785989107612176,48.81508590344188],[2.790371248515579,48.809007430901005],[2.794124136071728,48.803834144409656],[2.797753398885345,48.798830161529914],[2.801792600969951,48.793123674736464],[2.803350264374159,48.79075992954279],[2.804097180061666,48.78947140411773],[2.804844816355334,48.78798035037864],[2.805528363847638,48.786361276081266],[2.806164309958219,48.78451827608509],[2.806753835762588,48.78213157654753],[2.807052519622883,48.77987231031806],[2.807172234083606,48.77802845988079],[2.807083740248033,48.775789878463314],[2.806900071286325,48.773124768199104],[2.806772347357446,48.77156334152622],[2.806097922449566,48.763316901431345],[2.80572607151931,48.75925507452978],[2.805452552798521,48.75600654177862],[2.805340104773118,48.75467089665279],[2.805187168821943,48.75245348191672],[2.804824971263284,48.75016110448217],[2.804268341443313,48.748145549789264],[2.80343834650005,48.74596964641561],[2.803150710496045,48.74530828214155],[2.802270195167967,48.7437292162726],[2.801260878197056,48.74212860821778],[2.801095010416224,48.74190529705488],[2.800555353469064,48.741178730836346],[2.799855691129387,48.7403248572537],[2.798646219800145,48.73890503660106],[2.796671421760629,48.73698296227223],[2.792512707183001,48.73320078271062],[2.79085877445766,48.731696403095526],[2.787022056506464,48.72813994797137],[2.786542357190311,48.72773712298069],[2.78506306490502,48.72649484288603],[2.783151779461751,48.725031005026295],[2.78067755732976,48.723363566384016],[2.779475426575354,48.722647919418854],[2.778234809556322,48.72190932727143],[2.775228841868896,48.720336719197114],[2.766548166135657,48.716098777536786],[2.760630192744701,48.71323535160746],[2.753914617312624,48.70998525976411],[2.753914617312592,48.70998525976411],[2.753674152563623,48.709868868983335],[2.747857145671758,48.70701052851175],[2.74276341267782,48.70457985480225],[2.741477405177958,48.7039536613402],[2.737574007410905,48.70205280760429],[2.734200227778162,48.70043568479229],[2.733013899918745,48.69997717915345],[2.73217509887447,48.699652977593416],[2.729635045815926,48.698805109502864],[2.72762492975682,48.69825687742135],[2.724923313578184,48.697536458577844],[2.721480069430928,48.696995468576205],[2.717295357841517,48.69660186382849],[2.712767293979827,48.69656138182382],[2.708465404280244,48.6969075105786],[2.704375167875102,48.69757258305808],[2.701499836006377,48.698213432268794],[2.696569528818896,48.69956772237759],[2.693248079317008,48.7002521266704],[2.688638332283194,48.70091176271925],[2.679740248601035,48.70209051013624]]}}]}