{"type":"FeatureCollection","features":[{"type":"Feature","properties":{"name":"LGV Rhin-Rhone (Dijon - Mulhouse, province-to-province)","opened":"2011","codes":"014000"},"geometry":{"type":"LineString","coordinates":[[5.302550866103873,47.21360702410097],[5.311714673055183,47.212429995821644],[5.317120130868151,47.21228757483227],[5.319617511838662,47.21234044876739],[5.322472169796306,47.21259713405958],[5.325290365413252,47.213064824094566],[5.327852528559063,47.21366135678735],[5.329439534843062,47.2140849967681],[5.329438115244159,47.214084617832995],[5.331701190552767,47.214688679897215],[5.339450935275577,47.216392092480746],[5.352183851111882,47.218769424816536],[5.3521706791370764,47.218766966358984],[5.35241304612382,47.218812202350676],[5.362114719795051,47.22089525369829],[5.362266715097519,47.220922388423304],[5.362255206578053,47.22092033389322],[5.366047136759006,47.2215972085655],[5.376626568510781,47.223491918927785],[5.382418308942994,47.224411291367105],[5.387892178542306,47.22503235770113],[5.391731101128007,47.22521622341696],[5.396666740091219,47.22515577725525],[5.403191445492348,47.22511772807928],[5.419009521571793,47.223826286312956],[5.432893506474705,47.222387063791466],[5.440911020052299,47.22189541978602],[5.448845031246552,47.22196189955079],[5.460208506067876,47.22306621894611],[5.469027067061418,47.22464006133592],[5.480876736322959,47.22708274767273],[5.494528273619811,47.22989509155747],[5.506643523994278,47.232275143089346],[5.519054104060942,47.23494284211504],[5.530180753211551,47.23723082261268],[5.542176537897949,47.239386085047315],[5.547955367241578,47.23988208796388],[5.556421682177995,47.24021119636127],[5.563516774350251,47.24003246281733],[5.570071533977934,47.239492694717185],[5.593237707768714,47.236590244389284],[5.603340707711006,47.236272286303766],[5.612424483702327,47.23681531053771],[5.619271159704203,47.237603953459875],[5.625545392755521,47.238755442482685],[5.638494300739374,47.24187636687268],[5.657622978354283,47.24659060194322],[5.679736949869334,47.25203555739537],[5.687815457415462,47.25403649509403],[5.696580078053719,47.2557106873682],[5.707572547066376,47.256864814822926],[5.723108543735827,47.25732978943621],[5.733665543030554,47.25808877218888],[5.742677544446257,47.25930975746991],[5.753234550095613,47.26187274023569],[5.761131558445168,47.26495972735231],[5.768340569067597,47.26862871559756],[5.780185587041302,47.274804696285024],[5.788167595763268,47.27800568326442],[5.798982603380065,47.2811526656146],[5.807136606496767,47.28278165230248],[5.816405606989015,47.28376963716406],[5.827649605209944,47.2842956187957],[5.845159602409691,47.285108590191655],[5.864385602138081,47.286798558791176],[5.87799625628552,47.28947412756081],[5.89258652961913,47.293448119419715],[5.899611131571945,47.29524121268274],[5.916227626773667,47.298558474178684],[5.926003633370489,47.30029494508978],[5.933746873486635,47.30209383430956],[5.937551086358573,47.303140630496706],[5.955571379045176,47.30857247830169],[5.958779281295323,47.30954081088419],[5.967699837372495,47.31223396723086],[5.971674848663908,47.31350101395139],[5.978224202634905,47.31591841530479],[5.986093678908791,47.31979936020319],[5.993217693426178,47.324571348601886],[5.999248199773272,47.32974838266239],[6.002143718851147,47.33259733408182],[6.005405732579488,47.336785328785155],[6.006615207256809,47.33825598928112],[6.008323744160518,47.34033332404552],[6.01064075347305,47.34318332028249],[6.013215764964454,47.34667331610295],[6.015447772864044,47.34911531247581],[6.018794780810318,47.351674307028375],[6.022485789874455,47.354581301021874],[6.029351802005252,47.3586512898385],[6.033385811580126,47.36173428327337],[6.036905820079685,47.364465277545115],[6.040939830069718,47.36766527098114],[6.045488844402248,47.372140263585905],[6.04849285677712,47.37591725870894],[6.053298876388273,47.38190625090615],[6.058362902075713,47.389634242695934],[6.064370926419465,47.39706923294213],[6.069349948853053,47.403867224864335],[6.074584967704959,47.40967721636087],[6.079820981810168,47.41414720784541],[6.08428399206866,47.41745920058324],[6.088575999296516,47.41990019359354],[6.09355400793451,47.42280318548732],[6.100935017205837,47.426110173460245],[6.108059025753968,47.42918916185129],[6.116213034160181,47.43232514856097],[6.124710041827105,47.43528513470938],[6.132178047168083,47.43749312253234],[6.142306053059894,47.44010710601514],[6.153378058207895,47.44260108795591],[6.173033069551254,47.447652055903426],[6.186423078029544,47.45130603407009],[6.203160088278964,47.45577700677941],[6.21380309603502,47.458969989428844],[6.222643104803683,47.46227797502335],[6.23036811558015,47.4660459624425],[6.237320129521575,47.47063195113091],[6.243757145274975,47.47567894066423],[6.249336158229297,47.479855931591345],[6.252426165424234,47.482174926566294],[6.25757617440373,47.48519191818423],[6.262383181022698,47.48751191035625],[6.267962187579303,47.48988790126862],[6.272403385252486,47.491296898002204],[6.276030195777732,47.492962888123735],[6.281180198778922,47.494297879727824],[6.28658720066158,47.49534287090995],[6.292853200382811,47.495861860685366],[6.298289557564181,47.49592644128507],[6.303676870677808,47.496066902813546],[6.31154473757492,47.4957875804972],[6.316842245791239,47.49536017146325],[6.324326939522744,47.49476215554431],[6.328730183877165,47.494644802109065],[6.33568218171501,47.49470179076144],[6.343402721019265,47.495033918073936],[6.352288630812882,47.49619627660428],[6.35917198398497,47.49758921564279],[6.365467686806301,47.49925152165813],[6.369971110789343,47.50070220867907],[6.374161026330968,47.502265144095816],[6.379254446441537,47.50447360018308],[6.386704532170874,47.50803150695768],[6.390943952337031,47.510068786579915],[6.396064641786093,47.51243379412615],[6.401858349980669,47.514847029272474],[6.40724125730603,47.51684928854317],[6.413702242056174,47.51916966363006],[6.420014038257344,47.52085599323217],[6.428512278703293,47.523489190565385],[6.436362260672692,47.52658962671351],[6.4469192727158,47.53099460952381],[6.454901282131324,47.534412596527964],[6.465630295354686,47.539166579061565],[6.473698304112791,47.542408565924504],[6.478726594743207,47.54392249205665],[6.484104052008635,47.5453851502826],[6.490387895772646,47.54673313599625],[6.495480269834597,47.54755927578902],[6.50179933310207,47.54827636414761],[6.508740772501477,47.548675508918166],[6.515290331307116,47.54869301624553],[6.5235828851075,47.548324910636715],[6.531769833057821,47.54791166537269],[6.544927618211085,47.547526097792776],[6.556997137693866,47.54733996677457],[6.570133853368042,47.54675497802685],[6.580003358102914,47.54638035909185],[6.585707279734177,47.546463383193604],[6.593861278755084,47.546986369894746],[6.601419805541999,47.54804233196161],[6.610890956410321,47.549371267661485],[6.616348282667215,47.55028933323749],[6.624932283797807,47.55144931924385],[6.633858282727556,47.55202530468706],[6.646733283177166,47.55341728369573],[6.657911872931783,47.55432623037784],[6.657919520559536,47.55432685183688],[6.658835282440377,47.55440126396227],[6.671161008833677,47.555419165422265],[6.683348674324078,47.55604660980289],[6.683992372057929,47.556069214277144],[6.683985578691948,47.55606897573777],[6.695828276867835,47.55648420363579],[6.706386264354059,47.55661263726783],[6.718998603894174,47.55695368972514],[6.735651910089583,47.55765063631864],[6.747633465791282,47.55815211747022],[6.762299375909435,47.55876425573404],[6.774759119579264,47.55928284501792],[6.790912346727987,47.55995315620435],[6.801914253621272,47.56048203064095],[6.810616238659417,47.56097248058091],[6.819681253910189,47.56233600168283],[6.829079865774534,47.5644219611758],[6.837963265754381,47.56748997191701],[6.845900850606858,47.570485060309124],[6.856995178550025,47.57467900377708],[6.868620488511811,47.578262611280216],[6.880423260065917,47.58134714975243],[6.899419824989743,47.58627607941684],[6.913939239763299,47.59004062440077],[6.917562038954167,47.591044294398856],[6.917556508840488,47.59104276245124],[6.927405647741022,47.59377062175963],[6.93437492339135,47.5966008799439],[6.941475346684604,47.600604803447354],[6.945157134006983,47.60310931015804]]}}]}