{"type":"FeatureCollection","features":[{"type":"Feature","properties":{"name":"LGV Bretagne-Pays de la Loire (Le Mans - Rennes)","opened":"2017","codes":"429000 + 408000"},"geometry":{"type":"LineString","coordinates":[[1.116024262117433,48.08622891798088],[1.11432562171638,48.085621267946884],[1.109753104072327,48.08390179184011],[1.105473631207617,48.082210607628504],[1.102734331135106,48.081429582037934],[1.101062736224218,48.081042790028924],[1.100016047288181,48.08080058063335],[1.097747894326653,48.080358844577944],[1.095222713199073,48.079966927068654],[1.08963732159799,48.07912023474073],[1.086910852421321,48.07872487269141],[1.08439860500585,48.07835093642138],[1.082114977255853,48.07797166490695],[1.079072260278451,48.0774089146844],[1.075846871155797,48.076699051373424],[1.0755896381942989,48.07664557998948],[1.0755905173717732,48.076645762743674],[1.071770029554895,48.075851511574896],[1.069811213894978,48.07543301308142],[1.069567281853276,48.07538089455691],[1.06513270019277,48.07451162788233],[1.062502359335141,48.07396144574925],[1.059274547922341,48.0732400823601],[1.05568586889785,48.07255968355176],[1.053708518994752,48.0722259280118],[1.053202641027319,48.07214053519597],[1.049435500348347,48.07161527792071],[1.045542027370047,48.07114976126609],[1.042987981125065,48.07082786277262],[1.039254757847389,48.070432658647725],[1.035448787488974,48.07018917737568],[1.033101461551148,48.07009598451114],[1.027173909010921,48.06998368582802],[1.024449228951195,48.07002927285722],[1.024274309855708,48.070032197299476],[1.022676833885612,48.070059267522694],[1.018857830921451,48.07021740828434],[1.015586182390132,48.07041442860759],[1.01072761869019,48.07086003354165],[1.004485145085392,48.071499743684384],[0.998931172685865,48.072131407404676],[0.992791002847389,48.07279623157865],[0.988498842626219,48.0732415906767],[0.986413681278846,48.07344242934463],[0.982769061942626,48.073751139541024],[0.981370601081992,48.07386088891978],[0.977833336452364,48.07406697617427],[0.974091059295494,48.07426377381839],[0.97063102121704,48.07452766180435],[0.96357633069848,48.075398560996355],[0.961517148491629,48.07564046321005],[0.96099593333834,48.07572776994458],[0.957960807065038,48.07623612058234],[0.948141167114304,48.0780227610597],[0.94341603754722,48.0788642102013],[0.939964937618931,48.07950618506267],[0.93703581693107,48.08000527236481],[0.936610549548048,48.08007772601608],[0.919983765087671,48.083531756620644],[0.917637666610352,48.08392608633105],[0.91521544437451,48.08429286247768],[0.913945068646223,48.084477457853225],[0.91177217312897,48.08471807524819],[0.908082410881946,48.08507133723763],[0.90412754964647,48.08536564415223],[0.901531298968977,48.08543647823101],[0.898884188249998,48.085434319667804],[0.896551384722718,48.08538677143334],[0.894285687816554,48.08530047244742],[0.894110973740876,48.08529381587605],[0.892179972471374,48.08522507378201],[0.888868873739096,48.085067316743554],[0.884861668087301,48.08494032165216],[0.883424888860528,48.08491451933884],[0.879689791084053,48.084901382543116],[0.874267151306277,48.08498503639304],[0.871717203094321,48.084971191830235],[0.869393861926398,48.085014090401046],[0.863816001742284,48.08500180138083],[0.854350474355285,48.08513592718999],[0.850989517510417,48.085173712552745],[0.848615190415741,48.08518921499469],[0.848422372940095,48.08519047183686],[0.844917619695231,48.08512583137298],[0.841516898238241,48.084931735495914],[0.839372313330081,48.084823424075566],[0.837684971583982,48.08468494456312],[0.83500855722017,48.084398869827474],[0.831462584191154,48.084011635211716],[0.82797136393208,48.08358902181979],[0.825590244604291,48.08330653010565],[0.823087908654493,48.08300478006594],[0.820397690327997,48.08277181185527],[0.814402087346756,48.082370353479114],[0.814235301198719,48.08235918122937],[0.81275861928095,48.08236697875176],[0.809270648288222,48.082303603502844],[0.807191234761525,48.082267501703875],[0.805111824086069,48.082231363044635],[0.799945148005538,48.082199733015536],[0.79766359204707,48.08218194213268],[0.796086763191578,48.08216962067698],[0.791154652270495,48.08218529838889],[0.786489942919764,48.08223280598848],[0.782993725131977,48.08229312003591],[0.779787222502537,48.08249385015213],[0.776508645311161,48.082810184820346],[0.774387492706196,48.08303217939009],[0.770677944573164,48.083420315170194],[0.767722642488645,48.083715512049125],[0.765411957778161,48.08390962811473],[0.762127995157971,48.08414061096382],[0.759316023325189,48.084222224567014],[0.757092763632187,48.08425655489834],[0.754435509272668,48.08428237072967],[0.751695624822333,48.084248124281636],[0.747580423144613,48.08400744707888],[0.744517460632256,48.08379854571789],[0.740974776523367,48.0835568248138],[0.728557918084239,48.082624761750075],[0.725886419053069,48.08240877268358],[0.720951830470588,48.082009650237126],[0.714865229233247,48.081684649063156],[0.711331222243048,48.08137293297476],[0.70745324915641,48.08093736212276],[0.704754474098036,48.08057866842636],[0.702128726720999,48.08008627317106],[0.699502636962396,48.07960281584975],[0.697491426186582,48.07919434853903],[0.695792875758309,48.078815235096776],[0.694750083561712,48.07858247086027],[0.691146378267449,48.077719517421045],[0.686981306787075,48.07679140359473],[0.684052658702171,48.07616658883094],[0.679838091123713,48.07545334752031],[0.676377756101422,48.07500695558134],[0.672620959692868,48.0745816164881],[0.665018607183898,48.07382393791678],[0.661930403625032,48.0734470725366],[0.658428974975473,48.07298326125878],[0.654978888022312,48.0724758448228],[0.652339189308429,48.07196228976961],[0.651781989386202,48.07185387731687],[0.647805594630196,48.070937118257056],[0.644374069058011,48.07015718335445],[0.640793528688381,48.069257638399044],[0.637958280628608,48.068515932236004],[0.634602632991985,48.06749801349136],[0.632782352225532,48.06690634859493],[0.632565110833925,48.066835733575715],[0.631014740534143,48.06636845712135],[0.629467755187619,48.065815064365516],[0.627219946011051,48.06501341342933],[0.62413262940518,48.063762563731665],[0.621524971188862,48.06260235950949],[0.619052416553682,48.06147566850228],[0.615535228836455,48.05988600843951],[0.610921008864349,48.05766026273975],[0.606278827036999,48.05568979515952],[0.605952587529353,48.05555130373654],[0.602638207350005,48.0542952444727],[0.599358526507634,48.05316586155109],[0.595092587295313,48.05187216597022],[0.591338273931711,48.050849917493295],[0.588257136512089,48.050192501156516],[0.585619879496776,48.04962971750416],[0.581722960718978,48.049022741708065],[0.581180315038526,48.04889472475415],[0.57903372286232,48.04855344212435],[0.574452681969943,48.04799989988519],[0.570559087519064,48.0476854876448],[0.555206603895185,48.04657522842735],[0.548703669295615,48.04619562693425],[0.546340340624696,48.04605757993939],[0.543055433369195,48.04594404147542],[0.529366455333582,48.04585222535495],[0.525320036130398,48.04584269768953],[0.52482378220604,48.04583872828647],[0.521171922210773,48.04580945369184],[0.51242040945792,48.045714896823554],[0.507729335380239,48.04574589025809],[0.505402831899338,48.04587256864283],[0.501200676036275,48.04612496235657],[0.498719576149605,48.0463431018021],[0.496842821349001,48.046555353845065],[0.493948760300449,48.04698005791758],[0.489561785474857,48.04773307090955],[0.48552996609224,48.04849597872065],[0.483176824460998,48.049034459465055],[0.483004186753719,48.049074253428],[0.481716142245336,48.04937114502656],[0.47762945343847,48.05040469581848],[0.475361410911789,48.05096567290156],[0.472932911596182,48.051566275500704],[0.476550643299595,48.05066778021114],[0.4431973057914205,48.0588202551295],[0.44296361172662524,48.05887733312686],[0.430289009051187,48.06197210666315],[0.410027015314836,48.067189088152666],[0.389917446357478,48.07322560746148],[0.379843966972882,48.076247662278604],[0.360698191441237,48.08202628406444],[0.354035797815648,48.084042579514566],[0.347894593003458,48.08609005184448],[0.337929050438119,48.0893979661842],[0.327097713209808,48.09247939304497],[0.322457434673295,48.09343853624453],[0.315342782518629,48.0945801175755],[0.305180663913671,48.09557949153],[0.291774773546616,48.09594930659756],[0.282654789086194,48.09641220152924],[0.272846459197485,48.097550641608265],[0.265087381380033,48.0986493936317],[0.255943111435498,48.09993976050592],[0.245321639960473,48.10106641581151],[0.23751696310559,48.10130429501068],[0.231080066178541,48.1012202097789],[0.225945918988285,48.10081102696309],[0.22020633477583,48.1000919025538],[0.215032999752754,48.09918191030933],[0.208543579248879,48.097716049457304],[0.202201321943678,48.09583103511656],[0.194550838641786,48.09296822935479],[0.188713794101318,48.090371770750906],[0.182543743501688,48.0877718851603],[0.174863317316736,48.08494577905361],[0.168800204177587,48.08327570841112],[0.158520042805052,48.08102853750872],[0.146081477346216,48.07874778628522],[0.139815232120282,48.07768191938555],[0.136048493576093,48.076920002956335],[0.132245337951664,48.076039734212635],[0.126132668423065,48.07499291649194],[0.119692563474306,48.07386429112228],[0.114166439551723,48.07287662572089],[0.104425247409688,48.07109686887488],[0.091408710101672,48.0686231887088],[0.081097131800646,48.06583402106637],[0.074065776184616,48.06316434744116],[0.066595575761502,48.059572400082445],[0.061972287600472,48.056855779090455],[0.056526752794822,48.052966360978544],[0.05187910602146,48.04914632950317],[0.04719423298052,48.044198334311],[0.044045049567981,48.039861096059276],[0.04140663516692,48.035449883161455],[0.039003850762953,48.029783807113645],[0.036497680366169,48.02136071902732],[0.033312362170544,48.01389100748137],[0.029888869445335,48.008246132800835],[0.02508164196373,48.00236811973413],[0.021017890045051,47.9986229000222],[0.016683700581605,47.99492352240035],[0.011628642668949,47.99141996969077],[0.009181908461192,47.989723943297044],[0.005346602953595,47.98706506303633],[0.001893878896457,47.98512260343319],[-0.004919702467612,47.98128864529586],[-0.011731047463825,47.97834619309688],[-0.017834793775641,47.975760194214445],[-0.025502947991228,47.9726849478637],[-0.03215426170892,47.96991884674232],[-0.036798622746295,47.96790044762681],[-0.042485137094153,47.965339979923186],[-0.054460022647173,47.95950877946837],[-0.065785235911965,47.95373250988015],[-0.074932721776143,47.94914924801533],[-0.083640673965958,47.944751423538435],[-0.091817460574242,47.940593508873874],[-0.098291600591033,47.93728551306005],[-0.10627862585256,47.93324141608704],[-0.115386189831759,47.92871352075777],[-0.121933219199336,47.92575092836756],[-0.12634544711759,47.92395753986225],[-0.134641211892439,47.92097915315668],[-0.1415571471546,47.918669993029454],[-0.152159239672706,47.915455254764055],[-0.159072962813057,47.913676345153085],[-0.168049397399692,47.91192771555457],[-0.176996840430587,47.91082135770446],[-0.184945896089955,47.91032099087688],[-0.19247271550294,47.910151879787456],[-0.202106050313166,47.910107618935186],[-0.210115304808552,47.910094898804225],[-0.218836699932,47.910070674037584],[-0.237098642670274,47.91003730538339],[-0.24402913959236,47.9100317074357],[-0.252375238858272,47.91002421369277],[-0.261479772222331,47.910015230784914],[-0.271699591900243,47.90995951273384],[-0.287988505200962,47.909933241599994],[-0.297643505526604,47.90992030554126],[-0.307220205672012,47.909987198266656],[-0.312093174522829,47.91034880116057],[-0.321241561428183,47.91145683240014],[-0.333820473251593,47.91348587272935],[-0.34260603329461,47.91504041110191],[-0.352724425921277,47.91680162933188],[-0.359329924106122,47.918305268450204],[-0.367561730760383,47.92053880097597],[-0.37153802231691,47.92189625880693],[-0.381627976964926,47.92616381658381],[-0.387099018876825,47.928989469741474],[-0.394515152091957,47.932879116496906],[-0.4021145796151,47.93683834640141],[-0.408463554040127,47.939826324587926],[-0.412641720753477,47.94160983186414],[-0.418051230933308,47.94357403035785],[-0.423827099094754,47.94533671044829],[-0.433798874280803,47.9479872485902],[-0.44326919659544,47.95052530465948],[-0.453287990484795,47.95345504121987],[-0.45997973784417,47.95560253001894],[-0.465390937922398,47.95742775066716],[-0.471005987762249,47.95931622249188],[-0.479100430764289,47.96218661148826],[-0.485417873241757,47.964786364258764],[-0.489893209765131,47.96686564874565],[-0.496705544619162,47.970697410942755],[-0.50224976347844,47.97415287124256],[-0.508928015200832,47.97872572508599],[-0.515454963179881,47.98428549862626],[-0.520652354786822,47.99008783616401],[-0.522760791403238,47.99274393170724],[-0.526199762773442,47.997961415880674],[-0.529813903709953,48.00337752241726],[-0.535185731603319,48.01020284301588],[-0.539193175096751,48.014487285828345],[-0.542795475927031,48.01805767090449],[-0.547058477428846,48.02167693607504],[-0.55473662885269,48.027900204267986],[-0.562803516752805,48.03429878508833],[-0.569698230619275,48.0396829033145],[-0.575241727438079,48.04397198122636],[-0.582096018616364,48.04828261033096],[-0.588755197712713,48.051794191772416],[-0.59521468048491,48.054614148018096],[-0.604265161448387,48.05786107273883],[-0.612169105394441,48.06027859670343],[-0.619653915096811,48.06246670082649],[-0.62762678920035,48.06486322204962],[-0.636702935909239,48.06775774891849],[-0.643935814309708,48.070377845504645],[-0.653962091660744,48.07450706173426],[-0.663587074662941,48.07861810027851],[-0.673874754333517,48.08299623726152],[-0.684720827983321,48.087599598729845],[-0.691417491782654,48.090432988650626],[-0.698053144192991,48.093171129943904],[-0.70694972628992,48.09678233603708],[-0.717645718323633,48.100806795198224],[-0.724585505131029,48.10295350386083],[-0.732098258962827,48.105008797995715],[-0.739300709739361,48.107100002485616],[-0.748561765479119,48.10991517548731],[-0.755019459131782,48.1117352229795],[-0.760322462178042,48.11300515525533],[-0.769552662262186,48.11465015729985],[-0.775363675263241,48.115606649855174],[-0.784939314734971,48.116583361619995],[-0.795447146849552,48.11676005995615],[-0.800670412342418,48.116530972540666],[-0.807068556850719,48.115856480600954],[-0.814769934478217,48.11458887517979],[-0.820170991834657,48.11349863009137],[-0.825879334487883,48.112332213899236],[-0.833435480353241,48.1108098366558],[-0.841807392170729,48.108728414579964],[-0.85117844625002,48.10567736325755],[-0.857680444654773,48.10282272865163],[-0.866043006676117,48.09857964246987],[-0.872874711475244,48.09472328032236],[-0.879205925171789,48.090827416777394],[-0.88715270120429,48.085435155331744],[-0.891819821275931,48.08157061813905],[-0.899202159915417,48.074774561194744],[-0.90510425719813,48.068831145928925],[-0.911411109728489,48.062650870660214],[-0.917991785096354,48.0559715387],[-0.926379759240498,48.04783284998488],[-0.934030839836362,48.0422399822101],[-0.942423807852348,48.03747478068815],[-0.953365798688909,48.03265703038469],[-0.964379427321788,48.028581363092144],[-0.972733181461679,48.025513867573245],[-0.984872022125416,48.02139094075073],[-0.989775969154223,48.019792666869655],[-0.997339840023604,48.01805322020483],[-1.003534766961832,48.016876240743265],[-1.011440860457464,48.01547540596921],[-1.019736987726448,48.01440856013721],[-1.026671607282562,48.01390780533745],[-1.036601318568858,48.01345937411515],[-1.043980980993205,48.01322990563908],[-1.054938296870462,48.01315024170445],[-1.070070592629312,48.013766298176684],[-1.085170479214259,48.01458530525585],[-1.095452055927759,48.015750615218714],[-1.104378113391069,48.017382588964885],[-1.109990538730659,48.018733271954616],[-1.118734714732688,48.021342567852756],[-1.123613652574658,48.02320656233162],[-1.132686358386649,48.02737468861842],[-1.139349551544166,48.03091063907625],[-1.148880033867846,48.03604394893069],[-1.155833686069237,48.039238153960696],[-1.164219117426514,48.042582414785954],[-1.175202848419458,48.04573651200335],[-1.185057948056858,48.04780730491271],[-1.196399099506813,48.049209784684024],[-1.210554557289909,48.05051546503639],[-1.224820573045483,48.051840270662744],[-1.235426939541733,48.05280341102078],[-1.243915179124663,48.05362264352502],[-1.251469333924583,48.054570814044304],[-1.266571222795958,48.05681731002492],[-1.276359685378213,48.05829506045885],[-1.288592960451426,48.0600518873052],[-1.294213767233352,48.0606667761446],[-1.302634023112141,48.06119395512292],[-1.311264607720005,48.061174634193705],[-1.326428524105778,48.06035884866221],[-1.340599601736137,48.05948962948366],[-1.353463130440316,48.0586991107663],[-1.368050129827757,48.05783905394725],[-1.377755055527705,48.05744056001766],[-1.391188449650397,48.0580077974072],[-1.402444507272875,48.05947973041056],[-1.413356419665647,48.061046880340946],[-1.421517703509653,48.06217659908972],[-1.433235217736567,48.06338785510528],[-1.442669171560339,48.06357926571387],[-1.450759256125538,48.063371713663145],[-1.464530154692837,48.063230120749246],[-1.480706718676345,48.065083598482275],[-1.491147480417794,48.067708322126144],[-1.501321967677549,48.071413824367895],[-1.5087728988086588,48.07542976041705],[-1.5088301893661162,48.07546063485286],[-1.512014970187475,48.077176839662805],[-1.520422393144748,48.08320434458786],[-1.527420648994287,48.08769408815542],[-1.536085512672062,48.091455977008025],[-1.5382540162806466,48.09209637601771],[-1.5382965642246864,48.092108940646],[-1.54272542275581,48.09341668502308],[-1.552726139324229,48.09539188123366],[-1.561395390313133,48.09740768303655],[-1.568093719751644,48.09982495684045],[-1.5750534372860254,48.10300894328119],[-1.5750898266594424,48.103025588844126],[-1.575308462179565,48.10312559857317],[-1.581764758141956,48.10620179156851],[-1.584996713242705,48.10774142747996],[-1.590012909381404,48.1097969950646],[-1.595097526946909,48.111000962723296],[-1.598633903163444,48.11158273744496],[-1.6036145561964643,48.11181100541249],[-1.603644735647295,48.11181238790156],[-1.603909312422925,48.111824507536255],[-1.605644279588416,48.111712400358755],[-1.607341647182445,48.111602697553444],[-1.608524927083005,48.11152620609442],[-1.611173702946256,48.11112160983617],[-1.613551773743279,48.110664254973024],[-1.615083132386248,48.1103587857681],[-1.6171459238795693,48.11008716432164]]}}]}