{"type": "FeatureCollection", "features": [{"type": "Feature", "properties": {"name": "Bordeaux", "station": "Bordeaux-St-Jean"}, "geometry": {"type": "Point", "coordinates": [-0.55597751649, 44.8259231021]}}, {"type": "Feature", "properties": {"name": "Dijon", "station": "Dijon-Ville"}, "geometry": {"type": "Point", "coordinates": [5.02714255942, 47.3230160581]}}, {"type": "Feature", "properties": {"name": "Lille", "station": "Lille-Flandres"}, "geometry": {"type": "Point", "coordinates": [3.071793, 50.636806]}}, {"type": "Feature", "properties": {"name": "Lyon", "station": "Lyon-Part-Dieu"}, "geometry": {"type": "Point", "coordinates": [4.86020080367, 45.7605405395]}}, {"type": "Feature", "properties": {"name": "Montpellier", "station": "Montpellier-St-Roch"}, "geometry": {"type": "Point", "coordinates": [3.88275750945, 43.6060910754]}}, {"type": "Feature", "properties": {"name": "Marseille", "station": "Marseille-St-Charles"}, "geometry": {"type": "Point", "coordinates": [5.38088156457, 43.3028821962]}}, {"type": "Feature", "properties": {"name": "Mulhouse", "station": "Mulhouse-Ville"}, "geometry": {"type": "Point", "coordinates": [7.3436780886, 47.7423575822]}}, {"type": "Feature", "properties": {"name": "Marne-la-Vallee (TGV)", "station": "Marne-la-Vall\u00e9e-Chessy"}, "geometry": {"type": "Point", "coordinates": [2.78267555456, 48.8699090644]}}, {"type": "Feature", "properties": {"name": "Nice", "station": "Nice-Ville"}, "geometry": {"type": "Point", "coordinates": [7.26174235752, 43.7047928814]}}, {"type": "Feature", "properties": {"name": "Nantes", "station": "Nantes"}, "geometry": {"type": "Point", "coordinates": [-1.54423027495, 47.2164535013]}}, {"type": "Feature", "properties": {"name": "Paris", "station": "Paris-Gare-de-Lyon"}, "geometry": {"type": "Point", "coordinates": [2.37564528552, 48.8443115243]}}, {"type": "Feature", "properties": {"name": "Rennes", "station": "Rennes"}, "geometry": {"type": "Point", "coordinates": [-1.67288128566, 48.1031158257]}}, {"type": "Feature", "properties": {"name": "Paris-CDG (TGV)", "station": "Roissy-A\u00e9roport-CDG 2-TGV"}, "geometry": {"type": "Point", "coordinates": [2.57122319705, 49.0039901179]}}, {"type": "Feature", "properties": {"name": "Strasbourg", "station": "Strasbourg-Ville"}, "geometry": {"type": "Point", "coordinates": [7.73159495317, 48.5828702552]}}, {"type": "Feature", "properties": {"name": "Toulouse", "station": "Toulouse-Matabiau"}, "geometry": {"type": "Point", "coordinates": [1.45435483966, 43.6108524467]}}, {"type": "Feature", "properties": {"name": "Tours", "station": "Tours"}, "geometry": {"type": "Point", "coordinates": [0.695556792672, 47.387920661]}}, {"type": "Feature", "properties": {"name": "Valence TGV", "station": "Valence-TGV"}, "geometry": {"type": "Point", "coordinates": [4.97854925737, 44.9927421533]}}]}