{"type":"FeatureCollection","features":[{"type":"Feature","properties":{"name":"Paris - Lyon (high-speed line)"},"geometry":{"type":"LineString","coordinates":[[2.3735,48.8443],[2.5845,48.6115],[2.6391,48.5902],[2.7435,48.5763],[2.8149,48.5249],[2.9238,48.4266],[3.0051,48.38],[3.1418,48.3669],[3.2296,48.3228],[3.2635,48.2928],[3.3421,48.1849],[3.482,48.0974],[3.5532,48.0743],[3.6826,47.979],[3.821,47.9238],[3.8826,47.8652],[3.9612,47.8321],[4.0226,47.7749],[4.1311,47.5945],[4.1396,47.5059],[4.2088,47.4335],[4.267,47.3174],[4.2764,47.2781],[4.3642,47.1049],[4.3608,47.0412],[4.3807,47.0237],[4.4466,47.0031],[4.4838,46.9697],[4.5015,46.7582],[4.5309,46.7098],[4.5755,46.6714],[4.6421,46.5394],[4.6745,46.4423],[4.658,46.4077],[4.6603,46.3917],[4.7849,46.2763],[4.8373,46.2544],[4.8554,46.2346],[4.8425,46.1132],[4.8915,45.8345],[4.87,45.816],[4.8843,45.8048],[4.8602,45.7889],[4.8597,45.7605]]}}]}