{"type":"FeatureCollection","features":[{"type":"Feature","properties":{"name":"Paris - Lille"},"geometry":{"type":"LineString","coordinates":[[2.3553,48.8809],[2.4269,49.0007],[2.6048,49.0757],[2.6978,49.1],[2.7482,49.1541],[2.7524,49.2137],[2.7327,49.2775],[2.7043,49.3269],[2.6913,49.427],[2.7182,49.5229],[2.7537,49.6046],[2.771,49.677],[2.7697,49.713],[2.8274,49.8335],[2.8539,49.9578],[2.8743,49.9978],[2.8724,50.1788],[2.8534,50.2509],[2.9016,50.3222],[2.9747,50.3787],[2.9845,50.4166],[2.9702,50.4561],[3.0013,50.5196],[3.0301,50.5371],[3.1184,50.5574],[3.0755,50.6392]]}},{"type":"Feature","properties":{"name":"Paris - Bordeaux"},"geometry":{"type":"LineString","coordinates":[[2.3212,48.8412],[2.295,48.8197],[2.3028,48.8063],[2.2871,48.7823],[2.2834,48.7539],[2.239,48.6886],[2.1238,48.615],[1.9304,48.551],[1.8911,48.4929],[1.8073,48.4597],[1.7718,48.4358],[1.6396,48.291],[1.5778,48.2566],[1.3142,48.1854],[1.2269,48.1506],[1.1596,48.1025],[1.0931,48.0766],[1.0687,48.0548],[1.045,48.006],[1.0579,47.9458],[1.0532,47.8914],[0.9966,47.7625],[1.0005,47.6232],[0.9605,47.5268],[0.9165,47.467],[0.8053,47.4007],[0.7905,47.3862],[0.7889,47.3824],[0.7881,47.379],[0.7879,47.3766],[0.788,47.3745],[0.788,47.3737],[0.7878,47.3684],[0.7877,47.3674],[0.7873,47.3659],[0.7868,47.3642],[0.786,47.3621],[0.7852,47.3603],[0.7838,47.3581],[0.7822,47.356],[0.7784,47.3522],[0.7765,47.3508],[0.7737,47.3489],[0.7711,47.3474],[0.7691,47.3464],[0.767,47.3455],[0.7634,47.3441],[0.7626,47.3438],[0.7596,47.3427],[0.7569,47.3414],[0.7542,47.3399],[0.7529,47.339],[0.7513,47.3379],[0.7504,47.3372],[0.7874,47.3666],[0.7876,47.3683],[0.7879,47.3708],[0.7883,47.3782],[0.7889,47.3817],[0.7917,47.3869],[0.8416,47.4038],[0.7775,47.3515],[0.7721,47.3479],[0.7706,47.3472],[0.7709,47.3473],[0.7641,47.3444],[0.7566,47.3413],[0.7537,47.3396],[0.7509,47.3377],[0.6849,47.288],[0.6674,47.2579],[0.656,47.1991],[0.6804,47.1419],[0.6757,47.1097],[0.5824,47.0423],[0.5484,46.9981],[0.4721,46.9533],[0.4345,46.9072],[0.3902,46.8389],[0.393,46.7429],[0.3599,46.6855],[0.3465,46.6345],[0.2457,46.5337],[0.213,46.4748],[0.1956,46.3974],[0.1444,46.3254],[0.1344,46.2902],[0.1419,46.2352],[0.1251,46.0927],[0.1282,45.8977],[0.091,45.8031],[0.0565,45.7565],[0.075,45.6733],[0.0506,45.4835],[-0.0173,45.3913],[-0.0324,45.3325],[-0.053,45.309],[-0.1222,45.2622],[-0.1684,45.2092],[-0.2633,45.1733],[-0.3557,45.1106],[-0.414,45.0305],[-0.4359,44.9681],[-0.4709,44.9366],[-0.5027,44.9271],[-0.556,44.8259]]}},{"type":"Feature","properties":{"name":"Paris - Strasbourg"},"geometry":{"type":"LineString","coordinates":[[2.359,48.8768],[2.6557,48.8771],[2.6708,48.8861],[2.7152,48.9542],[2.7653,48.9867],[3.0913,49.0556],[3.2472,49.0446],[3.309,49.0496],[3.4575,49.1019],[3.6683,49.1543],[3.7354,49.194],[3.8317,49.2305],[3.9084,49.242],[4.0329,49.2012],[4.1479,49.1806],[4.2788,49.0997],[4.3827,49.0635],[4.505,49.0358],[4.9958,49.0108],[5.1028,48.9917],[5.3582,48.9706],[5.4414,48.9725],[5.6001,48.9505],[5.7468,48.9725],[5.8973,48.9608],[5.9762,48.9728],[6.1128,48.941],[6.3593,48.9652],[6.5467,48.9425],[6.6266,48.9099],[6.7115,48.8981],[6.7694,48.8767],[6.9894,48.7683],[7.0854,48.7638],[7.2378,48.7793],[7.4498,48.775],[7.5308,48.7211],[7.7082,48.6884],[7.7347,48.585]]}},{"type":"Feature","properties":{"name":"Paris - Marseille"},"geometry":{"type":"LineString","coordinates":[[2.3735,48.8443],[2.5845,48.6115],[2.6391,48.5902],[2.7435,48.5763],[2.8149,48.5249],[2.9238,48.4266],[3.0051,48.38],[3.1418,48.3669],[3.2296,48.3228],[3.2635,48.2928],[3.3421,48.1849],[3.482,48.0974],[3.5532,48.0743],[3.6826,47.979],[3.8175,47.9259],[3.8826,47.8652],[3.9687,47.8261],[4.0254,47.7711],[4.1311,47.5945],[4.1383,47.5084],[4.2107,47.4305],[4.3627,47.109],[4.3608,47.0412],[4.3807,47.0237],[4.4466,47.0031],[4.4827,46.9719],[4.5015,46.7582],[4.5309,46.7098],[4.5755,46.6714],[4.6421,46.5394],[4.6745,46.4423],[4.658,46.4077],[4.6603,46.3917],[4.7849,46.2763],[4.8373,46.2544],[4.856,46.2333],[4.8425,46.1132],[4.8806,45.8822],[4.9144,45.8586],[4.9973,45.8546],[5.0728,45.7996],[5.0832,45.7655],[5.0672,45.6735],[5.1071,45.5805],[5.0999,45.5524],[5.0716,45.5255],[5.0048,45.3974],[5.002,45.3488],[4.9173,45.1902],[4.9279,45.1341],[5.0023,44.9289],[5.0019,44.7631],[4.833,44.5554],[4.7859,44.5125],[4.7424,44.4208],[4.7343,44.3816],[4.6989,44.3356],[4.6941,44.2286],[4.7175,44.1824],[4.7636,44.1375],[4.775,44.1095],[4.7362,44.002],[4.7364,43.9754],[4.7478,43.9441],[4.7656,43.9298],[4.8626,43.9117],[4.974,43.8719],[5.0649,43.7811],[5.1283,43.7483],[5.1877,43.6983],[5.2189,43.6633],[5.2492,43.6082],[5.3305,43.5471],[5.3327,43.528],[5.3109,43.4729],[5.3349,43.4137],[5.3373,43.3698],[5.3803,43.3027]]}}]}