{"type":"FeatureCollection","features":[{"type":"Feature","properties":{"name":"Ile de la Cite (approx.)"},"geometry":{"type":"Polygon","coordinates":[[[2.3396,48.8577],[2.342,48.8581],[2.3455,48.8574],[2.3482,48.8566],[2.351,48.8557],[2.3526,48.8542],[2.3535,48.8526],[2.3521,48.8519],[2.3495,48.8524],[2.347,48.853],[2.3445,48.8541],[2.3424,48.8553],[2.3405,48.8567],[2.3396,48.8577]]]}},{"type":"Feature","properties":{"name":"Ile Saint-Louis (approx.)"},"geometry":{"type":"Polygon","coordinates":[[[2.3543,48.8526],[2.357,48.8531],[2.3596,48.8522],[2.3613,48.8508],[2.3601,48.85],[2.3576,48.8505],[2.3551,48.8515],[2.3543,48.8526]]]}}]}