{"type":"FeatureCollection","features":[{"type":"Feature","properties":{"name":"La Seine (Paris)"},"geometry":{"type":"LineString","coordinates":[[2.39026,48.82573],[2.38706,48.82798],[2.38516,48.82962],[2.37893,48.83449],[2.37708,48.83601],[2.37309,48.83967],[2.36249,48.84762],[2.35982,48.84918],[2.35855,48.84971],[2.35371,48.85122],[2.35252,48.85139],[2.34998,48.85202],[2.34695,48.85329],[2.34459,48.85405],[2.34286,48.85486],[2.34086,48.85656],[2.33755,48.85839],[2.33291,48.85935],[2.32991,48.86013],[2.3261,48.86148],[2.31854,48.86378],[2.30159,48.86347],[2.30007,48.86338],[2.29895,48.86322],[2.29705,48.86273],[2.29601,48.86237],[2.29432,48.86159],[2.29178,48.85978],[2.28913,48.85766],[2.28859,48.85694],[2.28811,48.85612],[2.27916,48.84977],[2.27571,48.84696],[2.26978,48.84087],[2.26759,48.83852],[2.26296,48.8339]]}}]}