{"type":"FeatureCollection","features":[{"type":"Feature","properties":{"name":"La Seine"},"geometry":{"type":"LineString","coordinates":[[4.71266,47.51264],[4.70411,47.52696],[4.70086,47.54096],[4.70769,47.57791],[4.70452,47.58531],[4.69036,47.59968],[4.68531,47.64435],[4.67359,47.67858],[4.65301,47.69119],[4.62306,47.69762],[4.61036,47.70332],[4.59962,47.74103],[4.58522,47.76301],[4.5652,47.78059],[4.54314,47.79357],[4.54656,47.80585],[4.56365,47.8345],[4.57049,47.85261],[4.57618,47.86258],[4.58473,47.86925],[4.56617,47.86892],[4.55299,47.87543],[4.54371,47.88577],[4.53688,47.89659],[4.5429,47.89944],[4.55055,47.91022],[4.53606,47.91995],[4.50587,47.95808],[4.50554,47.96686],[4.49171,47.98578],[4.45354,48.02705],[4.39259,48.06204],[4.37867,48.09211],[4.37591,48.12307],[4.34466,48.13618],[4.32447,48.14851],[4.27564,48.14985],[4.18279,48.21259],[4.1596,48.21186],[4.14503,48.23908],[4.11183,48.27521],[4.08448,48.3249],[4.06707,48.33539],[4.04339,48.34288],[4.0053,48.37576],[3.97731,48.39191],[3.94044,48.44465],[3.91326,48.47236],[3.90374,48.48713],[3.90577,48.49929],[3.87281,48.52167],[3.83107,48.52875],[3.78728,48.53132],[3.74806,48.54023],[3.73097,48.56074],[3.71599,48.56867],[3.71184,48.56208],[3.70118,48.55577],[3.65504,48.54877],[3.63567,48.54129],[3.60817,48.52302],[3.55006,48.5198],[3.53126,48.52631],[3.52483,48.51215],[3.50489,48.50141],[3.46754,48.49246],[3.4402,48.49246],[3.41912,48.4726],[3.39601,48.46756],[3.39235,48.45832],[3.38494,48.45832],[3.37078,48.46585],[3.35027,48.4669],[3.33155,48.46113],[3.31463,48.43932],[3.29387,48.43171],[3.25465,48.42414],[3.18727,48.43574],[3.15447,48.41804],[3.09693,48.39684],[3.07472,48.39562],[3.01222,48.40367],[2.86305,48.38162],[2.82008,48.40367],[2.79973,48.39684],[2.79591,48.39985],[2.79656,48.41734],[2.75587,48.41828],[2.74749,48.42414],[2.74578,48.43708],[2.768,48.46516],[2.76173,48.484],[2.73927,48.48774],[2.71087,48.48709],[2.6867,48.49246],[2.67799,48.50214],[2.67742,48.52289],[2.6718,48.534],[2.66033,48.54035],[2.64967,48.53766],[2.63136,48.52664],[2.60499,48.52436],[2.58302,48.534],[2.53517,48.54707],[2.53517,48.55451],[2.54835,48.56106],[2.54412,48.56672],[2.51539,48.57502],[2.49171,48.57587],[2.48854,48.58283],[2.48805,48.60541],[2.47576,48.62946],[2.44728,48.65229],[2.39186,48.68488],[2.44093,48.73151],[2.44313,48.74295],[2.42205,48.7637],[2.41822,48.79674],[2.39088,48.83385],[2.35882,48.85541],[2.32252,48.86681],[2.28883,48.86237],[2.25481,48.83849],[2.23536,48.83381],[2.22682,48.85281],[2.23317,48.86909],[2.24846,48.88626],[2.28199,48.91083],[2.3191,48.92345],[2.32732,48.93073],[2.32985,48.94831],[2.31886,48.95812],[2.29469,48.95673],[2.25465,48.94489],[2.21388,48.92076],[2.18377,48.91291],[2.16285,48.89049],[2.15162,48.88288],[2.12493,48.88618],[2.12175,48.91071],[2.13624,48.93854],[2.16651,48.95413],[2.17701,48.96784],[2.17897,48.97565],[2.17742,48.98497],[2.17311,48.98859],[2.14527,48.99718],[2.09327,49.00019],[2.07276,48.99518],[2.06096,48.98298],[2.04176,48.95177],[2.02442,48.94282],[2.00831,48.94664],[2.00026,48.95983],[2.00774,48.97907],[1.99,49.00141],[1.97796,49.00955],[1.95989,49.01386],[1.94109,49.01362],[1.81389,48.98127],[1.76466,48.97907],[1.7339,48.99006],[1.71917,49.00011],[1.71282,49.01008],[1.70403,49.01354],[1.64788,49.01386],[1.61931,49.02021],[1.63689,49.03551],[1.69915,49.06904],[1.67473,49.07636],[1.65349,49.07819],[1.63307,49.07359],[1.57757,49.04283],[1.56202,49.04112],[1.54705,49.04641],[1.51385,49.07746],[1.50734,49.09577],[1.47942,49.10261],[1.45704,49.12617],[1.43897,49.133],[1.41863,49.15717],[1.38714,49.17426],[1.38445,49.17829],[1.35882,49.1833],[1.34645,49.19754],[1.3506,49.21243],[1.3899,49.22643],[1.38966,49.24116],[1.3755,49.25344],[1.34978,49.25344],[1.29558,49.21804],[1.27858,49.21247],[1.26824,49.21357],[1.23284,49.2235],[1.23528,49.23286],[1.26124,49.26582],[1.25872,49.30048],[1.25392,49.3061],[1.08855,49.31464],[1.03468,49.29739],[1.00628,49.29454],[0.99342,49.30805],[1.00335,49.3194],[1.05275,49.33344],[1.09246,49.33686],[1.10857,49.34288],[1.11931,49.35533],[1.12379,49.37629],[1.11476,49.41193],[1.08977,49.44001],[1.05616,49.44998],[1.02141,49.43093],[1.00066,49.37202],[0.99,49.36266],[0.95232,49.35623],[0.93303,49.35749],[0.91773,49.37014],[0.91358,49.38874],[0.92766,49.42744],[0.93206,49.44859],[0.92913,49.47285],[0.92009,49.48615],[0.90504,49.49006],[0.87395,49.48359],[0.86085,49.47586],[0.85621,49.46568],[0.85719,49.45844],[0.86663,49.43093],[0.87233,49.4256],[0.86793,49.41413],[0.851,49.3944],[0.83928,49.39903],[0.81153,49.42003],[0.80901,49.42621],[0.80852,49.43834],[0.82488,49.46735],[0.79998,49.48408],[0.78028,49.48888],[0.77434,49.51349],[0.7597,49.52208],[0.73992,49.52607],[0.69549,49.52717],[0.68116,49.5196],[0.65838,49.46568],[0.64763,49.45307],[0.6338,49.44461],[0.6159,49.43989],[0.59246,49.43834],[0.57293,49.44404],[0.54021,49.47317],[0.52044,49.48615],[0.50807,49.49205],[0.49317,49.4936]]}},{"type":"Feature","properties":{"name":"La Marne"},"geometry":{"type":"LineString","coordinates":[[5.40773,47.87722],[5.38746,47.8773],[5.36378,47.88264],[5.32342,47.90278],[5.29908,47.92499],[5.26271,48.00446],[5.2422,48.02717],[5.19288,48.05781],[5.17921,48.07185],[5.15691,48.1048],[5.15113,48.1365],[5.15992,48.18224],[5.15594,48.20429],[5.13941,48.24091],[5.13941,48.26508],[5.14772,48.2934],[5.14479,48.30695],[5.12835,48.31619],[5.13722,48.3216],[5.14625,48.33356],[5.15992,48.36412],[5.16334,48.39163],[5.15301,48.43732],[5.16212,48.45641],[5.13323,48.48123],[5.11329,48.51134],[5.05974,48.56269],[5.04225,48.58873],[5.04339,48.60965],[5.03631,48.61335],[5.0158,48.6114],[4.97063,48.62893],[4.90064,48.63129],[4.83741,48.6446],[4.79518,48.64582],[4.71144,48.63862],[4.66896,48.64692],[4.64479,48.65839],[4.58424,48.70295],[4.57423,48.74636],[4.56007,48.76606],[4.53321,48.78901],[4.51246,48.8284],[4.4734,48.86164],[4.44117,48.87018],[4.43377,48.87519],[4.41082,48.90375],[4.3589,48.9407],[4.3401,48.96959],[4.32984,48.97785],[4.31178,48.98505],[4.24903,48.9997],[4.16765,49.03937],[4.13665,49.04527],[4.03395,49.0467],[4.01971,49.04938],[4.00506,49.06916],[3.99488,49.0727],[3.95965,49.07579],[3.89454,49.08857],[3.80616,49.08263],[3.75685,49.09028],[3.5407,49.08889],[3.51384,49.08112],[3.46363,49.05549],[3.40325,49.04499],[3.38917,49.03498],[3.38014,49.01557],[3.3462,48.9958],[3.32976,48.9901],[3.26344,48.97785],[3.23219,48.98041],[3.19866,48.99213],[3.18605,48.99323],[3.17506,48.98859],[3.14357,48.96609],[3.12526,48.95885],[3.10572,48.95535],[3.03834,48.95641],[3.01384,48.96101],[3.00392,48.96992],[3.01531,48.97724],[3.03533,48.98115],[3.04729,48.98969],[3.03468,49.01093],[3.02442,49.01647],[3.00335,48.99909],[2.95257,49.00397],[2.94012,48.99628],[2.93084,48.98383],[2.94353,48.97553],[2.94361,48.96345],[2.92864,48.94636],[2.90862,48.94379],[2.87281,48.94599],[2.86476,48.93736],[2.85231,48.91222],[2.84449,48.90563],[2.82936,48.90644],[2.82049,48.91486],[2.80852,48.93826],[2.79591,48.94331],[2.72169,48.92036],[2.72356,48.91486],[2.73951,48.90571],[2.768,48.89895],[2.75652,48.88854],[2.73528,48.88056],[2.63714,48.87263],[2.563,48.87893],[2.54558,48.87356],[2.5254,48.84504],[2.51393,48.83662],[2.48235,48.82921],[2.48259,48.82229],[2.52003,48.8072],[2.52003,48.79552],[2.50856,48.78689],[2.49439,48.78885],[2.45672,48.81399],[2.44158,48.8179],[2.40919,48.81611]]}}]}