{"type":"FeatureCollection","features":[{"type":"Feature","properties":{"name":"\u00cele-de-France"},"geometry":{"type":"Polygon","coordinates":[[[2.59052,49.07965],[2.63327,49.10838],[2.64124,49.09909],[2.67739,49.08829],[2.69781,49.0644],[2.72436,49.08046],[2.73501,49.06045],[2.77793,49.07023],[2.78708,49.0755],[2.76834,49.08326],[2.78887,49.08287],[2.78399,49.08864],[2.80925,49.09754],[2.82954,49.08383],[2.84495,49.08488],[2.85465,49.07018],[2.89495,49.07706],[2.90151,49.08537],[2.94059,49.07713],[2.94583,49.08808],[2.96873,49.09146],[2.97535,49.0742],[2.98689,49.07107],[2.99124,49.08401],[3.00852,49.09151],[3.06501,49.08515],[3.05602,49.10048],[3.06969,49.11752],[3.13817,49.10713],[3.16523,49.09965],[3.15358,49.08328],[3.19075,49.05104],[3.17692,49.03075],[3.16103,49.02423],[3.1674,49.0124],[3.19754,49.00849],[3.20932,48.99379],[3.22918,48.98842],[3.23122,48.97675],[3.24935,48.97436],[3.26487,48.93915],[3.30475,48.94876],[3.31308,48.92122],[3.3303,48.90871],[3.36831,48.92766],[3.3765,48.90968],[3.36897,48.89368],[3.38369,48.88891],[3.38143,48.87157],[3.40586,48.87588],[3.40421,48.86398],[3.42399,48.86738],[3.44563,48.86035],[3.45223,48.85629],[3.44536,48.84323],[3.46071,48.83944],[3.47046,48.851],[3.48519,48.85191],[3.49131,48.83467],[3.4872,48.81519],[3.47038,48.82089],[3.44815,48.81115],[3.41661,48.81783],[3.40417,48.80927],[3.42304,48.80075],[3.44212,48.80358],[3.44395,48.79139],[3.44186,48.78241],[3.42945,48.77943],[3.40892,48.7839],[3.39583,48.75925],[3.4091,48.7523],[3.42852,48.75839],[3.44407,48.73663],[3.46973,48.73787],[3.4643,48.70738],[3.47778,48.69792],[3.47168,48.68567],[3.44755,48.67725],[3.44061,48.66365],[3.46043,48.65301],[3.45109,48.63465],[3.49288,48.64762],[3.53324,48.64651],[3.51907,48.63347],[3.53798,48.63162],[3.55851,48.61696],[3.50321,48.60456],[3.51586,48.58978],[3.49318,48.59025],[3.46552,48.57049],[3.48589,48.54727],[3.48175,48.54145],[3.45695,48.52963],[3.41424,48.53347],[3.4054,48.52801],[3.4351,48.49602],[3.43464,48.49025],[3.38336,48.47944],[3.40648,48.45245],[3.39167,48.42325],[3.41183,48.42131],[3.4025,48.41517],[3.4221,48.41619],[3.41479,48.39027],[3.37791,48.39911],[3.36722,48.39432],[3.36516,48.37228],[3.35097,48.37863],[3.33547,48.37018],[3.30515,48.37287],[3.28282,48.38157],[3.25438,48.36502],[3.22372,48.3704],[3.20034,48.36368],[3.17181,48.37768],[3.14657,48.36565],[3.13987,48.3726],[3.11721,48.36662],[3.10342,48.34951],[3.09888,48.35782],[3.04952,48.36012],[3.03714,48.34257],[3.04358,48.33044],[3.01478,48.30622],[3.02744,48.30286],[3.01874,48.29476],[3.02977,48.28584],[3.02496,48.27601],[3.04547,48.27073],[3.04757,48.2497],[3.03146,48.24888],[3.00462,48.20677],[2.97305,48.20555],[2.97131,48.19477],[2.93695,48.18303],[2.93631,48.16339],[2.86803,48.15643],[2.82088,48.12966],[2.80122,48.13145],[2.79791,48.15116],[2.81142,48.16376],[2.79526,48.16908],[2.75517,48.16009],[2.73641,48.16631],[2.7552,48.14565],[2.72046,48.13691],[2.70532,48.12303],[2.66475,48.12054],[2.63967,48.13895],[2.57482,48.13127],[2.57056,48.14082],[2.55827,48.14161],[2.53751,48.14034],[2.52187,48.12512],[2.47601,48.12964],[2.44431,48.12423],[2.44426,48.13147],[2.47465,48.14883],[2.48324,48.16452],[2.50633,48.15644],[2.51653,48.16624],[2.50728,48.17968],[2.51814,48.18991],[2.51297,48.19298],[2.52313,48.19489],[2.51412,48.21438],[2.51833,48.22759],[2.50689,48.22599],[2.50619,48.23854],[2.48411,48.23905],[2.46909,48.25527],[2.45016,48.25004],[2.42352,48.26037],[2.4177,48.27885],[2.42332,48.29476],[2.40266,48.32072],[2.35823,48.30849],[2.32755,48.33297],[2.31718,48.33157],[2.29569,48.30808],[2.2669,48.31468],[2.24516,48.2984],[2.2493,48.31629],[2.23805,48.31637],[2.24617,48.33126],[2.22757,48.32963],[2.20709,48.34494],[2.1879,48.33237],[2.18069,48.31168],[2.1523,48.31591],[2.16375,48.29843],[2.1106,48.29695],[2.11372,48.30725],[2.10617,48.30763],[2.08534,48.29401],[2.05271,48.29547],[2.04126,48.28438],[1.97529,48.2872],[1.98237,48.29545],[1.9652,48.29516],[1.95923,48.30869],[1.97909,48.31266],[1.9745,48.32317],[1.98234,48.32832],[1.9687,48.34131],[1.97536,48.34479],[1.97331,48.35581],[1.98903,48.36358],[1.97801,48.36886],[1.98031,48.37826],[1.96672,48.38042],[1.97824,48.402],[1.92837,48.40605],[1.92762,48.41634],[1.93961,48.41958],[1.93633,48.43481],[1.94289,48.44109],[1.93296,48.44204],[1.92945,48.45696],[1.90426,48.43861],[1.87169,48.43978],[1.84492,48.4461],[1.83659,48.46709],[1.80145,48.46604],[1.80321,48.47257],[1.79156,48.48124],[1.79634,48.48419],[1.78564,48.49008],[1.78905,48.50016],[1.77684,48.50931],[1.77575,48.52771],[1.78725,48.55374],[1.76796,48.55896],[1.7574,48.57496],[1.70925,48.57802],[1.70199,48.585],[1.71877,48.60574],[1.71466,48.61468],[1.6871,48.61117],[1.68491,48.61983],[1.66622,48.61371],[1.63832,48.6451],[1.6432,48.65129],[1.62122,48.64958],[1.60312,48.66242],[1.61177,48.68947],[1.57685,48.70258],[1.59171,48.70772],[1.5876,48.71062],[1.62654,48.74805],[1.60834,48.76075],[1.58146,48.76552],[1.58759,48.7736],[1.57663,48.78302],[1.57725,48.8052],[1.5912,48.81487],[1.57898,48.82944],[1.59785,48.83906],[1.57727,48.84436],[1.58404,48.86051],[1.54623,48.87243],[1.56374,48.89063],[1.53917,48.90489],[1.54525,48.91299],[1.5384,48.92251],[1.50734,48.9276],[1.51201,48.93447],[1.50152,48.94105],[1.511,48.95357],[1.50107,48.95268],[1.4919,48.96441],[1.51839,48.97835],[1.5079,48.98376],[1.47089,48.97482],[1.46093,48.98644],[1.47153,48.9897],[1.48003,49.00753],[1.44645,49.04635],[1.46173,49.06414],[1.48029,49.05201],[1.5033,49.0591],[1.51431,49.07937],[1.50792,49.08539],[1.51593,49.08086],[1.52135,49.06835],[1.55814,49.06916],[1.60508,49.08517],[1.6088,49.07789],[1.62332,49.08608],[1.61858,49.09698],[1.65768,49.13188],[1.65306,49.14463],[1.6702,49.16946],[1.67491,49.21148],[1.69863,49.22452],[1.7094,49.24131],[1.71211,49.23302],[1.74045,49.22344],[1.73369,49.21096],[1.71555,49.20266],[1.73744,49.1946],[1.74083,49.18073],[1.75551,49.17459],[1.80258,49.18493],[1.81169,49.17361],[1.8343,49.17564],[1.83647,49.16454],[1.87677,49.17531],[1.88257,49.16249],[1.92451,49.17352],[1.94982,49.17035],[1.97344,49.1839],[2.00184,49.17594],[2.08089,49.21045],[2.09117,49.20854],[2.08946,49.19366],[2.09771,49.18917],[2.1281,49.19341],[2.13695,49.17905],[2.14705,49.1881],[2.16457,49.17967],[2.15775,49.1726],[2.16879,49.16395],[2.18225,49.17038],[2.1761,49.17603],[2.21865,49.18068],[2.23541,49.16703],[2.21656,49.15469],[2.22958,49.15129],[2.28641,49.15992],[2.2888,49.17071],[2.31093,49.18641],[2.32178,49.18443],[2.3593,49.14735],[2.37637,49.15904],[2.39129,49.14935],[2.4409,49.1458],[2.4354,49.13394],[2.45823,49.14114],[2.47158,49.13543],[2.50326,49.11758],[2.48993,49.10636],[2.53106,49.0996],[2.53299,49.11938],[2.54716,49.11621],[2.55702,49.12382],[2.55153,49.1126],[2.55817,49.09839],[2.59052,49.07965]]]}},{"type":"Feature","properties":{"name":"Hauts-de-France"},"geometry":{"type":"Polygon","coordinates":[[[4.1409,49.97876],[4.19711,49.96772],[4.19632,49.9553],[4.23316,49.95775],[4.21696,49.91439],[4.2557,49.90321],[4.25276,49.86965],[4.24876,49.85675],[4.22359,49.83411],[4.21427,49.80611],[4.22668,49.79303],[4.20592,49.77819],[4.24283,49.76714],[4.2496,49.75711],[4.22971,49.74661],[4.2259,49.73285],[4.23191,49.73045],[4.19145,49.71601],[4.18519,49.69888],[4.14418,49.68854],[4.14859,49.67832],[4.12702,49.67792],[4.12555,49.65107],[4.11575,49.63292],[4.09916,49.62835],[4.04108,49.63827],[4.03791,49.62292],[4.02529,49.62253],[4.04729,49.59953],[4.06648,49.59443],[4.05793,49.59155],[4.05945,49.57614],[4.07657,49.57113],[4.04876,49.54527],[4.0758,49.54146],[4.07584,49.51835],[4.06215,49.52272],[4.05756,49.50818],[4.04071,49.50853],[4.04237,49.46869],[4.06791,49.44488],[4.05033,49.44761],[4.03766,49.43826],[4.0423,49.41665],[4.05027,49.41227],[4.03991,49.3974],[4.0355,49.3599],[4.01273,49.3583],[3.99494,49.3779],[3.96131,49.37734],[3.92523,49.40758],[3.89574,49.39278],[3.88118,49.40529],[3.82238,49.40238],[3.85985,49.38615],[3.8561,49.36424],[3.84789,49.36457],[3.85874,49.35412],[3.85284,49.34497],[3.82406,49.35735],[3.77753,49.35582],[3.74109,49.34759],[3.74222,49.33651],[3.66916,49.32475],[3.64394,49.31272],[3.63834,49.30136],[3.65899,49.28682],[3.6516,49.27836],[3.66149,49.26996],[3.65387,49.25423],[3.66069,49.26008],[3.67815,49.23533],[3.66357,49.22187],[3.65148,49.22156],[3.65283,49.21543],[3.68179,49.20534],[3.67611,49.20095],[3.68158,49.19747],[3.69861,49.2055],[3.70487,49.19859],[3.69731,49.18843],[3.71123,49.17819],[3.75115,49.1777],[3.74877,49.15708],[3.70274,49.14145],[3.68726,49.15418],[3.62225,49.1511],[3.62057,49.13925],[3.60002,49.12069],[3.60309,49.11467],[3.6118,49.11809],[3.63847,49.07744],[3.60906,49.0731],[3.58771,49.05939],[3.5852,49.03887],[3.61571,49.03363],[3.65008,49.04282],[3.66354,49.03731],[3.67772,49.01397],[3.63989,49.00409],[3.62334,48.98268],[3.62121,48.96603],[3.59156,48.96037],[3.60255,48.94393],[3.57444,48.93902],[3.57645,48.92325],[3.56418,48.9113],[3.56002,48.91702],[3.52858,48.91214],[3.50191,48.87192],[3.48183,48.86594],[3.48519,48.85191],[3.47046,48.851],[3.46071,48.83944],[3.44536,48.84323],[3.45223,48.85629],[3.44563,48.86035],[3.42399,48.86738],[3.40421,48.86398],[3.40586,48.87588],[3.38143,48.87157],[3.38369,48.88891],[3.36897,48.89368],[3.3765,48.90968],[3.36831,48.92766],[3.3303,48.90871],[3.31308,48.92122],[3.30475,48.94876],[3.26487,48.93915],[3.24935,48.97436],[3.23122,48.97675],[3.22918,48.98842],[3.20932,48.99379],[3.19754,49.00849],[3.1674,49.0124],[3.16103,49.02423],[3.17692,49.03075],[3.19075,49.05104],[3.15358,49.08328],[3.16523,49.09965],[3.13817,49.10713],[3.06969,49.11752],[3.05602,49.10048],[3.06501,49.08515],[3.00852,49.09151],[2.99124,49.08401],[2.98689,49.07107],[2.97535,49.0742],[2.96873,49.09146],[2.94583,49.08808],[2.94059,49.07713],[2.90151,49.08537],[2.89495,49.07706],[2.85465,49.07018],[2.84495,49.08488],[2.82954,49.08383],[2.80925,49.09754],[2.78399,49.08864],[2.78887,49.08287],[2.76834,49.08326],[2.78708,49.0755],[2.77793,49.07023],[2.73501,49.06045],[2.72436,49.08046],[2.69781,49.0644],[2.67739,49.08829],[2.64124,49.09909],[2.63327,49.10838],[2.623,49.09559],[2.58302,49.08065],[2.57868,49.09195],[2.55817,49.09839],[2.55329,49.1246],[2.54716,49.11621],[2.53299,49.11938],[2.53106,49.0996],[2.48993,49.10636],[2.50326,49.11758],[2.47158,49.13543],[2.45823,49.14114],[2.4354,49.13394],[2.4409,49.1458],[2.39129,49.14935],[2.37637,49.15904],[2.3593,49.14735],[2.32178,49.18443],[2.31093,49.18641],[2.2888,49.17071],[2.28641,49.15992],[2.22958,49.15129],[2.21656,49.15469],[2.23541,49.16703],[2.21865,49.18068],[2.1761,49.17603],[2.18225,49.17038],[2.16879,49.16395],[2.15775,49.1726],[2.16457,49.17967],[2.14705,49.1881],[2.13695,49.17905],[2.1281,49.19341],[2.09771,49.18917],[2.08946,49.19366],[2.09117,49.20854],[2.08089,49.21045],[2.00184,49.17594],[1.97344,49.1839],[1.94982,49.17035],[1.92451,49.17352],[1.88257,49.16249],[1.87677,49.17531],[1.83647,49.16454],[1.8343,49.17564],[1.81169,49.17361],[1.80258,49.18493],[1.75551,49.17459],[1.74083,49.18073],[1.73744,49.1946],[1.71477,49.20734],[1.73369,49.21096],[1.74045,49.22344],[1.71211,49.23302],[1.71264,49.24119],[1.69904,49.23487],[1.70694,49.2614],[1.75869,49.27236],[1.7669,49.25204],[1.79055,49.24657],[1.80266,49.27343],[1.79323,49.27433],[1.79754,49.28845],[1.77249,49.29109],[1.77528,49.30572],[1.76748,49.32048],[1.77424,49.33715],[1.75818,49.35622],[1.76096,49.36621],[1.72047,49.39398],[1.74038,49.40568],[1.71897,49.40345],[1.71394,49.40922],[1.72864,49.43606],[1.72484,49.44139],[1.77586,49.47133],[1.77225,49.48493],[1.78863,49.49014],[1.79022,49.50347],[1.75945,49.5114],[1.74523,49.48885],[1.73957,49.49965],[1.71639,49.50393],[1.74134,49.51899],[1.73561,49.52481],[1.7483,49.53845],[1.72348,49.5439],[1.72983,49.56129],[1.71401,49.57757],[1.69769,49.57221],[1.69952,49.58041],[1.69067,49.58],[1.72004,49.5816],[1.72162,49.58881],[1.70941,49.58671],[1.70846,49.5949],[1.69373,49.60107],[1.72161,49.62199],[1.69868,49.6439],[1.72157,49.65855],[1.72313,49.67254],[1.75218,49.68096],[1.75112,49.69439],[1.74009,49.70135],[1.70451,49.68093],[1.68958,49.69479],[1.71547,49.7086],[1.71277,49.73389],[1.72323,49.73008],[1.74546,49.73856],[1.73915,49.74905],[1.75029,49.76373],[1.76745,49.75666],[1.78464,49.76357],[1.77332,49.77696],[1.75794,49.7808],[1.73577,49.81031],[1.72567,49.84529],[1.71729,49.84884],[1.71284,49.88586],[1.69196,49.89685],[1.67817,49.91827],[1.60337,49.94308],[1.57277,49.97486],[1.52747,49.9951],[1.51635,50.01208],[1.45479,50.03778],[1.44917,50.04687],[1.45558,50.04434],[1.45915,50.0625],[1.44906,50.06889],[1.4236,50.07085],[1.40926,50.05707],[1.38065,50.06437],[1.45252,50.10834],[1.48278,50.17237],[1.52713,50.20788],[1.56474,50.21722],[1.55966,50.21079],[1.57424,50.19602],[1.5962,50.1855],[1.62741,50.19],[1.64428,50.18521],[1.64622,50.17757],[1.64679,50.18257],[1.67335,50.17468],[1.6838,50.18303],[1.66267,50.2136],[1.62329,50.21412],[1.5936,50.24429],[1.59223,50.25646],[1.55074,50.25929],[1.53843,50.27858],[1.55583,50.36132],[1.61297,50.36029],[1.62426,50.36629],[1.62668,50.36002],[1.64154,50.35215],[1.62523,50.37183],[1.58315,50.3762],[1.55566,50.39768],[1.58298,50.5346],[1.58855,50.53935],[1.59897,50.52692],[1.63729,50.50967],[1.65917,50.50778],[1.6265,50.52004],[1.62066,50.5337],[1.60863,50.5362],[1.57661,50.57223],[1.57623,50.64099],[1.56071,50.69968],[1.57325,50.71648],[1.5625,50.7244],[1.57476,50.7278],[1.57122,50.71969],[1.57436,50.71728],[1.58632,50.7313],[1.59082,50.72863],[1.58205,50.72354],[1.59686,50.7275],[1.60254,50.7216],[1.59805,50.72792],[1.59129,50.73049],[1.6056,50.7676],[1.60333,50.80435],[1.57787,50.85304],[1.58185,50.87104],[1.6421,50.87887],[1.71226,50.92941],[1.78072,50.95487],[1.84435,50.96759],[1.84838,50.96091],[1.85476,50.96324],[1.84889,50.96721],[1.86624,50.96962],[1.8527,50.97095],[1.88969,50.97231],[1.91578,50.98408],[2.04256,50.99709],[2.07774,51.00792],[2.10296,51.00604],[2.12206,50.99048],[2.1081,51.00416],[2.14456,51.02104],[2.15036,51.03433],[2.15299,51.01992],[2.16792,51.02206],[2.17966,51.00738],[2.17892,51.01601],[2.19025,51.01804],[2.17511,51.02327],[2.19364,51.02779],[2.19554,51.03562],[2.19125,51.04028],[2.18191,51.03992],[2.17142,51.04434],[2.19516,51.04029],[2.21401,51.03168],[2.34954,51.06059],[2.36944,51.0503],[2.39523,51.05033],[2.54554,51.089],[2.5629,51.06461],[2.57399,51.00352],[2.6069,50.99091],[2.61072,50.97356],[2.63269,50.94601],[2.59001,50.9191],[2.60795,50.91008],[2.60482,50.88608],[2.61195,50.86341],[2.59906,50.84875],[2.61541,50.84827],[2.63498,50.81276],[2.65762,50.81365],[2.66932,50.82246],[2.67882,50.81332],[2.7239,50.81012],[2.72582,50.79245],[2.76215,50.77076],[2.75698,50.7631],[2.76605,50.75452],[2.78336,50.75091],[2.78958,50.72626],[2.81949,50.7154],[2.84838,50.72292],[2.87017,50.70291],[2.88565,50.70661],[2.90607,50.69232],[2.90967,50.70272],[2.92993,50.7104],[2.93165,50.7282],[2.94521,50.73159],[2.93741,50.74277],[2.95048,50.75129],[2.97335,50.75031],[3.0147,50.77404],[3.03386,50.76974],[3.05691,50.78063],[3.08871,50.77337],[3.11092,50.79412],[3.12499,50.78644],[3.15079,50.79012],[3.19913,50.73473],[3.19123,50.72441],[3.20841,50.71866],[3.20511,50.71245],[3.24567,50.71317],[3.26117,50.70128],[3.26116,50.69139],[3.25371,50.68893],[3.26485,50.67612],[3.2413,50.66871],[3.24011,50.65856],[3.24937,50.64693],[3.24416,50.64054],[3.25902,50.63005],[3.2552,50.62258],[3.27947,50.59564],[3.27793,50.56432],[3.28537,50.56166],[3.27596,50.55854],[3.28874,50.52553],[3.32076,50.51871],[3.32886,50.50813],[3.36154,50.50384],[3.37622,50.49108],[3.43511,50.50966],[3.45008,50.50723],[3.45374,50.51924],[3.47439,50.53361],[3.51991,50.52332],[3.49632,50.49868],[3.50098,50.487],[3.56892,50.50096],[3.58534,50.49054],[3.60835,50.49673],[3.64365,50.46321],[3.66233,50.45617],[3.65934,50.44496],[3.66917,50.43865],[3.67484,50.40186],[3.67296,50.38789],[3.65715,50.36926],[3.66599,50.36379],[3.66464,50.34847],[3.67741,50.34028],[3.67481,50.33303],[3.69403,50.32148],[3.68541,50.3196],[3.71043,50.30317],[3.71966,50.30481],[3.70912,50.31897],[3.73056,50.31012],[3.73022,50.33004],[3.7474,50.35093],[3.80546,50.3557],[3.81546,50.34479],[3.82423,50.35344],[3.84741,50.3531],[3.87229,50.33794],[3.88762,50.34107],[3.88606,50.32706],[3.90005,50.32728],[3.9679,50.35037],[3.96583,50.34127],[3.97229,50.34766],[3.98595,50.34207],[4.02371,50.35889],[4.03953,50.34149],[4.07764,50.32101],[4.07889,50.30975],[4.09717,50.31321],[4.10974,50.30178],[4.11712,50.30405],[4.1252,50.28922],[4.12163,50.27768],[4.13666,50.2743],[4.13538,50.25719],[4.16761,50.2597],[4.1639,50.2715],[4.14956,50.27466],[4.16268,50.28892],[4.17667,50.28443],[4.17683,50.2757],[4.20796,50.273],[4.2207,50.2522],[4.18174,50.23156],[4.17165,50.21692],[4.15164,50.21346],[4.16077,50.19781],[4.1481,50.1734],[4.15581,50.17198],[4.15567,50.16425],[4.12693,50.13501],[4.15488,50.12842],[4.15751,50.13553],[4.19704,50.13531],[4.20342,50.12118],[4.19763,50.10702],[4.2064,50.10602],[4.20124,50.10076],[4.2249,50.08562],[4.23112,50.07127],[4.19398,50.04921],[4.16222,50.04898],[4.15222,50.03902],[4.13578,50.01341],[4.16313,49.99477],[4.1409,49.97876]]]}},{"type":"Feature","properties":{"name":"Normandie"},"geometry":{"type":"MultiPolygon","coordinates":[[[[-1.17754,49.36489],[-1.11554,49.3515],[-1.11788,49.36053],[-1.07267,49.38997],[-0.94723,49.39581],[-0.85117,49.36254],[-0.75529,49.34891],[-0.60348,49.33984],[-0.52871,49.34572],[-0.39661,49.333],[-0.30258,49.29844],[-0.22569,49.28182],[-0.08717,49.29791],[0.01061,49.33061],[0.12975,49.40299],[0.22358,49.42812],[0.34059,49.43432],[0.33932,49.44987],[0.27314,49.45341],[0.27204,49.44245],[0.26344,49.449],[0.12125,49.46319],[0.0907,49.48211],[0.09033,49.4992],[0.06655,49.51007],[0.07493,49.53633],[0.15201,49.64324],[0.16423,49.68646],[0.20599,49.71419],[0.33666,49.74677],[0.37011,49.76911],[0.42422,49.78427],[0.58353,49.85262],[0.69189,49.87129],[0.78218,49.87419],[0.92426,49.90523],[0.9593,49.91951],[1.02324,49.91623],[1.10726,49.93712],[1.20182,49.9713],[1.20561,49.98098],[1.22792,49.98554],[1.36958,50.06484],[1.40926,50.05707],[1.4236,50.07085],[1.44906,50.06889],[1.45915,50.0625],[1.45558,50.04434],[1.44917,50.04687],[1.45479,50.03778],[1.51635,50.01208],[1.52747,49.9951],[1.57277,49.97486],[1.60337,49.94308],[1.67817,49.91827],[1.69196,49.89685],[1.71284,49.88586],[1.71729,49.84884],[1.72567,49.84529],[1.73577,49.81031],[1.75794,49.7808],[1.77332,49.77696],[1.78464,49.76357],[1.76745,49.75666],[1.75029,49.76373],[1.73915,49.74905],[1.74546,49.73856],[1.72323,49.73008],[1.71277,49.73389],[1.71547,49.7086],[1.68958,49.69479],[1.71219,49.68121],[1.74354,49.70213],[1.75238,49.68258],[1.72313,49.67254],[1.72157,49.65855],[1.69868,49.6439],[1.72161,49.62199],[1.69373,49.60107],[1.70846,49.5949],[1.70941,49.58671],[1.72162,49.58881],[1.72004,49.5816],[1.69067,49.58],[1.69952,49.58041],[1.69769,49.57221],[1.71401,49.57757],[1.72983,49.56129],[1.72348,49.5439],[1.7483,49.53845],[1.73561,49.52481],[1.74134,49.51899],[1.71639,49.50393],[1.73957,49.49965],[1.74523,49.48885],[1.75945,49.5114],[1.79022,49.50347],[1.78863,49.49014],[1.77225,49.48493],[1.77586,49.47133],[1.72484,49.44139],[1.72864,49.43606],[1.71391,49.40657],[1.74038,49.40568],[1.72047,49.39398],[1.76096,49.36621],[1.75818,49.35622],[1.77424,49.33715],[1.76748,49.32048],[1.77528,49.30572],[1.77249,49.29109],[1.79754,49.28845],[1.79323,49.27433],[1.80266,49.27343],[1.79055,49.24657],[1.7669,49.25204],[1.75869,49.27236],[1.70917,49.26446],[1.69874,49.24673],[1.70407,49.22932],[1.67223,49.2062],[1.6702,49.16946],[1.65306,49.14463],[1.65768,49.13188],[1.62956,49.10995],[1.61754,49.09399],[1.62332,49.08608],[1.61328,49.08008],[1.60508,49.08517],[1.55814,49.06916],[1.52135,49.06835],[1.51593,49.08086],[1.50792,49.08539],[1.51431,49.07937],[1.5033,49.0591],[1.48029,49.05201],[1.46173,49.06414],[1.44728,49.05351],[1.45776,49.02629],[1.48003,49.00753],[1.47153,48.9897],[1.46093,48.98644],[1.47089,48.97482],[1.5079,48.98376],[1.51839,48.97835],[1.4919,48.96441],[1.50107,48.95268],[1.511,48.95357],[1.49869,48.93882],[1.46131,48.93756],[1.45977,48.92782],[1.44796,48.92464],[1.45932,48.91465],[1.46143,48.8996],[1.47128,48.89783],[1.46062,48.8723],[1.40432,48.86057],[1.36138,48.83364],[1.35635,48.81601],[1.37696,48.79177],[1.37479,48.78118],[1.35347,48.7792],[1.32753,48.7604],[1.29694,48.76823],[1.26049,48.75779],[1.24623,48.76959],[1.22261,48.76729],[1.23276,48.76336],[1.22305,48.75798],[1.18636,48.77301],[1.16298,48.76931],[1.14883,48.7774],[1.15116,48.78582],[1.1214,48.78919],[1.12533,48.7673],[1.11821,48.76603],[1.11454,48.74712],[1.08654,48.75724],[1.06968,48.74879],[1.06444,48.75939],[1.0339,48.73935],[1.03403,48.72846],[1.0206,48.73479],[0.99115,48.72572],[0.97829,48.73096],[0.94966,48.71461],[0.9212,48.70918],[0.89961,48.71053],[0.89057,48.7204],[0.87257,48.71323],[0.86387,48.68762],[0.82767,48.68072],[0.81225,48.66801],[0.80969,48.66244],[0.82518,48.64862],[0.8219,48.63607],[0.82996,48.63227],[0.81964,48.60987],[0.84705,48.60952],[0.85064,48.58263],[0.92571,48.55965],[0.93876,48.55056],[0.9251,48.53564],[0.96774,48.52388],[0.94155,48.49869],[0.9554,48.49265],[0.95629,48.48228],[0.93571,48.47555],[0.93898,48.46083],[0.95591,48.44441],[0.97642,48.43877],[0.9445,48.41729],[0.95,48.39941],[0.90903,48.37026],[0.90089,48.37384],[0.88371,48.35671],[0.87161,48.35971],[0.85196,48.34866],[0.83993,48.35272],[0.84238,48.34669],[0.82854,48.34246],[0.81221,48.34948],[0.79061,48.34271],[0.76887,48.32194],[0.75567,48.29982],[0.77835,48.30327],[0.80707,48.28973],[0.79644,48.28711],[0.78588,48.27114],[0.83048,48.21071],[0.80562,48.20535],[0.80879,48.19761],[0.7607,48.18021],[0.72364,48.19814],[0.71579,48.21467],[0.68629,48.24067],[0.68295,48.25488],[0.63977,48.26103],[0.6311,48.25258],[0.63848,48.23561],[0.63191,48.23462],[0.62361,48.24531],[0.53605,48.24967],[0.5329,48.26428],[0.51313,48.26688],[0.49459,48.28196],[0.5074,48.29494],[0.48995,48.30936],[0.4805,48.29859],[0.43133,48.30664],[0.42046,48.32111],[0.40622,48.31462],[0.39554,48.32047],[0.3826,48.33383],[0.38814,48.3497],[0.37386,48.38697],[0.37173,48.41045],[0.38244,48.4249],[0.35675,48.45774],[0.30072,48.48049],[0.26475,48.4847],[0.2491,48.47397],[0.21332,48.47358],[0.19049,48.46186],[0.17316,48.46522],[0.17114,48.44943],[0.14557,48.45731],[0.15779,48.44081],[0.11718,48.43603],[0.10014,48.41013],[0.07055,48.40909],[0.05414,48.39195],[0.06078,48.37962],[0.01531,48.38167],[-0.00243,48.39736],[-0.05069,48.37521],[-0.05796,48.38747],[-0.05135,48.45293],[-0.07053,48.45801],[-0.07301,48.45053],[-0.10586,48.44726],[-0.14688,48.45644],[-0.15601,48.49584],[-0.17209,48.50214],[-0.1725,48.51054],[-0.14538,48.52055],[-0.1446,48.52775],[-0.17945,48.54084],[-0.20808,48.56414],[-0.21733,48.55808],[-0.24264,48.56799],[-0.26265,48.54864],[-0.24131,48.53667],[-0.27453,48.51781],[-0.26818,48.51688],[-0.27155,48.50745],[-0.2854,48.50677],[-0.28808,48.51934],[-0.32024,48.52292],[-0.33586,48.5019],[-0.35582,48.49567],[-0.35315,48.48377],[-0.39335,48.50107],[-0.39514,48.5103],[-0.4238,48.50677],[-0.44722,48.51538],[-0.47013,48.51194],[-0.4782,48.50157],[-0.5097,48.50901],[-0.55172,48.47312],[-0.59533,48.47263],[-0.65107,48.44395],[-0.65572,48.47407],[-0.66624,48.48589],[-0.69177,48.46811],[-0.70207,48.46721],[-0.705,48.47559],[-0.71496,48.46915],[-0.7311,48.47282],[-0.73586,48.46112],[-0.7151,48.44895],[-0.76016,48.43616],[-0.77979,48.44607],[-0.77787,48.46541],[-0.79661,48.46625],[-0.81274,48.45492],[-0.81476,48.47205],[-0.83255,48.47938],[-0.84636,48.49952],[-0.90915,48.4967],[-0.92271,48.50332],[-0.92331,48.51345],[-0.9554,48.51729],[-0.97225,48.4946],[-1.004,48.48917],[-1.06044,48.51494],[-1.07277,48.50796],[-1.11632,48.52154],[-1.14708,48.5175],[-1.16991,48.5311],[-1.19286,48.52891],[-1.20689,48.54219],[-1.26233,48.54027],[-1.27225,48.53392],[-1.26957,48.52406],[-1.27976,48.50861],[-1.30068,48.49899],[-1.32633,48.49874],[-1.32894,48.48632],[-1.33936,48.49094],[-1.34939,48.4817],[-1.34635,48.47167],[-1.37987,48.45608],[-1.42795,48.46192],[-1.45026,48.4876],[-1.48995,48.48937],[-1.4952,48.50689],[-1.51778,48.52984],[-1.5159,48.53792],[-1.53449,48.55031],[-1.52666,48.56574],[-1.51892,48.56659],[-1.52775,48.57907],[-1.54299,48.58044],[-1.53722,48.59875],[-1.56607,48.61428],[-1.57109,48.62645],[-1.52813,48.62948],[-1.51865,48.62724],[-1.51274,48.61312],[-1.51094,48.61877],[-1.44869,48.62348],[-1.42493,48.64358],[-1.37404,48.64237],[-1.35175,48.63122],[-1.36384,48.64671],[-1.39961,48.65553],[-1.39842,48.66409],[-1.37599,48.68507],[-1.37611,48.69039],[-1.44577,48.65477],[-1.44929,48.67],[-1.50494,48.6874],[-1.52928,48.73012],[-1.55272,48.73243],[-1.57101,48.74422],[-1.56782,48.80264],[-1.57444,48.82168],[-1.59401,48.83474],[-1.61443,48.83422],[-1.58484,48.84893],[-1.56434,48.92158],[-1.55324,48.93421],[-1.56063,48.91333],[-1.55452,48.89391],[-1.54993,48.89636],[-1.54342,48.93103],[-1.56251,48.94528],[-1.56071,49.00148],[-1.55224,48.98602],[-1.54826,48.9902],[-1.55681,49.02665],[-1.53452,49.03406],[-1.50553,49.02037],[-1.54256,49.04132],[-1.56013,49.03671],[-1.57703,49.02001],[-1.57623,49.00041],[-1.59888,49.03737],[-1.59732,49.07294],[-1.60894,49.08277],[-1.60988,49.07391],[-1.60883,49.1056],[-1.59475,49.13193],[-1.58107,49.13167],[-1.59583,49.14283],[-1.60535,49.20558],[-1.61363,49.21876],[-1.56856,49.22164],[-1.58637,49.23388],[-1.61469,49.23795],[-1.62582,49.22329],[-1.62552,49.21006],[-1.64738,49.22989],[-1.67839,49.28207],[-1.65736,49.28182],[-1.6853,49.2885],[-1.71117,49.3251],[-1.69784,49.32453],[-1.6746,49.33201],[-1.69965,49.33415],[-1.71942,49.32498],[-1.7871,49.37459],[-1.75692,49.36819],[-1.75865,49.37336],[-1.77155,49.38002],[-1.78728,49.37589],[-1.78947,49.36923],[-1.80916,49.3721],[-1.82366,49.40147],[-1.82677,49.45292],[-1.84775,49.47373],[-1.84817,49.50375],[-1.88661,49.52635],[-1.88529,49.5414],[-1.85792,49.55139],[-1.839,49.5764],[-1.85004,49.63264],[-1.87235,49.65732],[-1.94689,49.67454],[-1.93589,49.6899],[-1.94808,49.71723],[-1.94219,49.7261],[-1.92207,49.72647],[-1.88291,49.70571],[-1.85179,49.7184],[-1.82286,49.69031],[-1.76064,49.67825],[-1.71781,49.67985],[-1.7009,49.66994],[-1.68748,49.67393],[-1.67242,49.65765],[-1.63285,49.66065],[-1.61545,49.65818],[-1.62937,49.65968],[-1.63124,49.65367],[-1.61516,49.64346],[-1.60275,49.6465],[-1.60576,49.65852],[-1.5999,49.66073],[-1.58669,49.65099],[-1.54182,49.65404],[-1.48693,49.66852],[-1.47264,49.6864],[-1.47826,49.6899],[-1.47326,49.69701],[-1.45511,49.69121],[-1.43655,49.70168],[-1.37099,49.7073],[-1.2897,49.6923],[-1.2662,49.69542],[-1.2721,49.67944],[-1.23913,49.65364],[-1.24324,49.6482],[-1.22795,49.62302],[-1.22866,49.60607],[-1.25429,49.61266],[-1.27212,49.57069],[-1.26975,49.58383],[-1.29623,49.58317],[-1.30669,49.56655],[-1.30636,49.53893],[-1.25271,49.4806],[-1.17115,49.41252],[-1.16173,49.39175],[-1.17935,49.37753],[-1.17754,49.36489]]],[[[-1.24053,49.58545],[-1.24801,49.5876],[-1.24911,49.59037],[-1.24274,49.59128],[-1.24053,49.58545]]],[[[-1.84184,48.87556],[-1.84264,48.8785],[-1.841,48.87789],[-1.84184,48.87556]]],[[[-1.5109,48.63502],[-1.5132,48.63585],[-1.5111,48.63695],[-1.5109,48.63502]]],[[[-1.82236,48.87204],[-1.83262,48.86901],[-1.83869,48.87783],[-1.82236,48.87204]]],[[[-1.76603,48.87183],[-1.76782,48.8745],[-1.76609,48.87506],[-1.76603,48.87183]]]]}},{"type":"Feature","properties":{"name":"Grand Est"},"geometry":{"type":"Polygon","coordinates":[[[4.23316,49.95775],[4.30874,49.9697],[4.35012,49.95203],[4.3815,49.95423],[4.44694,49.9375],[4.52326,49.95041],[4.54224,49.9693],[4.56425,49.97014],[4.58208,49.98357],[4.69358,49.99552],[4.68498,50.00704],[4.68465,50.02724],[4.69967,50.05356],[4.68018,50.06645],[4.69302,50.08482],[4.70208,50.09553],[4.75135,50.11174],[4.74781,50.12229],[4.75596,50.12164],[4.76216,50.1364],[4.80581,50.15261],[4.82507,50.16912],[4.83224,50.15323],[4.87601,50.15391],[4.88124,50.14134],[4.89708,50.13779],[4.86718,50.1187],[4.87213,50.08773],[4.85089,50.10132],[4.83765,50.09289],[4.84632,50.08492],[4.83793,50.06711],[4.81931,50.06588],[4.84132,50.04],[4.81938,50.0258],[4.81894,49.99514],[4.7933,49.9821],[4.79011,49.97002],[4.79092,49.9584],[4.84711,49.94902],[4.88998,49.90927],[4.87741,49.9045],[4.88727,49.89866],[4.87737,49.89425],[4.86308,49.86726],[4.8512,49.86499],[4.8576,49.84182],[4.86729,49.84195],[4.86879,49.82309],[4.87693,49.8194],[4.85148,49.79355],[4.90574,49.78548],[4.93093,49.78685],[4.95712,49.8017],[4.99536,49.80061],[5.01355,49.78009],[5.06318,49.76193],[5.0935,49.76373],[5.11851,49.73834],[5.12564,49.71238],[5.14364,49.7093],[5.15822,49.71682],[5.1653,49.71197],[5.16621,49.69292],[5.20517,49.69614],[5.24285,49.68598],[5.27067,49.69532],[5.332,49.65478],[5.30491,49.63006],[5.31208,49.61166],[5.3402,49.61686],[5.35151,49.63079],[5.39833,49.61507],[5.42855,49.59587],[5.43797,49.56974],[5.45681,49.56667],[5.44135,49.55214],[5.46507,49.53887],[5.46679,49.5259],[5.4472,49.51788],[5.46562,49.5087],[5.46519,49.4989],[5.54118,49.51526],[5.55605,49.52925],[5.59345,49.52191],[5.61098,49.50593],[5.62136,49.51955],[5.61712,49.52939],[5.64298,49.54997],[5.66051,49.55361],[5.70208,49.53932],[5.73328,49.54547],[5.74738,49.53943],[5.75732,49.54305],[5.75832,49.56121],[5.77145,49.56325],[5.81572,49.54825],[5.80815,49.54257],[5.8172,49.537],[5.83696,49.54247],[5.84588,49.52995],[5.83442,49.5263],[5.83657,49.51962],[5.86385,49.50083],[5.94311,49.50023],[5.97238,49.49112],[5.97417,49.46482],[5.98765,49.46241],[5.979,49.45292],[6.02783,49.45573],[6.02748,49.44823],[6.04215,49.4478],[6.05777,49.46621],[6.10081,49.45289],[6.09951,49.46752],[6.12347,49.47344],[6.12786,49.49374],[6.14167,49.49184],[6.14098,49.48642],[6.16217,49.49323],[6.15525,49.50381],[6.23564,49.50807],[6.24071,49.51451],[6.2791,49.50336],[6.28901,49.48469],[6.29824,49.4887],[6.29616,49.48016],[6.31276,49.48027],[6.33378,49.46689],[6.36886,49.45982],[6.36768,49.46942],[6.39326,49.46428],[6.42809,49.47692],[6.44043,49.46667],[6.46474,49.46648],[6.5419,49.43244],[6.55704,49.41909],[6.53789,49.41065],[6.54053,49.40115],[6.58707,49.38494],[6.58389,49.36863],[6.60183,49.36647],[6.58796,49.34973],[6.57424,49.35853],[6.56376,49.35589],[6.56584,49.34735],[6.59445,49.33144],[6.58888,49.32209],[6.61574,49.30168],[6.62525,49.30284],[6.65323,49.28112],[6.67037,49.28029],[6.66153,49.25733],[6.68976,49.24969],[6.68462,49.24232],[6.69593,49.21501],[6.72334,49.21905],[6.7315,49.20609],[6.71136,49.18854],[6.73851,49.16366],[6.78456,49.16809],[6.83454,49.15147],[6.84765,49.1573],[6.84387,49.17313],[6.86177,49.17944],[6.83778,49.21332],[6.86313,49.22197],[6.89244,49.20883],[6.92545,49.22359],[6.9379,49.2222],[6.9597,49.20299],[6.97497,49.20976],[7.0107,49.18812],[7.03503,49.19064],[7.02765,49.17008],[7.04585,49.13912],[7.04521,49.11941],[7.0543,49.11263],[7.08888,49.13022],[7.08028,49.14877],[7.10093,49.15562],[7.11327,49.15169],[7.10391,49.13892],[7.12626,49.14187],[7.13602,49.12853],[7.1588,49.12078],[7.18415,49.13151],[7.19799,49.11515],[7.20868,49.12466],[7.2453,49.12981],[7.28172,49.1245],[7.2826,49.11693],[7.29374,49.1151],[7.32371,49.14269],[7.36326,49.14525],[7.36609,49.17247],[7.44478,49.18423],[7.43264,49.16588],[7.494,49.16964],[7.49578,49.15508],[7.5064,49.15492],[7.48958,49.13653],[7.51725,49.11955],[7.52898,49.09721],[7.56319,49.08046],[7.59998,49.08333],[7.62935,49.07368],[7.63529,49.05416],[7.67449,49.04504],[7.69708,49.04975],[7.69611,49.05782],[7.73182,49.05561],[7.73223,49.04436],[7.75818,49.04534],[7.79459,49.06579],[7.8663,49.0334],[7.88823,49.04862],[7.9167,49.04097],[7.93376,49.05803],[7.96685,49.04144],[7.9747,49.02697],[8.0005,49.02823],[8.04922,49.01418],[8.08691,48.99054],[8.13945,48.9783],[8.19441,48.97743],[8.19857,48.96748],[8.22274,48.97597],[8.23334,48.96668],[8.1958,48.95621],[8.14794,48.90381],[8.09155,48.8057],[8.06513,48.78977],[8.02913,48.78648],[8.01471,48.76118],[7.97176,48.75763],[7.96314,48.72135],[7.89089,48.6631],[7.84249,48.64395],[7.80176,48.58827],[7.80655,48.51725],[7.7947,48.50209],[7.7682,48.48966],[7.76303,48.45141],[7.73185,48.3929],[7.74466,48.32784],[7.69338,48.30153],[7.66602,48.22088],[7.64346,48.20649],[7.60115,48.15838],[7.59916,48.13576],[7.57731,48.12037],[7.56869,48.03411],[7.60878,48.00027],[7.62209,47.97227],[7.58329,47.93112],[7.58187,47.89649],[7.5567,47.87994],[7.56311,47.84379],[7.52963,47.77891],[7.54767,47.72992],[7.51185,47.69704],[7.52114,47.66373],[7.56647,47.6329],[7.59217,47.59536],[7.58489,47.57563],[7.56709,47.57761],[7.5572,47.56503],[7.5,47.53979],[7.5014,47.52872],[7.51926,47.53455],[7.53143,47.52829],[7.52294,47.51424],[7.4978,47.52123],[7.51089,47.50257],[7.50247,47.49077],[7.47612,47.48],[7.43185,47.49607],[7.42111,47.48045],[7.45566,47.4705],[7.40341,47.43552],[7.35569,47.43378],[7.33071,47.44157],[7.28346,47.43481],[7.24618,47.42022],[7.23281,47.43881],[7.19972,47.43503],[7.17077,47.44305],[7.17725,47.4676],[7.20105,47.49391],[7.16175,47.49005],[7.13035,47.50303],[7.14346,47.52461],[7.13363,47.53896],[7.10687,47.55054],[7.10553,47.56889],[7.09417,47.57364],[7.08107,47.59612],[7.03978,47.60115],[7.01956,47.58854],[7.01932,47.5961],[7.00594,47.60236],[7.00593,47.62892],[7.01693,47.62719],[7.01207,47.63932],[7.01917,47.64125],[7.0176,47.64986],[7.03919,47.65057],[7.03418,47.66109],[7.04506,47.66935],[7.03791,47.6745],[7.04803,47.6841],[7.02649,47.701],[7.03742,47.72164],[7.01596,47.74323],[6.97227,47.75147],[6.94043,47.77157],[6.86699,47.78331],[6.84845,47.80187],[6.84308,47.82505],[6.82354,47.81305],[6.79268,47.82946],[6.78261,47.85128],[6.73784,47.86167],[6.64642,47.90323],[6.64191,47.91776],[6.60737,47.94379],[6.56342,47.93139],[6.54401,47.90309],[6.47826,47.88544],[6.47798,47.89304],[6.45596,47.90677],[6.46274,47.91733],[6.44916,47.92173],[6.43473,47.94285],[6.40842,47.94319],[6.40536,47.95311],[6.38893,47.96079],[6.36155,47.96134],[6.32327,47.94883],[6.28908,47.95584],[6.23799,47.93284],[6.20522,47.93205],[6.20806,47.94676],[6.18202,47.9563],[6.16798,47.95235],[6.15706,47.96793],[6.14981,47.96592],[6.16455,47.97311],[6.15956,47.99229],[6.15265,47.99414],[6.15606,48.00694],[6.1314,48.02408],[6.10923,48.01247],[6.07277,48.0158],[6.04118,48.00442],[6.03216,47.99062],[6.019,47.98748],[6.02609,47.98145],[6.00527,47.95784],[5.97078,47.95721],[5.9689,47.94741],[5.94939,47.93545],[5.92839,47.93781],[5.96013,47.96803],[5.94749,47.97922],[5.93249,47.97729],[5.91738,47.96623],[5.91804,47.94736],[5.90011,47.94475],[5.8929,47.93714],[5.89718,47.93098],[5.88358,47.92491],[5.88957,47.92059],[5.8873,47.90364],[5.85132,47.90599],[5.83748,47.89124],[5.8207,47.8691],[5.82806,47.85803],[5.81785,47.85325],[5.82798,47.85187],[5.79608,47.84675],[5.79888,47.8557],[5.76119,47.85933],[5.7442,47.84885],[5.75108,47.82903],[5.74076,47.8192],[5.69224,47.82133],[5.68153,47.80911],[5.67661,47.77916],[5.67997,47.76997],[5.70753,47.76755],[5.70958,47.7453],[5.69039,47.73515],[5.69522,47.726],[5.68342,47.71671],[5.69353,47.70481],[5.69106,47.68463],[5.59668,47.67169],[5.58509,47.70015],[5.56739,47.70712],[5.52978,47.67283],[5.48277,47.68463],[5.4475,47.67083],[5.42018,47.67767],[5.40634,47.6734],[5.39905,47.65325],[5.40575,47.64687],[5.38582,47.63511],[5.3726,47.61839],[5.37408,47.60454],[5.35557,47.59147],[5.34073,47.59623],[5.34103,47.60837],[5.32234,47.61236],[5.29821,47.60434],[5.27783,47.58978],[5.2779,47.58136],[5.25312,47.57685],[5.23802,47.59654],[5.2586,47.62221],[5.23694,47.61678],[5.21141,47.64189],[5.1736,47.65257],[5.17834,47.68095],[5.16186,47.6805],[5.13857,47.65086],[5.12537,47.64677],[5.10888,47.64968],[5.10396,47.65885],[5.08612,47.65662],[5.06916,47.66858],[5.0535,47.66827],[5.04359,47.67652],[5.06065,47.69479],[5.02877,47.69328],[5.02915,47.70992],[5.00465,47.70122],[4.99675,47.68997],[4.96909,47.68583],[4.97198,47.69157],[4.95414,47.70146],[4.97166,47.72941],[4.97003,47.73553],[4.9568,47.73245],[4.96615,47.74056],[4.95899,47.76187],[4.94741,47.76659],[4.92268,47.75895],[4.9267,47.76484],[4.91714,47.7669],[4.9238,47.77342],[4.91796,47.77709],[4.98226,47.80009],[4.99413,47.81975],[4.96043,47.8394],[4.9634,47.85221],[4.95409,47.86677],[4.92746,47.87155],[4.92858,47.88623],[4.90291,47.92104],[4.86934,47.91745],[4.86043,47.89631],[4.83404,47.90679],[4.83122,47.91787],[4.84677,47.92131],[4.8661,47.94051],[4.84518,47.96125],[4.78651,47.9642],[4.79497,47.98446],[4.81024,47.98858],[4.79325,47.99654],[4.78908,48.00783],[4.74214,48.00462],[4.71994,48.0089],[4.70037,48.02374],[4.67323,48.01505],[4.64768,48.02568],[4.62195,48.02435],[4.61681,48.03137],[4.58507,48.0301],[4.54942,48.00446],[4.53577,48.00657],[4.54093,47.99212],[4.55706,47.98187],[4.55424,47.96748],[4.49331,47.96818],[4.44696,47.9562],[4.4179,47.96846],[4.34321,47.95586],[4.3128,47.9625],[4.29792,47.9497],[4.30287,47.93851],[4.29342,47.92568],[4.24546,47.92975],[4.22215,47.9497],[4.22596,47.97194],[4.20242,47.973],[4.19281,47.9646],[4.21307,47.9619],[4.20312,47.95917],[4.20783,47.9466],[4.20188,47.94116],[4.18539,47.94025],[4.18425,47.95542],[4.16633,47.9598],[4.14017,47.94275],[4.14184,47.93711],[4.10961,47.92604],[4.09209,47.9282],[4.0897,47.94501],[4.06094,47.9457],[4.05888,47.93171],[4.04481,47.92512],[4.03128,47.93318],[4.01814,47.92847],[4.00386,47.94203],[3.98563,47.93051],[3.96257,47.93596],[3.89536,47.9286],[3.91331,47.96938],[3.91092,47.98182],[3.89343,48.0017],[3.88166,48.00029],[3.87997,47.97917],[3.8618,47.97644],[3.86592,47.9844],[3.85003,47.98366],[3.83981,48.00389],[3.87068,48.00295],[3.87061,48.01681],[3.82198,48.04392],[3.83019,48.04709],[3.82406,48.05311],[3.82955,48.05772],[3.79808,48.0865],[3.80565,48.10051],[3.79169,48.11764],[3.76802,48.13376],[3.75691,48.12531],[3.73972,48.13275],[3.75482,48.15024],[3.74747,48.16625],[3.71352,48.17394],[3.72157,48.15527],[3.70502,48.14431],[3.69298,48.15462],[3.69092,48.14502],[3.66787,48.13921],[3.66064,48.15885],[3.63494,48.18792],[3.62166,48.19198],[3.59418,48.17888],[3.57985,48.18434],[3.57519,48.18874],[3.62162,48.22574],[3.59985,48.23591],[3.62433,48.25453],[3.6168,48.27134],[3.5778,48.28459],[3.58797,48.30081],[3.56109,48.31194],[3.5634,48.32144],[3.5439,48.31979],[3.54511,48.33454],[3.49763,48.36958],[3.45083,48.37392],[3.42739,48.35809],[3.41328,48.3763],[3.4221,48.41619],[3.4025,48.41517],[3.41183,48.42131],[3.39167,48.42325],[3.40648,48.45245],[3.38336,48.47944],[3.43464,48.49025],[3.42355,48.51481],[3.4054,48.52801],[3.41424,48.53347],[3.45695,48.52963],[3.48175,48.54145],[3.48589,48.54727],[3.46552,48.57049],[3.49318,48.59025],[3.51586,48.58978],[3.50321,48.60456],[3.55851,48.61696],[3.53798,48.63162],[3.51907,48.63347],[3.53324,48.64651],[3.49288,48.64762],[3.45109,48.63465],[3.46043,48.65301],[3.44061,48.66365],[3.44755,48.67725],[3.47168,48.68567],[3.47778,48.69792],[3.4643,48.70738],[3.46973,48.73787],[3.44407,48.73663],[3.42852,48.75839],[3.39911,48.755],[3.40892,48.7839],[3.42945,48.77943],[3.44186,48.78241],[3.44395,48.79139],[3.44212,48.80358],[3.42304,48.80075],[3.40417,48.80927],[3.41661,48.81783],[3.44815,48.81115],[3.47038,48.82089],[3.4872,48.81519],[3.49131,48.83467],[3.48183,48.86594],[3.50191,48.87192],[3.52858,48.91214],[3.57075,48.91492],[3.57444,48.93902],[3.60255,48.94393],[3.59156,48.96037],[3.62121,48.96603],[3.62334,48.98268],[3.63989,49.00409],[3.67772,49.01397],[3.66354,49.03731],[3.65008,49.04282],[3.61571,49.03363],[3.5852,49.03887],[3.58771,49.05939],[3.60906,49.0731],[3.63847,49.07744],[3.6118,49.11809],[3.60309,49.11467],[3.60002,49.12069],[3.62057,49.13925],[3.62225,49.1511],[3.68726,49.15418],[3.70274,49.14145],[3.74877,49.15708],[3.75115,49.1777],[3.71123,49.17819],[3.69731,49.18843],[3.70487,49.19859],[3.69861,49.2055],[3.68158,49.19747],[3.67611,49.20095],[3.68179,49.20534],[3.65283,49.21543],[3.65148,49.22156],[3.66357,49.22187],[3.67815,49.23533],[3.66069,49.26008],[3.65387,49.25423],[3.66149,49.26996],[3.6516,49.27836],[3.65899,49.28682],[3.63834,49.30136],[3.64394,49.31272],[3.66916,49.32475],[3.74222,49.33651],[3.74109,49.34759],[3.77753,49.35582],[3.82406,49.35735],[3.85284,49.34497],[3.85874,49.35412],[3.84789,49.36457],[3.8561,49.36424],[3.85985,49.38615],[3.82238,49.40238],[3.88118,49.40529],[3.89574,49.39278],[3.92523,49.40758],[3.96131,49.37734],[3.99494,49.3779],[4.01273,49.3583],[4.0355,49.3599],[4.03991,49.3974],[4.05027,49.41227],[4.0423,49.41665],[4.03766,49.43826],[4.05033,49.44761],[4.06791,49.44488],[4.04237,49.46869],[4.04071,49.50853],[4.05756,49.50818],[4.06215,49.52272],[4.07584,49.51835],[4.0758,49.54146],[4.04876,49.54527],[4.07657,49.57113],[4.05945,49.57614],[4.05793,49.59155],[4.06648,49.59443],[4.04729,49.59953],[4.02461,49.62126],[4.03791,49.62292],[4.04108,49.63827],[4.09916,49.62835],[4.11575,49.63292],[4.12555,49.65107],[4.12702,49.67792],[4.14859,49.67832],[4.14418,49.68854],[4.18519,49.69888],[4.19145,49.71601],[4.23191,49.73045],[4.2259,49.73285],[4.22971,49.74661],[4.2496,49.75711],[4.24283,49.76714],[4.20592,49.77819],[4.22668,49.79303],[4.21427,49.80611],[4.22359,49.83411],[4.24876,49.85675],[4.25276,49.86965],[4.2557,49.90321],[4.21696,49.91439],[4.23316,49.95775]]]}},{"type":"Feature","properties":{"name":"Centre-Val de Loire"},"geometry":{"type":"Polygon","coordinates":[[[2.87463,47.52042],[2.93195,47.43946],[2.91845,47.40553],[2.87162,47.34576],[2.87655,47.32193],[2.91231,47.30886],[2.98309,47.26081],[2.97888,47.22957],[3.00967,47.17905],[3.02063,47.15322],[3.01664,47.14087],[3.02809,47.12907],[3.03138,47.09248],[3.01934,47.06817],[3.06382,47.04608],[3.07516,47.02932],[3.06258,46.9792],[3.07933,46.95512],[3.04999,46.90771],[3.06809,46.87768],[3.06891,46.85073],[3.05458,46.83877],[3.05887,46.82628],[3.02765,46.79336],[2.9628,46.80399],[2.95323,46.79113],[2.91327,46.79103],[2.91039,46.77939],[2.87617,46.76845],[2.87702,46.76147],[2.84542,46.74286],[2.84677,46.72706],[2.82749,46.73533],[2.79509,46.73434],[2.7859,46.7225],[2.75852,46.71775],[2.73453,46.74622],[2.7145,46.74449],[2.70498,46.73939],[2.70228,46.71817],[2.68556,46.72262],[2.68596,46.71435],[2.6716,46.70886],[2.67438,46.70193],[2.64513,46.68725],[2.62337,46.68964],[2.62005,46.67972],[2.63369,46.67527],[2.62864,46.65954],[2.60715,46.6605],[2.60543,46.67121],[2.56713,46.65374],[2.5931,46.64658],[2.59665,46.63722],[2.58425,46.62582],[2.58832,46.61596],[2.56838,46.60938],[2.57778,46.60788],[2.58156,46.59316],[2.59418,46.59719],[2.60011,46.59524],[2.60938,46.57133],[2.60328,46.56428],[2.61496,46.55328],[2.53665,46.5197],[2.52053,46.53089],[2.49718,46.52152],[2.49695,46.53367],[2.44549,46.52005],[2.43006,46.52654],[2.35985,46.51588],[2.32377,46.49011],[2.32983,46.47854],[2.32299,46.46968],[2.30079,46.47237],[2.28335,46.44928],[2.28105,46.42041],[2.19757,46.4283],[2.1155,46.42195],[2.10332,46.40947],[2.08894,46.4089],[2.0742,46.41984],[1.99308,46.43092],[1.97875,46.44152],[1.92424,46.43195],[1.90918,46.4435],[1.83978,46.42572],[1.8195,46.43004],[1.79838,46.45482],[1.78652,46.45525],[1.74759,46.45002],[1.75882,46.44026],[1.76027,46.42714],[1.75055,46.40558],[1.72704,46.39021],[1.7109,46.39206],[1.6836,46.41818],[1.6424,46.38514],[1.62675,46.38851],[1.61425,46.39953],[1.62266,46.41826],[1.60925,46.42312],[1.5954,46.40864],[1.57862,46.41048],[1.5462,46.39346],[1.54409,46.4191],[1.52191,46.4264],[1.49793,46.395],[1.47766,46.39391],[1.46535,46.37478],[1.44643,46.375],[1.44295,46.36516],[1.4349,46.36467],[1.44036,46.35637],[1.41675,46.34719],[1.40903,46.36134],[1.35602,46.40012],[1.31391,46.39538],[1.32281,46.38548],[1.31114,46.38353],[1.30752,46.37886],[1.31516,46.37385],[1.30306,46.37099],[1.2604,46.37878],[1.23816,46.3662],[1.21964,46.36598],[1.20973,46.38976],[1.18219,46.37608],[1.17728,46.38395],[1.19682,46.40129],[1.19319,46.4098],[1.21269,46.43222],[1.18649,46.42813],[1.18602,46.44109],[1.15182,46.4487],[1.13551,46.47089],[1.15736,46.46945],[1.13341,46.49763],[1.14914,46.5022],[1.14594,46.5064],[1.09133,46.53767],[1.02291,46.53591],[1.02494,46.54948],[1.01476,46.56776],[0.96367,46.57107],[0.93529,46.58634],[0.93776,46.59442],[0.91055,46.60179],[0.90643,46.61914],[0.8939,46.62861],[0.90643,46.6486],[0.91775,46.65059],[0.90671,46.66557],[0.91071,46.67718],[0.90266,46.68001],[0.92789,46.69265],[0.90805,46.71876],[0.91323,46.72571],[0.90182,46.73623],[0.87865,46.73864],[0.85902,46.76039],[0.82798,46.77682],[0.82804,46.7868],[0.81502,46.78851],[0.80932,46.82786],[0.7868,46.84046],[0.79384,46.85122],[0.76747,46.85145],[0.77002,46.86511],[0.75405,46.85963],[0.70432,46.90329],[0.70621,46.93621],[0.69257,46.97431],[0.63341,46.98672],[0.61887,47.00746],[0.56774,47.00629],[0.57404,46.98285],[0.60118,46.97309],[0.60011,46.95742],[0.50519,46.9599],[0.4448,46.94115],[0.43871,46.92958],[0.36652,46.94956],[0.32383,46.93145],[0.3013,46.95575],[0.30787,46.9628],[0.29821,46.97126],[0.30804,46.97738],[0.30553,46.98616],[0.29187,46.98924],[0.31297,46.99803],[0.29867,47.0196],[0.31029,47.02574],[0.30538,47.0527],[0.26817,47.04282],[0.25999,47.05558],[0.26762,47.0675],[0.24554,47.07129],[0.208,47.05323],[0.19224,47.0654],[0.17577,47.06064],[0.17422,47.07128],[0.20095,47.09139],[0.18316,47.11438],[0.16256,47.10071],[0.13472,47.10787],[0.14039,47.12387],[0.12716,47.11997],[0.12292,47.12866],[0.08135,47.11854],[0.07839,47.14633],[0.0656,47.14306],[0.05358,47.16056],[0.06659,47.18979],[0.05297,47.19677],[0.06819,47.21578],[0.07932,47.21677],[0.07245,47.21988],[0.06793,47.24733],[0.07483,47.24805],[0.07477,47.26213],[0.09,47.28164],[0.0786,47.28394],[0.11303,47.3179],[0.11746,47.33234],[0.1473,47.34538],[0.14041,47.3618],[0.18339,47.38123],[0.16751,47.38562],[0.1695,47.39564],[0.15386,47.39873],[0.18085,47.41615],[0.18094,47.45341],[0.22011,47.50195],[0.22606,47.52659],[0.20662,47.52641],[0.20555,47.53466],[0.19334,47.53911],[0.21512,47.57299],[0.23434,47.57793],[0.2321,47.61082],[0.25316,47.61331],[0.27562,47.59838],[0.3221,47.59523],[0.33972,47.57938],[0.37848,47.56853],[0.40238,47.57842],[0.38346,47.61019],[0.36426,47.62051],[0.38279,47.64309],[0.39625,47.64085],[0.42391,47.61783],[0.44993,47.61933],[0.46401,47.64561],[0.49842,47.64476],[0.51612,47.65664],[0.55171,47.65917],[0.55879,47.6708],[0.59688,47.67285],[0.61481,47.68275],[0.61885,47.69348],[0.59557,47.68832],[0.59297,47.70359],[0.58114,47.71356],[0.60902,47.7253],[0.62756,47.75194],[0.64535,47.75283],[0.67697,47.76953],[0.70254,47.76682],[0.69122,47.78339],[0.71213,47.78715],[0.74021,47.8116],[0.74587,47.82756],[0.76841,47.8311],[0.77471,47.83937],[0.77387,47.85033],[0.75916,47.85922],[0.76469,47.86658],[0.76018,47.89886],[0.79002,47.91221],[0.81211,47.88853],[0.81715,47.8971],[0.80754,47.9079],[0.81609,47.91292],[0.80842,47.91659],[0.81406,47.93232],[0.8487,47.94258],[0.81866,47.98925],[0.83237,47.99659],[0.84188,48.03018],[0.79755,48.03724],[0.79398,48.06971],[0.84302,48.07264],[0.84817,48.0946],[0.82864,48.08986],[0.81435,48.0988],[0.84122,48.10306],[0.85537,48.12262],[0.85037,48.13308],[0.91665,48.13894],[0.88775,48.16152],[0.83951,48.16567],[0.79562,48.18804],[0.80879,48.19761],[0.80562,48.20535],[0.83048,48.21071],[0.78588,48.27114],[0.79644,48.28711],[0.80707,48.28973],[0.77835,48.30327],[0.75567,48.29982],[0.78543,48.34043],[0.81221,48.34948],[0.82854,48.34246],[0.84238,48.34669],[0.83993,48.35272],[0.85901,48.34978],[0.87161,48.35971],[0.88371,48.35671],[0.90089,48.37384],[0.91633,48.37451],[0.92897,48.39043],[0.95,48.39941],[0.9445,48.41729],[0.97649,48.44111],[0.95591,48.44441],[0.93898,48.46083],[0.93571,48.47555],[0.95629,48.48228],[0.9554,48.49265],[0.94155,48.49869],[0.96774,48.52388],[0.9251,48.53564],[0.93876,48.55056],[0.92571,48.55965],[0.85064,48.58263],[0.84705,48.60952],[0.81964,48.60987],[0.82996,48.63227],[0.80935,48.66482],[0.82767,48.68072],[0.86387,48.68762],[0.87257,48.71323],[0.89057,48.7204],[0.89961,48.71053],[0.9212,48.70918],[0.94966,48.71461],[0.97829,48.73096],[0.99115,48.72572],[1.0206,48.73479],[1.03403,48.72846],[1.0339,48.73935],[1.06444,48.75939],[1.06968,48.74879],[1.08654,48.75724],[1.11454,48.74712],[1.11821,48.76603],[1.12533,48.7673],[1.1214,48.78919],[1.15116,48.78582],[1.14883,48.7774],[1.16298,48.76931],[1.18636,48.77301],[1.22305,48.75798],[1.23276,48.76336],[1.22261,48.76729],[1.24623,48.76959],[1.26049,48.75779],[1.29694,48.76823],[1.32981,48.76096],[1.35347,48.7792],[1.37479,48.78118],[1.37696,48.79177],[1.35635,48.81601],[1.36138,48.83364],[1.40432,48.86057],[1.46297,48.87448],[1.47128,48.89783],[1.46143,48.8996],[1.45932,48.91465],[1.44796,48.92464],[1.47151,48.93965],[1.50152,48.94105],[1.51201,48.93447],[1.50734,48.9276],[1.51419,48.92195],[1.5384,48.92251],[1.54525,48.91299],[1.53917,48.90489],[1.56374,48.89063],[1.54623,48.87243],[1.58404,48.86051],[1.57727,48.84436],[1.59785,48.83906],[1.57898,48.82944],[1.5912,48.81487],[1.57725,48.8052],[1.57663,48.78302],[1.58759,48.7736],[1.58146,48.76552],[1.60834,48.76075],[1.62654,48.74805],[1.5876,48.71062],[1.59171,48.70772],[1.57685,48.70258],[1.61177,48.68947],[1.60312,48.66242],[1.62122,48.64958],[1.6432,48.65129],[1.63832,48.6451],[1.66622,48.61371],[1.68491,48.61983],[1.6871,48.61117],[1.71466,48.61468],[1.71877,48.60574],[1.70199,48.585],[1.70925,48.57802],[1.7574,48.57496],[1.76796,48.55896],[1.78725,48.55374],[1.77575,48.52771],[1.77684,48.50931],[1.78905,48.50016],[1.78564,48.49008],[1.79634,48.48419],[1.79156,48.48124],[1.80321,48.47257],[1.80145,48.46604],[1.83659,48.46709],[1.84492,48.4461],[1.87169,48.43978],[1.90426,48.43861],[1.92945,48.45696],[1.93296,48.44204],[1.94289,48.44109],[1.93633,48.43481],[1.93961,48.41958],[1.92762,48.41634],[1.92837,48.40605],[1.97824,48.402],[1.96672,48.38042],[1.98031,48.37826],[1.97801,48.36886],[1.98903,48.36358],[1.97331,48.35581],[1.97536,48.34479],[1.9687,48.34131],[1.98234,48.32832],[1.9745,48.32317],[1.98065,48.31877],[1.9588,48.30664],[1.9652,48.29516],[1.98237,48.29545],[1.97272,48.28822],[2.04126,48.28438],[2.05271,48.29547],[2.08534,48.29401],[2.10617,48.30763],[2.11372,48.30725],[2.1106,48.29695],[2.16375,48.29843],[2.1523,48.31591],[2.18069,48.31168],[2.18213,48.32427],[2.20225,48.3446],[2.22757,48.32963],[2.24617,48.33126],[2.23805,48.31637],[2.2493,48.31629],[2.24516,48.2984],[2.2669,48.31468],[2.29569,48.30808],[2.31259,48.3308],[2.32755,48.33297],[2.35823,48.30849],[2.40266,48.32072],[2.42332,48.29476],[2.4177,48.27885],[2.42352,48.26037],[2.45016,48.25004],[2.46909,48.25527],[2.48411,48.23905],[2.50619,48.23854],[2.50689,48.22599],[2.51833,48.22759],[2.51412,48.21438],[2.52313,48.19489],[2.51297,48.19298],[2.51814,48.18991],[2.50728,48.17968],[2.51653,48.16624],[2.50633,48.15644],[2.48324,48.16452],[2.47465,48.14883],[2.44426,48.13147],[2.44431,48.12423],[2.47601,48.12964],[2.52187,48.12512],[2.53751,48.14034],[2.55827,48.14161],[2.57056,48.14082],[2.57482,48.13127],[2.63967,48.13895],[2.66475,48.12054],[2.70532,48.12303],[2.72046,48.13691],[2.7552,48.14565],[2.73641,48.16631],[2.75517,48.16009],[2.79526,48.16908],[2.81142,48.16376],[2.79791,48.15116],[2.80122,48.13145],[2.83618,48.13414],[2.86803,48.15643],[2.95327,48.16501],[2.96361,48.15296],[2.99088,48.15249],[2.99839,48.13977],[3.00961,48.14577],[3.0294,48.1333],[3.01588,48.11571],[3.03529,48.11599],[3.03835,48.09885],[3.0504,48.09136],[3.05047,48.07233],[3.09536,48.05398],[3.08965,48.04907],[3.09463,48.04041],[3.12426,48.03113],[3.09946,48.02075],[3.12421,48.0069],[3.12845,47.97097],[3.10931,47.96207],[3.10527,47.94694],[3.05081,47.92417],[3.05049,47.91064],[3.00956,47.90539],[3.01697,47.89892],[3.00723,47.89529],[3.01244,47.87413],[2.99831,47.86728],[3.0233,47.86102],[3.03178,47.85036],[3.0297,47.83508],[3.01254,47.83437],[3.02206,47.81777],[3.01547,47.81354],[3.02434,47.81308],[3.02813,47.802],[3.02528,47.78767],[2.98822,47.78603],[2.93077,47.76228],[2.90938,47.76931],[2.85199,47.75786],[2.85901,47.74954],[2.84897,47.71684],[2.86063,47.70992],[2.87886,47.72035],[2.88465,47.71389],[2.87915,47.7038],[2.92675,47.68176],[2.91815,47.66979],[2.95423,47.64569],[2.93232,47.62705],[2.94522,47.60845],[2.93627,47.59932],[2.97654,47.56943],[2.95866,47.55738],[2.9143,47.56597],[2.90489,47.55621],[2.8739,47.55281],[2.87322,47.54512],[2.86023,47.554],[2.84519,47.54493],[2.87463,47.52042]]]}},{"type":"Feature","properties":{"name":"Bourgogne-Franche-Comt\u00e9"},"geometry":{"type":"Polygon","coordinates":[[[3.62942,46.74946],[3.60204,46.75124],[3.59776,46.76203],[3.58865,46.76134],[3.57569,46.74952],[3.598,46.72398],[3.57731,46.71485],[3.57593,46.72288],[3.56882,46.71549],[3.54724,46.72143],[3.54821,46.70617],[3.56115,46.68862],[3.54648,46.67829],[3.53206,46.68879],[3.51442,46.68358],[3.48183,46.65067],[3.45729,46.65176],[3.44208,46.662],[3.45519,46.68251],[3.45305,46.69009],[3.43298,46.69334],[3.43369,46.71223],[3.37855,46.71238],[3.36575,46.6896],[3.34671,46.68442],[3.31397,46.68875],[3.30092,46.7163],[3.26979,46.71674],[3.22852,46.69629],[3.22193,46.68523],[3.19882,46.67951],[3.16574,46.69173],[3.12978,46.7272],[3.06676,46.74548],[3.03615,46.77635],[3.0326,46.80021],[3.05887,46.82628],[3.05458,46.83877],[3.06953,46.85307],[3.06697,46.88178],[3.04999,46.90771],[3.07933,46.95512],[3.06258,46.9792],[3.07516,47.02932],[3.06382,47.04608],[3.01934,47.06817],[3.03138,47.09248],[3.02809,47.12907],[3.01664,47.14087],[3.02063,47.15322],[3.00967,47.17905],[2.97888,47.22957],[2.98309,47.26081],[2.91231,47.30886],[2.87655,47.32193],[2.87162,47.34576],[2.91845,47.40553],[2.93195,47.43946],[2.91406,47.4709],[2.89852,47.4816],[2.88845,47.50943],[2.84519,47.54493],[2.86023,47.554],[2.87322,47.54512],[2.8739,47.55281],[2.90489,47.55621],[2.9143,47.56597],[2.95866,47.55738],[2.97654,47.56943],[2.93627,47.59932],[2.94522,47.60845],[2.93232,47.62705],[2.95423,47.64569],[2.91815,47.66979],[2.92675,47.68176],[2.87915,47.7038],[2.88465,47.71389],[2.87886,47.72035],[2.86063,47.70992],[2.84897,47.71684],[2.85901,47.74954],[2.85199,47.75786],[2.90938,47.76931],[2.93077,47.76228],[2.98822,47.78603],[3.02528,47.78767],[3.02813,47.802],[3.02434,47.81308],[3.01547,47.81354],[3.02206,47.81777],[3.01254,47.83437],[3.0297,47.83508],[3.03178,47.85036],[3.0233,47.86102],[2.99831,47.86728],[3.01244,47.87413],[3.00723,47.89529],[3.01697,47.89892],[3.00956,47.90539],[3.05049,47.91064],[3.05081,47.92417],[3.10527,47.94694],[3.10931,47.96207],[3.12845,47.97097],[3.12421,48.0069],[3.09946,48.02075],[3.12426,48.03113],[3.09463,48.04041],[3.08965,48.04907],[3.09536,48.05398],[3.05047,48.07233],[3.0504,48.09136],[3.03835,48.09885],[3.03529,48.11599],[3.01588,48.11571],[3.0294,48.1333],[3.00961,48.14577],[2.99839,48.13977],[2.99088,48.15249],[2.97292,48.15043],[2.95327,48.16501],[2.93528,48.16614],[2.93695,48.18303],[2.97131,48.19477],[2.97305,48.20555],[3.00462,48.20677],[3.03146,48.24888],[3.04757,48.2497],[3.04547,48.27073],[3.02496,48.27601],[3.02977,48.28584],[3.01874,48.29476],[3.02744,48.30286],[3.01478,48.30622],[3.04358,48.33044],[3.03714,48.34257],[3.04952,48.36012],[3.09888,48.35782],[3.10342,48.34951],[3.11721,48.36662],[3.13987,48.3726],[3.14657,48.36565],[3.17181,48.37768],[3.20034,48.36368],[3.22372,48.3704],[3.25438,48.36502],[3.28282,48.38157],[3.33547,48.37018],[3.35656,48.37845],[3.35768,48.37102],[3.36516,48.37228],[3.36722,48.39432],[3.38342,48.39939],[3.41479,48.39027],[3.41328,48.3763],[3.42739,48.35809],[3.45083,48.37392],[3.49763,48.36958],[3.54511,48.33454],[3.5439,48.31979],[3.5634,48.32144],[3.56109,48.31194],[3.58797,48.30081],[3.5778,48.28459],[3.61362,48.27353],[3.62376,48.25929],[3.59985,48.23591],[3.62162,48.22574],[3.57519,48.18874],[3.59317,48.17888],[3.62166,48.19198],[3.63494,48.18792],[3.66064,48.15885],[3.66787,48.13921],[3.69092,48.14502],[3.69298,48.15462],[3.70502,48.14431],[3.72157,48.15527],[3.71352,48.17394],[3.74747,48.16625],[3.75482,48.15024],[3.73972,48.13275],[3.75691,48.12531],[3.76802,48.13376],[3.79169,48.11764],[3.80565,48.10051],[3.79808,48.0865],[3.82955,48.05772],[3.82406,48.05311],[3.83019,48.04709],[3.82198,48.04392],[3.87061,48.01681],[3.87068,48.00295],[3.83981,48.00389],[3.85003,47.98366],[3.86592,47.9844],[3.8618,47.97644],[3.87997,47.97917],[3.88166,48.00029],[3.89343,48.0017],[3.91092,47.98182],[3.90355,47.93834],[3.89403,47.9293],[3.90216,47.92554],[3.92645,47.93457],[3.98563,47.93051],[4.00386,47.94203],[4.01814,47.92847],[4.03128,47.93318],[4.04481,47.92512],[4.05888,47.93171],[4.06094,47.9457],[4.0897,47.94501],[4.09209,47.9282],[4.10961,47.92604],[4.14184,47.93711],[4.14017,47.94275],[4.16633,47.9598],[4.18425,47.95542],[4.18539,47.94025],[4.20188,47.94116],[4.20783,47.9466],[4.20312,47.95917],[4.21307,47.9619],[4.19281,47.9646],[4.20242,47.973],[4.22596,47.97194],[4.22215,47.9497],[4.24546,47.92975],[4.29342,47.92568],[4.30287,47.93851],[4.29792,47.9497],[4.3128,47.9625],[4.34321,47.95586],[4.4179,47.96846],[4.44696,47.9562],[4.49331,47.96818],[4.55424,47.96748],[4.55706,47.98187],[4.54093,47.99212],[4.53577,48.00657],[4.54942,48.00446],[4.58507,48.0301],[4.61681,48.03137],[4.62195,48.02435],[4.64768,48.02568],[4.67323,48.01505],[4.70037,48.02374],[4.71994,48.0089],[4.74214,48.00462],[4.78908,48.00783],[4.79325,47.99654],[4.81024,47.98858],[4.79497,47.98446],[4.78651,47.9642],[4.84518,47.96125],[4.8661,47.94051],[4.84677,47.92131],[4.83122,47.91787],[4.83404,47.90679],[4.86043,47.89631],[4.86934,47.91745],[4.90291,47.92104],[4.92858,47.88623],[4.92746,47.87155],[4.95409,47.86677],[4.9634,47.85221],[4.96043,47.8394],[4.99413,47.81975],[4.98226,47.80009],[4.91796,47.77709],[4.9238,47.77342],[4.91714,47.7669],[4.9267,47.76484],[4.92268,47.75895],[4.94741,47.76659],[4.95899,47.76187],[4.96615,47.74056],[4.9568,47.73245],[4.97003,47.73553],[4.97166,47.72941],[4.95414,47.70146],[4.97198,47.69157],[4.96909,47.68583],[4.99675,47.68997],[5.00465,47.70122],[5.02915,47.70992],[5.02877,47.69328],[5.06065,47.69479],[5.04359,47.67652],[5.0535,47.66827],[5.06916,47.66858],[5.08612,47.65662],[5.10396,47.65885],[5.10888,47.64968],[5.12537,47.64677],[5.13857,47.65086],[5.16186,47.6805],[5.17834,47.68095],[5.1736,47.65257],[5.21141,47.64189],[5.23694,47.61678],[5.2586,47.62221],[5.23802,47.59654],[5.25312,47.57685],[5.2779,47.58136],[5.27783,47.58978],[5.29821,47.60434],[5.32234,47.61236],[5.34103,47.60837],[5.34073,47.59623],[5.35557,47.59147],[5.37408,47.60454],[5.3726,47.61839],[5.38582,47.63511],[5.40575,47.64687],[5.39905,47.65325],[5.40634,47.6734],[5.42018,47.67767],[5.4475,47.67083],[5.48277,47.68463],[5.52978,47.67283],[5.56739,47.70712],[5.58509,47.70015],[5.59668,47.67169],[5.69106,47.68463],[5.69353,47.70481],[5.68342,47.71671],[5.69522,47.726],[5.69039,47.73515],[5.70958,47.7453],[5.70753,47.76755],[5.67997,47.76997],[5.67661,47.77916],[5.68153,47.80911],[5.69224,47.82133],[5.74076,47.8192],[5.75108,47.82903],[5.7442,47.84885],[5.76119,47.85933],[5.79888,47.8557],[5.79608,47.84675],[5.82798,47.85187],[5.81785,47.85325],[5.82806,47.85803],[5.8207,47.8691],[5.83748,47.89124],[5.85132,47.90599],[5.8873,47.90364],[5.88957,47.92059],[5.88358,47.92491],[5.89718,47.93098],[5.8929,47.93714],[5.90011,47.94475],[5.91804,47.94736],[5.91738,47.96623],[5.93249,47.97729],[5.94749,47.97922],[5.96013,47.96803],[5.92839,47.93781],[5.94939,47.93545],[5.9689,47.94741],[5.97078,47.95721],[6.00527,47.95784],[6.02609,47.98145],[6.019,47.98748],[6.03216,47.99062],[6.04118,48.00442],[6.07277,48.0158],[6.10923,48.01247],[6.1314,48.02408],[6.15606,48.00694],[6.15265,47.99414],[6.15956,47.99229],[6.16455,47.97311],[6.14981,47.96592],[6.15706,47.96793],[6.16798,47.95235],[6.18202,47.9563],[6.20806,47.94676],[6.20522,47.93205],[6.23799,47.93284],[6.28908,47.95584],[6.32327,47.94883],[6.36155,47.96134],[6.38893,47.96079],[6.40536,47.95311],[6.40842,47.94319],[6.43473,47.94285],[6.44916,47.92173],[6.46274,47.91733],[6.45596,47.90677],[6.47798,47.89304],[6.47826,47.88544],[6.54401,47.90309],[6.56342,47.93139],[6.60737,47.94379],[6.64191,47.91776],[6.64642,47.90323],[6.73784,47.86167],[6.78261,47.85128],[6.79268,47.82946],[6.82354,47.81305],[6.84308,47.82505],[6.84845,47.80187],[6.86699,47.78331],[6.94043,47.77157],[6.97227,47.75147],[7.01596,47.74323],[7.03742,47.72164],[7.02649,47.701],[7.04803,47.6841],[7.03791,47.6745],[7.04506,47.66935],[7.03418,47.66109],[7.03919,47.65057],[7.0176,47.64986],[7.01917,47.64125],[7.01207,47.63932],[7.01693,47.62719],[7.00593,47.62892],[7.00594,47.60236],[7.01932,47.5961],[7.01956,47.58854],[7.03978,47.60115],[7.08107,47.59612],[7.09417,47.57364],[7.10553,47.56889],[7.10687,47.55054],[7.13363,47.53896],[7.14346,47.52461],[7.13432,47.50503],[7.11106,47.4949],[7.07438,47.48834],[7.02102,47.50439],[6.98251,47.4935],[7.0019,47.45394],[6.97,47.44688],[6.9631,47.4354],[6.94054,47.43337],[6.93838,47.40602],[6.91446,47.40413],[6.91296,47.38735],[6.8854,47.3746],[6.87927,47.35245],[6.90167,47.35936],[6.97445,47.35984],[7.01556,47.37279],[7.04825,47.36218],[7.04983,47.34775],[7.06221,47.34416],[7.05675,47.33457],[7.0462,47.32698],[7.00973,47.32436],[7.01614,47.3136],[6.99706,47.29585],[6.94088,47.28667],[6.95171,47.27019],[6.9464,47.25391],[6.95541,47.24329],[6.88004,47.20033],[6.87415,47.18546],[6.84117,47.17126],[6.85819,47.16543],[6.85017,47.15662],[6.80571,47.13042],[6.74049,47.10947],[6.74642,47.09808],[6.74109,47.09106],[6.70279,47.08158],[6.70606,47.07393],[6.69167,47.06651],[6.71861,47.05084],[6.65872,47.02657],[6.64035,47.00276],[6.61733,46.99164],[6.59613,46.99252],[6.50522,46.96585],[6.49669,46.97418],[6.43267,46.9286],[6.46458,46.89021],[6.46006,46.85168],[6.44263,46.83235],[6.44071,46.81584],[6.431,46.81241],[6.43483,46.80146],[6.45857,46.7885],[6.45222,46.77413],[6.43018,46.75672],[6.39507,46.74825],[6.38409,46.73103],[6.3681,46.72924],[6.37172,46.72412],[6.28197,46.69063],[6.17857,46.61548],[6.11162,46.5776],[6.15645,46.54547],[6.14461,46.52839],[6.13786,46.53088],[6.1127,46.50964],[6.09683,46.48121],[6.07268,46.4657],[6.08584,46.441],[6.03615,46.3916],[5.98354,46.36304],[5.94136,46.30873],[5.92177,46.31223],[5.9092,46.28394],[5.89463,46.28661],[5.86919,46.26497],[5.86433,46.27121],[5.85307,46.26151],[5.76565,46.26829],[5.72518,46.26073],[5.71449,46.28091],[5.71472,46.30877],[5.64443,46.3248],[5.6498,46.33419],[5.64314,46.34478],[5.63051,46.33021],[5.61324,46.3272],[5.59354,46.29436],[5.56516,46.29345],[5.5391,46.2688],[5.47385,46.26428],[5.45684,46.27448],[5.4753,46.31539],[5.46692,46.32327],[5.43783,46.3157],[5.42366,46.34768],[5.41683,46.34526],[5.41024,46.3091],[5.40465,46.31034],[5.40142,46.33955],[5.38058,46.34579],[5.37346,46.35224],[5.37705,46.36412],[5.36282,46.3699],[5.37788,46.38223],[5.36267,46.39425],[5.2988,46.41268],[5.32447,46.42849],[5.3149,46.44513],[5.25765,46.44985],[5.21506,46.46836],[5.20186,46.50826],[5.16728,46.51907],[5.16625,46.50312],[5.13507,46.50898],[5.13436,46.50148],[5.11455,46.49265],[5.09725,46.49996],[5.07668,46.48623],[5.05643,46.48393],[5.01297,46.50129],[5.01059,46.51107],[4.98355,46.51539],[4.96266,46.51234],[4.97168,46.50725],[4.95006,46.50081],[4.9442,46.51063],[4.95454,46.51269],[4.94125,46.51965],[4.94237,46.51302],[4.93359,46.51244],[4.91556,46.48894],[4.91354,46.46074],[4.89354,46.44404],[4.88821,46.40298],[4.85146,46.35627],[4.85342,46.3299],[4.82497,46.27315],[4.81099,46.25992],[4.78021,46.17668],[4.75164,46.17234],[4.72726,46.17912],[4.72068,46.20072],[4.73568,46.2117],[4.71953,46.22788],[4.73666,46.23247],[4.70505,46.25123],[4.69324,46.24823],[4.68174,46.25549],[4.68158,46.26675],[4.70769,46.26965],[4.71039,46.27857],[4.69341,46.30142],[4.6792,46.30626],[4.66404,46.29501],[4.65273,46.30402],[4.63682,46.30066],[4.63624,46.29014],[4.61643,46.28216],[4.61856,46.26479],[4.58377,46.26949],[4.57294,46.27592],[4.56883,46.29385],[4.56025,46.29524],[4.54645,46.27392],[4.504,46.26713],[4.48846,46.28799],[4.47591,46.28405],[4.45863,46.29693],[4.43876,46.29338],[4.42704,46.30282],[4.42187,46.29495],[4.40581,46.29606],[4.38545,46.24684],[4.39241,46.23542],[4.38592,46.22604],[4.38938,46.21329],[4.36283,46.20004],[4.37394,46.18684],[4.32709,46.18479],[4.31531,46.17064],[4.29231,46.17248],[4.28123,46.15594],[4.24991,46.15818],[4.24866,46.16711],[4.26352,46.17536],[4.25491,46.18801],[4.22469,46.178],[4.20791,46.19484],[4.18524,46.1894],[4.18701,46.17457],[4.13339,46.17732],[4.10383,46.19844],[4.05886,46.18806],[4.0305,46.16977],[3.99012,46.16911],[3.97097,46.18915],[3.97255,46.20271],[3.91837,46.20285],[3.89013,46.21449],[3.89765,46.23963],[3.90487,46.23786],[3.90969,46.24778],[3.90473,46.27354],[3.89124,46.28525],[3.89722,46.29246],[3.94543,46.30046],[3.94578,46.32124],[3.98981,46.31508],[3.98941,46.32296],[4.00457,46.32748],[3.98474,46.32973],[3.99161,46.36963],[3.97722,46.39922],[3.9887,46.40877],[3.98408,46.41963],[3.9961,46.42738],[3.98945,46.43782],[4.00554,46.44246],[3.99745,46.45026],[4.00081,46.46245],[3.97683,46.47895],[3.95233,46.47849],[3.95572,46.49168],[3.91016,46.49538],[3.89521,46.48069],[3.86491,46.48974],[3.8638,46.51274],[3.84187,46.51421],[3.84647,46.52436],[3.83916,46.53129],[3.80513,46.51932],[3.77253,46.5385],[3.74185,46.53951],[3.73154,46.54958],[3.7431,46.5655],[3.73732,46.60157],[3.71412,46.60841],[3.72399,46.62633],[3.70919,46.63533],[3.69695,46.66058],[3.66898,46.67351],[3.67315,46.68184],[3.65783,46.68516],[3.65066,46.70517],[3.63764,46.70748],[3.63759,46.72453],[3.6226,46.74013],[3.62942,46.74946]]]}}]}