{"type":"FeatureCollection","features":[{"type":"Feature","properties":{"name":"France"},"geometry":{"type":"MultiPolygon","coordinates":[[[[7.13035,47.50303],[7.07589,47.48819],[7.02102,47.50439],[6.98251,47.4935],[7.0019,47.45394],[6.94054,47.43337],[6.93838,47.40602],[6.91446,47.40413],[6.87927,47.35245],[7.01556,47.37279],[7.04825,47.36218],[7.05675,47.33457],[7.00973,47.32436],[7.01614,47.3136],[6.99706,47.29585],[6.94088,47.28667],[6.95541,47.24329],[6.84117,47.17126],[6.85819,47.16543],[6.85017,47.15662],[6.70279,47.08158],[6.69167,47.06651],[6.71861,47.05084],[6.61733,46.99164],[6.49669,46.97418],[6.43267,46.9286],[6.46458,46.89021],[6.46006,46.85168],[6.431,46.81241],[6.45857,46.7885],[6.45222,46.77413],[6.28197,46.69063],[6.11162,46.5776],[6.15645,46.54547],[6.07268,46.4657],[6.08635,46.44372],[6.06401,46.41623],[6.17022,46.36648],[6.10237,46.28485],[6.12425,46.25101],[5.97474,46.21512],[5.96368,46.19696],[5.99529,46.18299],[5.95606,46.13209],[5.99278,46.14442],[6.03671,46.13646],[6.05204,46.1514],[6.13618,46.14153],[6.22187,46.2006],[6.29447,46.22492],[6.30953,46.25625],[6.29488,46.26459],[6.26662,46.24747],[6.23758,46.27775],[6.25767,46.32551],[6.30521,46.36676],[6.34468,46.37001],[6.38911,46.34012],[6.51307,46.40479],[6.54388,46.39482],[6.72387,46.40796],[6.80531,46.39414],[6.77199,46.35031],[6.86449,46.27961],[6.80366,46.20435],[6.8127,46.18164],[6.79198,46.16223],[6.79654,46.13862],[6.89993,46.1239],[6.87558,46.04774],[6.93791,46.06328],[6.9851,46.00465],[7.01048,45.99738],[7.02321,45.97847],[7.00901,45.96897],[7.03761,45.9543],[7.04507,45.92245],[7.01831,45.91437],[6.99145,45.86798],[6.94137,45.84693],[6.87914,45.84915],[6.86738,45.82409],[6.84436,45.84046],[6.81889,45.8362],[6.80084,45.78078],[6.81725,45.7403],[6.80842,45.72515],[6.8563,45.68551],[6.90253,45.68094],[6.91483,45.65173],[7.00069,45.6399],[6.97801,45.58718],[6.997,45.5689],[7.00033,45.50442],[7.05457,45.49497],[7.04799,45.47344],[7.10303,45.46845],[7.11435,45.43349],[7.18589,45.40323],[7.16302,45.38092],[7.16451,45.36066],[7.11117,45.32694],[7.13759,45.25569],[7.07994,45.21276],[7.04721,45.22581],[6.96575,45.20795],[6.94713,45.17076],[6.89161,45.16704],[6.89235,45.13682],[6.84789,45.1272],[6.76795,45.15974],[6.74002,45.13674],[6.68007,45.14012],[6.62671,45.10376],[6.66211,45.07164],[6.67388,45.01962],[6.7454,45.0143],[6.75169,44.99663],[6.73785,44.98923],[6.76525,44.96197],[6.74414,44.93721],[6.7609,44.9332],[6.75071,44.90565],[6.86324,44.85061],[6.91316,44.84499],[6.93121,44.86353],[7.02384,44.82307],[6.9994,44.78968],[7.02229,44.77079],[7.02991,44.72976],[7.06602,44.71333],[7.07711,44.68092],[7.02373,44.6913],[6.96318,44.67811],[6.94769,44.65368],[6.96837,44.6198],[6.94926,44.61918],[6.91498,44.55884],[6.87856,44.55434],[6.8534,44.52881],[6.87737,44.48079],[6.94809,44.4297],[6.89287,44.42078],[6.88743,44.36105],[6.92257,44.35073],[6.96053,44.31085],[6.95753,44.29511],[6.99572,44.27988],[7.00852,44.23524],[7.18613,44.20135],[7.28136,44.14087],[7.34467,44.14474],[7.358,44.11602],[7.39289,44.12503],[7.42475,44.11193],[7.42979,44.12975],[7.56482,44.15517],[7.62005,44.14951],[7.63662,44.1771],[7.68459,44.17402],[7.66656,44.13112],[7.71881,44.08253],[7.71444,44.06122],[7.66225,44.02822],[7.67044,43.99826],[7.65244,43.97371],[7.56938,43.94742],[7.56195,43.89974],[7.49788,43.87165],[7.5292,43.784],[7.49021,43.7672],[7.48683,43.749],[7.45305,43.75841],[7.40575,43.71937],[7.3376,43.71172],[7.33388,43.68961],[7.34974,43.68701],[7.3313,43.67452],[7.31472,43.70653],[7.30402,43.68483],[7.28417,43.69782],[7.24065,43.68777],[7.21162,43.64732],[7.15698,43.65349],[7.1218,43.58704],[7.14056,43.56893],[7.13637,43.54458],[7.119,43.54289],[7.12175,43.5595],[7.09626,43.57089],[7.03773,43.53471],[7.01657,43.55077],[6.96333,43.54216],[6.93837,43.51639],[6.95705,43.5008],[6.93109,43.48364],[6.92398,43.4505],[6.89167,43.42845],[6.85974,43.43325],[6.85631,43.41152],[6.74549,43.41789],[6.71407,43.37179],[6.71655,43.3475],[6.68003,43.3403],[6.67131,43.3126],[6.58387,43.2773],[6.59347,43.26226],[6.64017,43.27436],[6.66521,43.26489],[6.6758,43.27849],[6.69763,43.26647],[6.66443,43.24135],[6.66429,43.21183],[6.68109,43.19982],[6.64305,43.1871],[6.64664,43.16771],[6.61829,43.15942],[6.60173,43.18209],[6.562,43.18909],[6.49664,43.15119],[6.38445,43.14402],[6.35976,43.1199],[6.36435,43.08631],[6.32152,43.09139],[6.27494,43.12074],[6.20103,43.11606],[6.15475,43.07984],[6.15204,43.03718],[6.17266,43.03282],[6.14877,43.0259],[6.09126,43.03536],[6.13161,43.04801],[6.11399,43.08366],[6.02154,43.07826],[6.02347,43.09481],[6.00546,43.10396],[5.92568,43.10231],[5.93433,43.1186],[5.92063,43.12391],[5.88054,43.105],[5.90999,43.09992],[5.89679,43.08048],[5.9382,43.08456],[5.94704,43.06775],[5.8902,43.07804],[5.859,43.04802],[5.82881,43.04936],[5.79239,43.06869],[5.8125,43.09587],[5.80821,43.11519],[5.76734,43.11554],[5.78096,43.13012],[5.77125,43.13893],[5.69488,43.14359],[5.68674,43.17968],[5.62417,43.18698],[5.60414,43.16035],[5.56929,43.17488],[5.53569,43.21417],[5.49987,43.19689],[5.45893,43.21119],[5.34182,43.21257],[5.37605,43.25516],[5.34546,43.28161],[5.37348,43.29418],[5.36024,43.29567],[5.36406,43.3141],[5.35107,43.33471],[5.3142,43.36003],[5.22938,43.32873],[5.05019,43.32495],[5.01988,43.34233],[5.02528,43.35553],[4.98685,43.39224],[5.00107,43.39822],[4.97477,43.40122],[4.97,43.42488],[4.91933,43.43091],[4.8935,43.40412],[4.88472,43.41372],[4.90342,43.42966],[4.88222,43.41928],[4.86083,43.45398],[4.85025,43.4508],[4.87731,43.41051],[4.82444,43.42439],[4.86147,43.40077],[4.84154,43.4036],[4.83868,43.39453],[4.87183,43.39004],[4.82891,43.37589],[4.88305,43.3565],[4.91753,43.37989],[4.85505,43.33262],[4.75879,43.35004],[4.65913,43.34625],[4.56075,43.37397],[4.55743,43.38832],[4.59296,43.40994],[4.55492,43.44622],[4.18372,43.46757],[4.12314,43.4942],[4.11651,43.5083],[4.13912,43.5319],[4.12162,43.54708],[4.00701,43.55166],[3.88608,43.50674],[3.79666,43.44104],[3.72492,43.41579],[3.72563,43.40119],[3.64313,43.38314],[3.50951,43.27172],[3.40855,43.2887],[3.28712,43.24199],[3.18068,43.16827],[3.10718,43.08917],[3.04252,42.95899],[3.03963,42.93129],[3.06071,42.91742],[3.03983,42.71103],[3.02447,42.70388],[3.03895,42.70121],[3.05184,42.54395],[3.1411,42.51521],[3.12334,42.50594],[3.13561,42.49969],[3.12754,42.48732],[3.15514,42.47745],[3.1736,42.43587],[3.0861,42.42519],[3.04046,42.47439],[2.96735,42.46536],[2.94709,42.4818],[2.91845,42.45608],[2.83954,42.45929],[2.77697,42.41195],[2.73345,42.42445],[2.67394,42.4047],[2.67142,42.38753],[2.65149,42.38641],[2.67548,42.34238],[2.57086,42.35795],[2.53272,42.33305],[2.48121,42.34064],[2.43346,42.37709],[2.43246,42.39326],[2.25672,42.43844],[2.20161,42.41638],[2.15088,42.42113],[2.08463,42.36177],[2.01541,42.34678],[1.96474,42.38164],[1.93688,42.45359],[1.89136,42.44779],[1.82352,42.48624],[1.73067,42.49275],[1.72181,42.51704],[1.73453,42.54908],[1.78661,42.57431],[1.72612,42.58969],[1.73607,42.61715],[1.60205,42.62548],[1.56239,42.65348],[1.49375,42.65321],[1.46991,42.63565],[1.47423,42.61089],[1.43783,42.60321],[1.41366,42.65552],[1.38778,42.66837],[1.38933,42.68679],[1.35124,42.70266],[1.35738,42.71941],[1.25316,42.71463],[1.22911,42.72772],[1.16593,42.70871],[1.07908,42.78828],[0.98649,42.78652],[0.96013,42.80574],[0.92612,42.7891],[0.85831,42.82572],[0.70838,42.8614],[0.65901,42.83853],[0.67057,42.80543],[0.64539,42.78354],[0.66681,42.7754],[0.64198,42.75468],[0.68003,42.72347],[0.66838,42.68945],[0.59732,42.70584],[0.58916,42.69495],[0.42275,42.69082],[0.3601,42.72429],[0.29514,42.67316],[0.26346,42.69324],[0.25988,42.71581],[0.17573,42.737],[-0.01658,42.68489],[-0.05981,42.69343],[-0.06884,42.7179],[-0.1068,42.7205],[-0.16087,42.79832],[-0.18942,42.7866],[-0.31344,42.84938],[-0.39494,42.79892],[-0.44348,42.79592],[-0.50542,42.82728],[-0.52973,42.79153],[-0.56693,42.78053],[-0.56602,42.80379],[-0.60076,42.80631],[-0.60363,42.83262],[-0.67841,42.8844],[-0.73185,42.89605],[-0.73057,42.94549],[-0.75296,42.96771],[-0.81477,42.95104],[-0.90757,42.96428],[-0.94383,42.95319],[-1.01659,42.99468],[-1.07418,42.99861],[-1.11471,43.02386],[-1.14221,43.00798],[-1.1641,43.03486],[-1.23016,43.05538],[-1.26298,43.04339],[-1.30928,43.06865],[-1.27019,43.11857],[-1.32061,43.11275],[-1.34511,43.09402],[-1.3537,43.02824],[-1.44122,43.04631],[-1.47321,43.08676],[-1.41478,43.12789],[-1.40202,43.17787],[-1.38174,43.18963],[-1.38854,43.25856],[-1.53532,43.29464],[-1.56472,43.28791],[-1.57661,43.24988],[-1.60867,43.25191],[-1.63037,43.28445],[-1.62407,43.30607],[-1.66853,43.31486],[-1.72975,43.29568],[-1.73771,43.3304],[-1.78713,43.35137],[-1.78291,43.36204],[-1.79235,43.3706],[-1.78875,43.37838],[-1.68209,43.39755],[-1.66977,43.38804],[-1.60453,43.43039],[-1.4468,43.64561],[-1.30648,44.17062],[-1.25483,44.45729],[-1.25861,44.54713],[-1.21214,44.59951],[-1.19154,44.66073],[-1.14229,44.65925],[-1.14916,44.64002],[-1.03926,44.65378],[-1.03591,44.64874],[-1.02218,44.6421],[-1.00362,44.64836],[-1.01939,44.67821],[-1.06928,44.69624],[-1.03742,44.69232],[-1.05128,44.70578],[-1.16756,44.77604],[-1.17381,44.74536],[-1.23262,44.69302],[-1.24465,44.6231],[-1.26205,44.6322],[-1.16203,45.29969],[-1.15619,45.47611],[-1.0912,45.56241],[-0.98916,45.58134],[-1.02219,45.62263],[-1.04324,45.61754],[-1.20932,45.6967],[-1.23089,45.69134],[-1.19597,45.67363],[-1.22829,45.67506],[-1.23723,45.7059],[-1.24257,45.78157],[-1.1337,45.80276],[-1.17024,45.85593],[-1.11361,45.8593],[-1.07379,45.91423],[-1.07686,45.9367],[-1.09961,45.94438],[-1.06432,45.94991],[-1.12145,46.00297],[-1.06308,45.99443],[-1.05612,46.03422],[-1.08884,46.05395],[-1.10073,46.0938],[-1.14307,46.10632],[-1.12414,46.11204],[-1.12823,46.12655],[-1.17328,46.13803],[-1.16072,46.15549],[-1.20564,46.14581],[-1.24204,46.15745],[-1.20249,46.18895],[-1.199,46.21325],[-1.11116,46.26134],[-1.11476,46.29158],[-1.1627,46.32375],[-1.20306,46.31574],[-1.20739,46.26657],[-1.2959,46.32393],[-1.30598,46.31919],[-1.29262,46.29148],[-1.27228,46.28942],[-1.29374,46.28869],[-1.34313,46.34285],[-1.46594,46.34236],[-1.51507,46.4043],[-1.64789,46.42016],[-1.77714,46.49276],[-1.81235,46.49342],[-1.85702,46.60985],[-1.94288,46.6927],[-1.96581,46.69194],[-1.99786,46.73239],[-2.14206,46.81906],[-2.15503,46.88965],[-2.11323,46.89601],[-2.1178,46.90832],[-2.04469,46.96804],[-2.02933,47.00985],[-1.98041,47.02891],[-2.00472,47.06146],[-2.10344,47.11436],[-2.24721,47.13247],[-2.2231,47.15388],[-2.16706,47.16618],[-2.15837,47.20905],[-2.18121,47.2351],[-2.16999,47.26848],[-2.18736,47.28062],[-2.29818,47.23312],[-2.37516,47.2788],[-2.42038,47.27645],[-2.41655,47.25872],[-2.4316,47.25832],[-2.54636,47.29065],[-2.51193,47.29958],[-2.50291,47.32875],[-2.52116,47.35881],[-2.55811,47.37568],[-2.4682,47.42091],[-2.43162,47.41575],[-2.45867,47.42361],[-2.44549,47.43564],[-2.45533,47.4469],[-2.49295,47.44791],[-2.501,47.49272],[-2.46744,47.48263],[-2.42053,47.49528],[-2.53422,47.52806],[-2.55282,47.51258],[-2.63188,47.50457],[-2.61183,47.50918],[-2.60878,47.52724],[-2.5759,47.52197],[-2.58791,47.52957],[-2.5668,47.53294],[-2.58179,47.53605],[-2.55914,47.55183],[-2.58685,47.56352],[-2.58287,47.5433],[-2.60435,47.53103],[-2.61895,47.55166],[-2.60896,47.56554],[-2.61064,47.5676],[-2.62935,47.54947],[-2.61637,47.53719],[-2.62602,47.53069],[-2.67028,47.54303],[-2.62113,47.52541],[-2.66434,47.51864],[-2.67492,47.49186],[-2.72464,47.50642],[-2.81531,47.48665],[-2.85027,47.49879],[-2.84736,47.51938],[-2.90358,47.53435],[-2.8926,47.54435],[-2.91276,47.54222],[-2.91449,47.55741],[-2.87853,47.56382],[-2.85333,47.53701],[-2.82718,47.55007],[-2.83048,47.5456],[-2.82719,47.53651],[-2.82372,47.53635],[-2.82428,47.55651],[-2.80672,47.55603],[-2.79999,47.53741],[-2.78767,47.55251],[-2.76762,47.53568],[-2.73464,47.54086],[-2.71851,47.58749],[-2.71083,47.57602],[-2.68931,47.59088],[-2.68669,47.63146],[-2.70262,47.63208],[-2.68985,47.63731],[-2.71245,47.64841],[-2.7028,47.62269],[-2.71726,47.61985],[-2.70126,47.61848],[-2.69564,47.6098],[-2.71733,47.61431],[-2.70275,47.60251],[-2.72121,47.58999],[-2.72106,47.60311],[-2.77821,47.61872],[-2.73364,47.61279],[-2.7549,47.63777],[-2.77815,47.62778],[-2.79408,47.64501],[-2.78328,47.62093],[-2.86278,47.62208],[-2.8587,47.60145],[-2.8898,47.60257],[-2.88526,47.5788],[-2.89046,47.57415],[-2.9081,47.59156],[-2.92552,47.5859],[-2.9182,47.60273],[-2.92706,47.59187],[-2.92744,47.60123],[-2.93324,47.60584],[-2.93676,47.58571],[-2.95108,47.60976],[-2.93637,47.62602],[-2.95885,47.62739],[-2.95816,47.6386],[-2.97829,47.65909],[-2.9536,47.61221],[-2.97227,47.60766],[-2.9543,47.59717],[-2.97015,47.58834],[-2.92658,47.55687],[-2.97607,47.55904],[-2.99443,47.59069],[-2.98899,47.567],[-3.00447,47.56598],[-3.02456,47.59205],[-3.01918,47.56724],[-3.04474,47.58738],[-3.05436,47.56927],[-3.09543,47.56374],[-3.10652,47.57525],[-3.09232,47.57903],[-3.12703,47.59836],[-3.12948,47.57499],[-3.1156,47.57546],[-3.12975,47.52191],[-3.08097,47.47038],[-3.13297,47.47496],[-3.15961,47.5256],[-3.13442,47.5459],[-3.13975,47.5796],[-3.21087,47.64303],[-3.20921,47.6698],[-3.16228,47.68014],[-3.13232,47.70153],[-3.16884,47.69687],[-3.14836,47.70361],[-3.14908,47.71642],[-3.13149,47.70391],[-3.12527,47.7258],[-3.10311,47.71823],[-3.10947,47.72802],[-3.12786,47.7282],[-3.15262,47.71891],[-3.13484,47.74734],[-3.14988,47.75051],[-3.16008,47.72898],[-3.18601,47.74637],[-3.19364,47.74839],[-3.20083,47.74489],[-3.16974,47.72807],[-3.16569,47.70455],[-3.19463,47.70354],[-3.1973,47.6875],[-3.21626,47.69579],[-3.19944,47.68375],[-3.21855,47.66534],[-3.2146,47.64488],[-3.30046,47.68943],[-3.35929,47.68693],[-3.32505,47.70208],[-3.28576,47.68618],[-3.27765,47.69032],[-3.31087,47.70945],[-3.35224,47.70287],[-3.36541,47.7103],[-3.3427,47.71592],[-3.34784,47.73456],[-3.30571,47.74811],[-3.282,47.77793],[-3.29071,47.79126],[-3.27773,47.79441],[-3.29024,47.79312],[-3.29569,47.78651],[-3.28681,47.77283],[-3.31813,47.75612],[-3.32621,47.76609],[-3.32291,47.74831],[-3.34425,47.74159],[-3.37872,47.79716],[-3.38542,47.80463],[-3.39181,47.8049],[-3.39237,47.80699],[-3.3897,47.8083],[-3.38622,47.81694],[-3.38851,47.82828],[-3.39942,47.80908],[-3.35241,47.7535],[-3.35583,47.73241],[-3.38739,47.70165],[-3.45013,47.69515],[-3.52865,47.76544],[-3.5179,47.80314],[-3.54082,47.82927],[-3.53829,47.83602],[-3.52401,47.8449],[-3.523,47.84915],[-3.54208,47.86284],[-3.52759,47.84401],[-3.53856,47.83786],[-3.54144,47.83122],[-3.5419,47.82146],[-3.52125,47.79887],[-3.53863,47.76264],[-3.64607,47.77466],[-3.64403,47.78853],[-3.68084,47.77679],[-3.72262,47.80335],[-3.69697,47.81902],[-3.64975,47.82079],[-3.64117,47.8284],[-3.69059,47.82018],[-3.69552,47.83106],[-3.73268,47.80346],[-3.7418,47.81237],[-3.74561,47.83508],[-3.74899,47.84514],[-3.75183,47.84716],[-3.74196,47.79748],[-3.85605,47.78961],[-3.85458,47.80399],[-3.90245,47.83572],[-3.88063,47.85916],[-3.90921,47.85033],[-3.91937,47.85637],[-3.90593,47.85605],[-3.90084,47.86237],[-3.93052,47.87075],[-3.94745,47.90024],[-3.97322,47.8947],[-3.97729,47.90968],[-3.99228,47.89588],[-3.97711,47.8538],[-4.03981,47.84465],[-4.0883,47.86206],[-4.04696,47.85166],[-4.07895,47.87661],[-4.09936,47.8625],[-4.14474,47.90934],[-4.13871,47.92587],[-4.13127,47.92543],[-4.13026,47.93026],[-4.11633,47.93058],[-4.10979,47.93636],[-4.10942,47.94211],[-4.10395,47.9397],[-4.09932,47.94303],[-4.09571,47.93827],[-4.07899,47.93652],[-4.07775,47.93736],[-4.09488,47.94129],[-4.08364,47.95151],[-4.10949,47.94269],[-4.09522,47.96717],[-4.11717,47.9835],[-4.101,47.97054],[-4.12213,47.95318],[-4.1108,47.93644],[-4.13061,47.93151],[-4.13332,47.92567],[-4.14078,47.92634],[-4.15092,47.91058],[-4.14561,47.89738],[-4.17633,47.90713],[-4.13041,47.88997],[-4.11331,47.86204],[-4.16981,47.83949],[-4.17883,47.87897],[-4.19565,47.87613],[-4.19784,47.85864],[-4.20676,47.86622],[-4.21142,47.86762],[-4.21565,47.86603],[-4.18319,47.83612],[-4.15884,47.83154],[-4.18298,47.80022],[-4.2168,47.81208],[-4.21921,47.7921],[-4.37419,47.79798],[-4.38063,47.82017],[-4.34604,47.84021],[-4.38359,47.92086],[-4.4509,47.98105],[-4.53671,48.01164],[-4.53113,48.0349],[-4.48818,48.03845],[-4.53971,48.03828],[-4.53547,48.01713],[-4.56475,47.99983],[-4.63296,48.02937],[-4.69727,48.02615],[-4.7408,48.04058],[-4.70788,48.04406],[-4.7143,48.06435],[-4.55163,48.07634],[-4.41613,48.10672],[-4.36249,48.10926],[-4.33347,48.08457],[-4.32758,48.09966],[-4.30439,48.08943],[-4.26898,48.13343],[-4.27308,48.15418],[-4.29538,48.1583],[-4.29118,48.17573],[-4.31612,48.20382],[-4.36907,48.20505],[-4.46391,48.23938],[-4.50165,48.23042],[-4.4973,48.21677],[-4.55413,48.16777],[-4.55205,48.20839],[-4.57156,48.23147],[-4.54329,48.24908],[-4.62331,48.25323],[-4.6151,48.27248],[-4.62944,48.2808],[-4.56992,48.28194],[-4.5826,48.31941],[-4.53443,48.34186],[-4.55959,48.30565],[-4.53577,48.28394],[-4.4993,48.31117],[-4.51791,48.29532],[-4.5026,48.28086],[-4.41911,48.29313],[-4.4099,48.27603],[-4.38543,48.27514],[-4.27236,48.29601],[-4.26565,48.28459],[-4.28252,48.28891],[-4.28902,48.27425],[-4.25573,48.26358],[-4.26619,48.25733],[-4.2439,48.24966],[-4.2177,48.25818],[-4.21487,48.24841],[-4.2087,48.24197],[-4.13541,48.23622],[-4.11357,48.24456],[-4.11685,48.21828],[-4.09695,48.25554],[-4.13485,48.24144],[-4.21672,48.261],[-4.23841,48.25367],[-4.28014,48.27863],[-4.18834,48.29689],[-4.23859,48.29952],[-4.22671,48.31357],[-4.24739,48.29901],[-4.2819,48.31247],[-4.24916,48.32684],[-4.33587,48.31574],[-4.26452,48.35818],[-4.33004,48.33865],[-4.31848,48.36218],[-4.35546,48.34332],[-4.34655,48.35473],[-4.37818,48.3255],[-4.41524,48.32423],[-4.39721,48.3422],[-4.45739,48.32707],[-4.40753,48.38054],[-4.31029,48.41736],[-4.27914,48.43562],[-4.27009,48.44504],[-4.40169,48.3896],[-4.43068,48.39744],[-4.43727,48.3825],[-4.48385,48.38263],[-4.60872,48.33789],[-4.69066,48.35466],[-4.71666,48.3296],[-4.77366,48.33031],[-4.78072,48.35859],[-4.75064,48.36012],[-4.74608,48.36565],[-4.7864,48.3613],[-4.76069,48.37817],[-4.79542,48.41466],[-4.76457,48.46687],[-4.71963,48.4756],[-4.76252,48.4721],[-4.77603,48.51917],[-4.74798,48.52798],[-4.75296,48.54392],[-4.73058,48.55635],[-4.70394,48.55132],[-4.70441,48.57003],[-4.62582,48.57878],[-4.59663,48.57158],[-4.59067,48.55452],[-4.50535,48.5459],[-4.61227,48.57825],[-4.59831,48.60801],[-4.58568,48.60192],[-4.59531,48.59329],[-4.54352,48.5983],[-4.52142,48.58461],[-4.47845,48.57298],[-4.56828,48.60907],[-4.54376,48.63649],[-4.5013,48.62094],[-4.44087,48.64133],[-4.39881,48.63602],[-4.39791,48.63806],[-4.40463,48.64128],[-4.43252,48.64751],[-4.43656,48.65472],[-4.32979,48.67712],[-4.29407,48.66174],[-4.31811,48.64635],[-4.29694,48.63264],[-4.27446,48.64953],[-4.196,48.65222],[-4.22211,48.65857],[-4.18639,48.68649],[-4.12932,48.69688],[-4.08091,48.69295],[-4.05579,48.67109],[-4.06608,48.68531],[-4.06195,48.68762],[-4.05496,48.68525],[-4.04778,48.68774],[-4.05195,48.70429],[-3.97088,48.72727],[-3.9715,48.67409],[-3.94998,48.67262],[-3.95631,48.61591],[-3.93501,48.59868],[-3.95132,48.65021],[-3.92209,48.67551],[-3.89111,48.67089],[-3.90469,48.65684],[-3.85858,48.62954],[-3.86773,48.60406],[-3.85152,48.6067],[-3.84598,48.62676],[-3.81661,48.62859],[-3.84543,48.62892],[-3.86426,48.67133],[-3.84626,48.66018],[-3.85443,48.68928],[-3.83093,48.7119],[-3.82078,48.70135],[-3.82095,48.71822],[-3.68031,48.68668],[-3.64327,48.69591],[-3.65478,48.6824],[-3.63926,48.67334],[-3.65512,48.66534],[-3.65914,48.65921],[-3.63499,48.67122],[-3.62405,48.68624],[-3.60967,48.66966],[-3.57298,48.67492],[-3.5843,48.71853],[-3.55537,48.72751],[-3.54959,48.74667],[-3.58499,48.75701],[-3.58593,48.77739],[-3.567,48.7979],[-3.53518,48.80203],[-3.54133,48.82268],[-3.51957,48.81898],[-3.52567,48.83003],[-3.50352,48.8387],[-3.50306,48.82429],[-3.48081,48.83784],[-3.46037,48.81678],[-3.42823,48.82039],[-3.44056,48.79831],[-3.39754,48.80075],[-3.32206,48.83803],[-3.26433,48.8342],[-3.22448,48.86992],[-3.20601,48.84739],[-3.21827,48.83529],[-3.20273,48.83492],[-3.23669,48.78876],[-3.21969,48.78378],[-3.18282,48.84377],[-3.07417,48.88202],[-3.10145,48.86662],[-3.08513,48.86735],[-3.07595,48.85774],[-3.0935,48.86069],[-3.08417,48.84725],[-3.09751,48.83241],[-3.07162,48.83057],[-3.12348,48.76008],[-3.09765,48.76893],[-3.10418,48.78048],[-3.07277,48.82042],[-3.00899,48.81965],[-3.00493,48.799],[-3.0464,48.78557],[-3.00994,48.78215],[-3.02874,48.77801],[-3.01581,48.76632],[-2.9516,48.77167],[-2.92846,48.75475],[-2.9451,48.72081],[-2.82653,48.65536],[-2.81413,48.61023],[-2.82386,48.59721],[-2.71427,48.55564],[-2.72111,48.53131],[-2.68157,48.4917],[-2.68209,48.53201],[-2.63029,48.52609],[-2.55288,48.59953],[-2.47343,48.62252],[-2.46813,48.63581],[-2.48786,48.64515],[-2.43772,48.65281],[-2.41709,48.63309],[-2.31772,48.68865],[-2.31273,48.67214],[-2.28521,48.66448],[-2.33592,48.62001],[-2.31521,48.60997],[-2.24742,48.64605],[-2.25473,48.63261],[-2.21408,48.59294],[-2.21286,48.57276],[-2.19155,48.59231],[-2.1951,48.60902],[-2.17686,48.57623],[-2.14895,48.61855],[-2.12371,48.60441],[-2.15067,48.63474],[-2.04732,48.63788],[-2.05373,48.62569],[-2.03364,48.62674],[-2.03087,48.60443],[-1.99578,48.58266],[-2.01299,48.57065],[-1.97372,48.54413],[-1.9928,48.52332],[-1.98243,48.50058],[-1.99484,48.49757],[-2.00166,48.49173],[-1.98162,48.49835],[-1.96473,48.52633],[-1.9525,48.51828],[-1.94818,48.51917],[-1.94804,48.53881],[-1.9694,48.53655],[-1.96307,48.55594],[-1.97753,48.55695],[-1.98704,48.58451],[-1.95419,48.57898],[-1.96292,48.59287],[-2.01334,48.59951],[-2.00118,48.61515],[-2.01513,48.61398],[-2.02858,48.65031],[-1.98882,48.66457],[-1.98848,48.68414],[-1.93807,48.68398],[-1.95944,48.69054],[-1.93712,48.70234],[-1.9047,48.68995],[-1.84512,48.71175],[-1.8358,48.6803],[-1.86272,48.66728],[-1.8687,48.63811],[-1.84052,48.61406],[-1.76771,48.60239],[-1.54354,48.63121],[-1.51194,48.61321],[-1.44869,48.62348],[-1.42493,48.64358],[-1.35175,48.63122],[-1.39961,48.65553],[-1.39842,48.66409],[-1.37599,48.68507],[-1.37611,48.69039],[-1.44577,48.65477],[-1.44929,48.67],[-1.50494,48.6874],[-1.52928,48.73012],[-1.57101,48.74422],[-1.57444,48.82168],[-1.61443,48.83422],[-1.58484,48.84893],[-1.56434,48.92158],[-1.55324,48.93421],[-1.56063,48.91333],[-1.55452,48.89391],[-1.54993,48.89636],[-1.55681,49.02665],[-1.53452,49.03406],[-1.50553,49.02037],[-1.54256,49.04132],[-1.56013,49.03671],[-1.57623,49.00041],[-1.59888,49.03737],[-1.60883,49.1056],[-1.58107,49.13167],[-1.61363,49.21876],[-1.56856,49.22164],[-1.61469,49.23795],[-1.62552,49.21006],[-1.67839,49.28207],[-1.65736,49.28182],[-1.6853,49.2885],[-1.71117,49.3251],[-1.69784,49.32453],[-1.6746,49.33201],[-1.71942,49.32498],[-1.7871,49.37459],[-1.75692,49.36819],[-1.75865,49.37336],[-1.77155,49.38002],[-1.80916,49.3721],[-1.84817,49.50375],[-1.88661,49.52635],[-1.839,49.5764],[-1.84584,49.62154],[-1.87235,49.65732],[-1.94689,49.67454],[-1.94219,49.7261],[-1.88291,49.70571],[-1.85179,49.7184],[-1.82286,49.69031],[-1.61545,49.65818],[-1.63124,49.65367],[-1.61516,49.64346],[-1.5999,49.66073],[-1.54182,49.65404],[-1.48693,49.66852],[-1.47326,49.69701],[-1.37099,49.7073],[-1.2662,49.69542],[-1.2721,49.67944],[-1.23913,49.65364],[-1.22866,49.60607],[-1.25429,49.61266],[-1.27212,49.57069],[-1.26975,49.58383],[-1.29623,49.58317],[-1.30747,49.54178],[-1.17115,49.41252],[-1.16173,49.39175],[-1.17754,49.36489],[-1.13605,49.35404],[-1.11554,49.3515],[-1.07267,49.38997],[-0.94723,49.39581],[-0.75529,49.34891],[-0.39661,49.333],[-0.22569,49.28182],[-0.08717,49.29791],[0.01061,49.33061],[0.12975,49.40299],[0.22358,49.42812],[0.34059,49.43432],[0.33932,49.44987],[0.27314,49.45341],[0.27204,49.44245],[0.12125,49.46319],[0.06655,49.51007],[0.15201,49.64324],[0.16423,49.68646],[0.20599,49.71419],[0.33666,49.74677],[0.58353,49.85262],[0.79097,49.87575],[0.9593,49.91951],[1.02887,49.91711],[1.19452,49.96803],[1.44344,50.1005],[1.49168,50.18416],[1.54843,50.21522],[1.56474,50.21722],[1.5962,50.1855],[1.68162,50.18078],[1.66267,50.2136],[1.62329,50.21412],[1.59223,50.25646],[1.55074,50.25929],[1.53843,50.27858],[1.55583,50.36132],[1.62426,50.36629],[1.62668,50.36002],[1.64154,50.35215],[1.62523,50.37183],[1.58315,50.3762],[1.55566,50.39768],[1.58298,50.5346],[1.58855,50.53935],[1.63729,50.50967],[1.65917,50.50778],[1.6265,50.52004],[1.57661,50.57223],[1.5625,50.7244],[1.60254,50.7216],[1.59129,50.73049],[1.6056,50.7676],[1.58185,50.87104],[1.6421,50.87887],[1.71226,50.92941],[1.78072,50.95487],[2.07774,51.00792],[2.12206,50.99048],[2.1081,51.00416],[2.15036,51.03433],[2.17966,51.00738],[2.19025,51.01804],[2.17511,51.02327],[2.19554,51.03562],[2.19125,51.04028],[2.18191,51.03992],[2.17142,51.04434],[2.19516,51.04029],[2.21401,51.03168],[2.34954,51.06059],[2.39523,51.05033],[2.54554,51.089],[2.57399,51.00352],[2.6069,50.99091],[2.63269,50.94601],[2.59001,50.9191],[2.60795,50.91008],[2.61195,50.86341],[2.59906,50.84875],[2.61541,50.84827],[2.63498,50.81276],[2.66932,50.82246],[2.7239,50.81012],[2.72582,50.79245],[2.78336,50.75091],[2.78958,50.72626],[2.84838,50.72292],[2.90607,50.69232],[2.95048,50.75129],[3.0147,50.77404],[3.08871,50.77337],[3.11092,50.79412],[3.15079,50.79012],[3.20511,50.71245],[3.26117,50.70128],[3.26485,50.67612],[3.24011,50.65856],[3.27947,50.59564],[3.28874,50.52553],[3.37622,50.49108],[3.45008,50.50723],[3.47439,50.53361],[3.51991,50.52332],[3.50098,50.487],[3.60835,50.49673],[3.66233,50.45617],[3.67484,50.40186],[3.65715,50.36926],[3.71043,50.30317],[3.70912,50.31897],[3.73056,50.31012],[3.7474,50.35093],[3.84741,50.3531],[3.90005,50.32728],[4.02371,50.35889],[4.07889,50.30975],[4.11712,50.30405],[4.13538,50.25719],[4.16761,50.2597],[4.14956,50.27466],[4.16268,50.28892],[4.20796,50.273],[4.2207,50.2522],[4.15164,50.21346],[4.15567,50.16425],[4.12693,50.13501],[4.19704,50.13531],[4.19763,50.10702],[4.23078,50.07334],[4.19398,50.04921],[4.16222,50.04898],[4.13578,50.01939],[4.16313,49.99477],[4.1409,49.97876],[4.19711,49.96772],[4.19632,49.9553],[4.30874,49.9697],[4.44694,49.9375],[4.52326,49.95041],[4.58208,49.98357],[4.69358,49.99552],[4.68465,50.02724],[4.69967,50.05356],[4.68018,50.06645],[4.69302,50.08482],[4.82507,50.16912],[4.83224,50.15323],[4.87601,50.15391],[4.89708,50.13779],[4.86718,50.1187],[4.87213,50.08773],[4.85089,50.10132],[4.83793,50.06711],[4.81931,50.06588],[4.84132,50.04],[4.79011,49.97002],[4.79092,49.9584],[4.84711,49.94902],[4.88998,49.90927],[4.8512,49.86499],[4.87693,49.8194],[4.85148,49.79355],[4.90574,49.78548],[4.99536,49.80061],[5.01355,49.78009],[5.0935,49.76373],[5.12564,49.71238],[5.15822,49.71682],[5.16621,49.69292],[5.27067,49.69532],[5.332,49.65478],[5.30491,49.63006],[5.31208,49.61166],[5.35151,49.63079],[5.42855,49.59587],[5.43797,49.56974],[5.45681,49.56667],[5.44135,49.55214],[5.46507,49.53887],[5.4472,49.51788],[5.46519,49.4989],[5.55605,49.52925],[5.61098,49.50593],[5.64298,49.54997],[5.74738,49.53943],[5.77145,49.56325],[5.8172,49.537],[5.83696,49.54247],[5.83657,49.51962],[5.86385,49.50083],[5.94311,49.50023],[5.97238,49.49112],[5.97417,49.46482],[5.98765,49.46241],[5.979,49.45292],[6.04215,49.4478],[6.05777,49.46621],[6.10081,49.45289],[6.12786,49.49374],[6.16217,49.49323],[6.15525,49.50381],[6.24071,49.51451],[6.33378,49.46689],[6.36886,49.45982],[6.42809,49.47692],[6.5419,49.43244],[6.55704,49.41909],[6.54053,49.40115],[6.60183,49.36647],[6.56584,49.34735],[6.61574,49.30168],[6.67037,49.28029],[6.66153,49.25733],[6.68976,49.24969],[6.69593,49.21501],[6.72334,49.21905],[6.7315,49.20609],[6.71136,49.18854],[6.73851,49.16366],[6.78456,49.16809],[6.83454,49.15147],[6.86177,49.17944],[6.83778,49.21332],[6.86313,49.22197],[6.89244,49.20883],[6.92545,49.22359],[7.03503,49.19064],[7.02765,49.17008],[7.0543,49.11263],[7.08888,49.13022],[7.08028,49.14877],[7.10093,49.15562],[7.11327,49.15169],[7.10391,49.13892],[7.1588,49.12078],[7.2453,49.12981],[7.29374,49.1151],[7.32371,49.14269],[7.36326,49.14525],[7.36609,49.17247],[7.44478,49.18423],[7.43264,49.16588],[7.494,49.16964],[7.5064,49.15492],[7.48958,49.13653],[7.52898,49.09721],[7.62935,49.07368],[7.63529,49.05416],[7.75818,49.04534],[7.79459,49.06579],[7.8663,49.0334],[7.88823,49.04862],[7.9167,49.04097],[7.93376,49.05803],[7.9747,49.02697],[8.04922,49.01418],[8.09138,48.98926],[8.19857,48.96748],[8.22494,48.97542],[8.23334,48.96668],[8.1958,48.95621],[8.14292,48.89776],[8.09155,48.8057],[8.02913,48.78648],[8.01471,48.76118],[7.97176,48.75763],[7.96314,48.72135],[7.83982,48.64137],[7.8004,48.58454],[7.8052,48.51357],[7.7682,48.48966],[7.73355,48.39869],[7.74466,48.32784],[7.69338,48.30153],[7.66602,48.22088],[7.57731,48.12037],[7.56869,48.03411],[7.62209,47.97227],[7.58329,47.93112],[7.58187,47.89649],[7.5567,47.87994],[7.56311,47.84379],[7.52963,47.77891],[7.54767,47.72992],[7.51185,47.69704],[7.52114,47.66373],[7.59103,47.60474],[7.58489,47.57563],[7.5,47.53979],[7.5312,47.52663],[7.52294,47.51424],[7.4978,47.52123],[7.51098,47.49666],[7.48686,47.48173],[7.43185,47.49607],[7.42111,47.48045],[7.45566,47.4705],[7.38558,47.43162],[7.33071,47.44157],[7.24618,47.42022],[7.23281,47.43881],[7.17077,47.44305],[7.20105,47.49391],[7.13035,47.50303]],[[1.96006,42.47045],[1.96101,42.4529],[2.01438,42.45168],[1.99164,42.46268],[1.98953,42.49354],[1.96006,42.47045]],[[5.14585,43.45806],[5.10867,43.52549],[5.04561,43.5218],[5.01329,43.55445],[5.00086,43.4741],[5.05188,43.46356],[5.06081,43.40286],[5.13727,43.40019],[5.20444,43.44214],[5.19842,43.45089],[5.2266,43.45301],[5.22484,43.48107],[5.20558,43.492],[5.14585,43.45806]]],[[[-1.24274,49.59128],[-1.24801,49.5876],[-1.24911,49.59037],[-1.24274,49.59128]]],[[[-1.84184,48.87556],[-1.84264,48.8785],[-1.841,48.87789],[-1.84184,48.87556]]],[[[-1.5109,48.63502],[-1.5132,48.63585],[-1.5111,48.63695],[-1.5109,48.63502]]],[[[-1.82236,48.87204],[-1.83262,48.86901],[-1.83869,48.87783],[-1.82236,48.87204]]],[[[-1.76603,48.87183],[-1.76782,48.8745],[-1.76609,48.87506],[-1.76603,48.87183]]],[[[-2.62024,47.41107],[-2.62008,47.41356],[-2.61777,47.41153],[-2.62024,47.41107]]],[[[-2.37425,46.73366],[-2.2869,46.69647],[-2.28351,46.68787],[-2.3793,46.69853],[-2.40048,46.72606],[-2.37425,46.73366]]],[[[-2.148,46.89462],[-2.22316,46.96527],[-2.26438,46.96088],[-2.30241,46.99057],[-2.29209,47.01145],[-2.30759,47.02465],[-2.22562,47.01685],[-2.21881,46.99171],[-2.23861,46.9976],[-2.23648,46.97988],[-2.15718,46.95004],[-2.148,46.89462]]],[[[-3.47834,48.88437],[-3.48448,48.88139],[-3.48599,48.8832],[-3.47834,48.88437]]],[[[-3.43591,48.89883],[-3.43924,48.89916],[-3.43564,48.90064],[-3.43591,48.89883]]],[[[-2.97663,48.79723],[-2.98283,48.79951],[-2.97642,48.79837],[-2.97663,48.79723]]],[[[-2.97785,48.84631],[-2.98093,48.84684],[-2.98025,48.84831],[-2.97785,48.84631]]],[[[-2.98002,48.85949],[-2.98332,48.85903],[-2.98118,48.8608],[-2.98002,48.85949]]],[[[-3.48941,48.87803],[-3.49495,48.87909],[-3.48854,48.87929],[-3.48941,48.87803]]],[[[-2.95236,48.77875],[-2.94676,48.78055],[-2.94616,48.77992],[-2.95236,48.77875]]],[[[-3.01562,48.84003],[-3.02109,48.84442],[-3.01613,48.84465],[-3.01562,48.84003]]],[[[-2.98619,48.84885],[-2.98632,48.84496],[-2.98863,48.84864],[-2.98619,48.84885]]],[[[-2.98851,48.83918],[-2.99227,48.8399],[-2.98856,48.84035],[-2.98851,48.83918]]],[[[-2.18678,48.62281],[-2.19554,48.62066],[-2.1868,48.62686],[-2.18678,48.62281]]],[[[-3.00232,48.83632],[-3.01414,48.85015],[-2.99864,48.85156],[-3.01316,48.85691],[-2.98676,48.86491],[-3.00232,48.83632]]],[[[-3.58006,48.79871],[-3.58511,48.80441],[-3.56317,48.80537],[-3.57012,48.79724],[-3.58006,48.79871]]],[[[-3.59585,48.76979],[-3.59929,48.76695],[-3.60344,48.77097],[-3.59585,48.76979]]],[[[-3.59316,48.80092],[-3.59609,48.79747],[-3.60213,48.79824],[-3.59316,48.80092]]],[[[-3.60766,48.79602],[-3.60906,48.79395],[-3.61221,48.79532],[-3.60766,48.79602]]],[[[-3.01827,48.83675],[-3.02119,48.83584],[-3.02172,48.83762],[-3.01827,48.83675]]],[[[-3.57671,48.79519],[-3.57922,48.79627],[-3.57692,48.79753],[-3.57671,48.79519]]],[[[-3.18171,48.87435],[-3.1853,48.87273],[-3.19193,48.87161],[-3.19406,48.87538],[-3.18171,48.87435]]],[[[-3.40536,48.83639],[-3.40833,48.83254],[-3.40999,48.83994],[-3.40536,48.83639]]],[[[-3.03846,48.861],[-3.04463,48.86062],[-3.03202,48.8627],[-3.03846,48.861]]],[[[-3.2814,48.84685],[-3.28182,48.84389],[-3.28435,48.84512],[-3.2814,48.84685]]],[[[-3.19501,48.86555],[-3.19823,48.86431],[-3.19635,48.86773],[-3.19501,48.86555]]],[[[-3.30211,48.84506],[-3.30581,48.84645],[-3.30357,48.84773],[-3.30211,48.84506]]],[[[-3.25928,48.8542],[-3.25975,48.85355],[-3.26158,48.85581],[-3.25928,48.8542]]],[[[-3.2021,48.85371],[-3.20407,48.8505],[-3.20428,48.85419],[-3.2021,48.85371]]],[[[-3.55436,48.8019],[-3.55695,48.80293],[-3.55594,48.80429],[-3.55436,48.8019]]],[[[-3.30743,48.84741],[-3.31007,48.8466],[-3.30974,48.84793],[-3.30743,48.84741]]],[[[-3.29444,48.84557],[-3.2982,48.84553],[-3.29795,48.84634],[-3.29444,48.84557]]],[[[-3.27169,48.83885],[-3.27403,48.83905],[-3.27237,48.84075],[-3.27169,48.83885]]],[[[-3.29265,48.83745],[-3.29536,48.83867],[-3.29379,48.8392],[-3.29265,48.83745]]],[[[-3.99752,47.72393],[-4.00391,47.72264],[-3.9976,47.72519],[-3.99752,47.72393]]],[[[-3.99181,48.7364],[-4.02252,48.73856],[-4.04017,48.74637],[-4.00593,48.75285],[-3.99181,48.7364]]],[[[-3.95084,47.72051],[-3.95809,47.71958],[-3.95137,47.72157],[-3.95084,47.72051]]],[[[-4.00841,47.71603],[-4.01192,47.71909],[-4.00718,47.71696],[-4.00841,47.71603]]],[[[-4.02164,47.77504],[-4.02715,47.77799],[-4.02052,47.77678],[-4.02164,47.77504]]],[[[-4.85061,48.04016],[-4.84879,48.03178],[-4.85783,48.03931],[-4.87085,48.04041],[-4.85061,48.04016]]],[[[-3.99078,47.70283],[-4.00214,47.70776],[-3.99873,47.71006],[-3.99078,47.70283]]],[[[-3.7995,47.78458],[-3.80053,47.78304],[-3.803,47.78417],[-3.7995,47.78458]]],[[[-5.01018,48.42662],[-5.01406,48.42578],[-5.01161,48.43082],[-5.01018,48.42662]]],[[[-4.63491,48.60147],[-4.63738,48.60015],[-4.63672,48.60227],[-4.63491,48.60147]]],[[[-4.06418,48.70662],[-4.07164,48.70471],[-4.07279,48.70574],[-4.06418,48.70662]]],[[[-4.17813,47.85103],[-4.18815,47.85886],[-4.1935,47.8642],[-4.18202,47.86733],[-4.17813,47.85103]]],[[[-4.17666,47.84398],[-4.18385,47.84462],[-4.18327,47.84709],[-4.17666,47.84398]]],[[[-4.18371,47.85067],[-4.18532,47.84905],[-4.18667,47.85019],[-4.18371,47.85067]]],[[[-4.33544,48.10164],[-4.3385,48.1007],[-4.3392,48.10301],[-4.33544,48.10164]]],[[[-4.53505,48.30291],[-4.53894,48.30262],[-4.53617,48.30419],[-4.53505,48.30291]]],[[[-4.52867,48.30524],[-4.53194,48.30445],[-4.52972,48.30644],[-4.52867,48.30524]]],[[[-4.95344,48.39607],[-4.96734,48.39788],[-4.96281,48.40169],[-4.95344,48.39607]]],[[[-4.98397,48.41926],[-4.98127,48.41703],[-4.98546,48.41689],[-4.98397,48.41926]]],[[[-4.78746,48.43734],[-4.79013,48.43798],[-4.7887,48.43889],[-4.78746,48.43734]]],[[[-4.61628,48.58497],[-4.61951,48.58531],[-4.61625,48.58677],[-4.61628,48.58497]]],[[[-4.86234,48.3413],[-4.85773,48.35072],[-4.84159,48.35491],[-4.85411,48.3487],[-4.86234,48.3413]]],[[[-4.89796,48.37588],[-4.90577,48.3723],[-4.91118,48.3744],[-4.89796,48.37588]]],[[[-4.93704,48.37142],[-4.93523,48.37534],[-4.93326,48.37478],[-4.93704,48.37142]]],[[[-4.94689,48.40136],[-4.95258,48.40083],[-4.94747,48.40259],[-4.94689,48.40136]]],[[[-4.89731,48.3803],[-4.89982,48.38023],[-4.90021,48.38301],[-4.89731,48.3803]]],[[[-3.91929,48.68424],[-3.92897,48.69192],[-3.92601,48.69917],[-3.91929,48.68424]]],[[[-4.56926,48.60762],[-4.57288,48.60622],[-4.5742,48.60799],[-4.56926,48.60762]]],[[[-4.55168,48.62927],[-4.55826,48.6291],[-4.55776,48.63081],[-4.55168,48.62927]]],[[[-4.56665,48.63844],[-4.57067,48.63797],[-4.56969,48.64019],[-4.56665,48.63844]]],[[[-4.59299,48.6255],[-4.59464,48.62327],[-4.59474,48.62543],[-4.59299,48.6255]]],[[[-4.403,48.63934],[-4.40598,48.6393],[-4.40351,48.64049],[-4.403,48.63934]]],[[[-4.2784,48.28482],[-4.28104,48.28232],[-4.28201,48.28357],[-4.2784,48.28482]]],[[[-5.03438,48.46332],[-5.11736,48.43898],[-5.09875,48.45629],[-5.14014,48.45184],[-5.07252,48.48273],[-5.03438,48.46332]]],[[[-5.09017,48.47994],[-5.10224,48.48056],[-5.10419,48.48087],[-5.09017,48.47994]]],[[[-4.77249,48.5273],[-4.77691,48.5301],[-4.77334,48.53082],[-4.77249,48.5273]]],[[[-2.15857,48.63938],[-2.16138,48.63725],[-2.16176,48.6385],[-2.15857,48.63938]]],[[[-1.83982,48.70717],[-1.83923,48.7098],[-1.83556,48.71223],[-1.83982,48.70717]]],[[[-1.95373,48.69689],[-1.95481,48.6992],[-1.95253,48.69878],[-1.95373,48.69689]]],[[[-2.07213,48.67566],[-2.06943,48.67877],[-2.06783,48.67699],[-2.07213,48.67566]]],[[[-3.01322,47.41074],[-3.01772,47.41124],[-3.01214,47.41191],[-3.01322,47.41074]]],[[[-3.42179,47.62],[-3.46262,47.62017],[-3.51509,47.64713],[-3.42991,47.64304],[-3.41513,47.63228],[-3.42179,47.62]]],[[[-2.99561,47.3941],[-2.99932,47.3947],[-2.99567,47.39536],[-2.99561,47.3941]]],[[[-3.19531,47.29175],[-3.19711,47.29306],[-3.19484,47.29353],[-3.19531,47.29175]]],[[[-2.96854,47.35753],[-2.97103,47.35588],[-2.97266,47.35761],[-2.96854,47.35753]]],[[[-2.8837,47.34309],[-2.86336,47.34897],[-2.86104,47.34082],[-2.88243,47.3303],[-2.8837,47.34309]]],[[[-3.23545,47.32382],[-3.26355,47.35226],[-3.24722,47.38754],[-3.15729,47.36462],[-3.13856,47.32899],[-3.0559,47.30817],[-3.09184,47.2784],[-3.16764,47.30159],[-3.21838,47.29244],[-3.24828,47.3135],[-3.23545,47.32382]]],[[[-2.94815,47.37334],[-2.99368,47.39342],[-2.99431,47.39899],[-2.93938,47.3947],[-2.94815,47.37334]]],[[[-3.25007,47.38691],[-3.25305,47.38929],[-3.24912,47.38926],[-3.25007,47.38691]]],[[[-2.59472,47.52617],[-2.59191,47.5253],[-2.59361,47.52495],[-2.59472,47.52617]]],[[[-3.13883,47.71281],[-3.13646,47.71377],[-3.13674,47.71205],[-3.13883,47.71281]]],[[[-2.85956,47.55989],[-2.86185,47.56971],[-2.85128,47.59854],[-2.85519,47.60039],[-2.83887,47.6072],[-2.82393,47.58857],[-2.84676,47.58972],[-2.85956,47.55989]]],[[[-2.80961,47.57826],[-2.81287,47.59068],[-2.79329,47.60579],[-2.78656,47.59483],[-2.80961,47.57826]]],[[[-2.72668,47.57961],[-2.73818,47.58069],[-2.73874,47.58377],[-2.72668,47.57961]]],[[[-2.78596,47.57547],[-2.79539,47.571],[-2.79253,47.57942],[-2.78596,47.57547]]],[[[-2.75474,47.60682],[-2.77026,47.60613],[-2.771,47.61034],[-2.75474,47.60682]]],[[[-2.7753,47.5955],[-2.78304,47.59079],[-2.78618,47.58952],[-2.7753,47.5955]]],[[[-2.90632,47.56883],[-2.912,47.5757],[-2.91045,47.57761],[-2.90632,47.56883]]],[[[-2.89574,47.57296],[-2.90147,47.5723],[-2.89608,47.57642],[-2.89574,47.57296]]],[[[-2.72272,47.59267],[-2.72945,47.59256],[-2.72758,47.59543],[-2.72272,47.59267]]],[[[-2.8856,47.56883],[-2.88889,47.57165],[-2.88673,47.57143],[-2.8856,47.56883]]],[[[-2.78724,47.56329],[-2.79228,47.56226],[-2.79531,47.56474],[-2.78724,47.56329]]],[[[-2.77476,47.61488],[-2.77864,47.61365],[-2.78423,47.61552],[-2.77476,47.61488]]],[[[-2.84837,47.61241],[-2.85187,47.61076],[-2.85237,47.61173],[-2.84837,47.61241]]],[[[-2.8442,47.55531],[-2.84492,47.56001],[-2.84263,47.56038],[-2.8442,47.55531]]],[[[-2.92583,47.5789],[-2.92996,47.5789],[-2.93082,47.58143],[-2.92583,47.5789]]],[[[-2.8085,47.59647],[-2.81152,47.59593],[-2.81239,47.59873],[-2.8085,47.59647]]],[[[-2.80336,47.56326],[-2.80757,47.56406],[-2.80651,47.56559],[-2.80336,47.56326]]],[[[-2.82879,47.55839],[-2.83267,47.55857],[-2.83124,47.56026],[-2.82879,47.55839]]],[[[-2.84671,47.56128],[-2.85076,47.5611],[-2.85039,47.56287],[-2.84671,47.56128]]],[[[-2.92867,47.58603],[-2.93327,47.58465],[-2.93302,47.58548],[-2.92867,47.58603]]],[[[-2.80051,47.60759],[-2.80562,47.60863],[-2.8009,47.60942],[-2.80051,47.60759]]],[[[-2.74768,47.5749],[-2.74993,47.57621],[-2.74633,47.57618],[-2.74768,47.5749]]],[[[-2.88379,47.56525],[-2.88737,47.56298],[-2.88607,47.56546],[-2.88379,47.56525]]],[[[-2.76314,47.59036],[-2.76477,47.59195],[-2.76232,47.59216],[-2.76314,47.59036]]],[[[-2.91222,47.57862],[-2.91456,47.57811],[-2.91461,47.57987],[-2.91222,47.57862]]],[[[-2.86899,47.57664],[-2.86788,47.57894],[-2.8666,47.57811],[-2.86899,47.57664]]],[[[-2.72368,47.59848],[-2.72593,47.59965],[-2.72346,47.60043],[-2.72368,47.59848]]],[[[-3.16356,47.71876],[-3.15621,47.7201],[-3.1587,47.70673],[-3.16356,47.71876]]],[[[-3.1702,47.68878],[-3.17199,47.68559],[-3.17288,47.68766],[-3.1702,47.68878]]],[[[-3.17658,47.68735],[-3.17983,47.68711],[-3.17764,47.68974],[-3.17658,47.68735]]],[[[-3.18521,47.68609],[-3.18693,47.68794],[-3.18391,47.68714],[-3.18521,47.68609]]],[[[-1.10533,45.95439],[-1.1192,45.95707],[-1.11947,45.96143],[-1.10533,45.95439]]],[[[-1.49446,46.20536],[-1.4582,46.22867],[-1.41294,46.23014],[-1.43919,46.21017],[-1.35472,46.20611],[-1.29276,46.18735],[-1.27424,46.16016],[-1.25495,46.16352],[-1.27956,46.14369],[-1.32163,46.14504],[-1.4616,46.20212],[-1.53394,46.20232],[-1.56293,46.24384],[-1.49465,46.25618],[-1.47455,46.23326],[-1.5148,46.22699],[-1.49446,46.20536]]],[[[-1.17559,46.008],[-1.17456,46.0242],[-1.15428,46.01929],[-1.17143,46.01858],[-1.17559,46.008]]],[[[-1.22626,45.80369],[-1.27005,45.88181],[-1.38598,45.95239],[-1.38787,46.00002],[-1.4124,46.04789],[-1.37023,46.03924],[-1.31515,45.99389],[-1.23755,45.98391],[-1.23377,45.92706],[-1.18741,45.8866],[-1.20771,45.85034],[-1.19545,45.82939],[-1.22626,45.80369]]],[[[-1.24787,44.58688],[-1.23347,44.59359],[-1.22951,44.58872],[-1.24357,44.58886],[-1.24631,44.57179],[-1.25158,44.57956],[-1.24787,44.58688]]],[[[-1.02456,44.65288],[-1.02626,44.66247],[-1.01378,44.6518],[-1.02456,44.65288]]],[[[-1.02059,44.64624],[-1.02756,44.64698],[-1.02681,44.6502],[-1.02059,44.64624]]],[[[-1.17943,44.70398],[-1.18516,44.69722],[-1.18765,44.70219],[-1.17943,44.70398]]],[[[-1.18183,44.69683],[-1.18471,44.69512],[-1.18473,44.6966],[-1.18183,44.69683]]],[[[3.50066,43.2629],[3.50223,43.26419],[3.50355,43.2631],[3.50066,43.2629]]],[[[7.06711,43.51365],[7.04344,43.51568],[7.03158,43.52104],[7.04834,43.52376],[7.06711,43.51365]]],[[[7.05544,43.50782],[7.03709,43.50679],[7.0371,43.5085],[7.05544,43.50782]]],[[[5.3967,43.173],[5.38636,43.17309],[5.37194,43.17965],[5.38041,43.18042],[5.3967,43.173]]],[[[5.39128,43.18615],[5.38364,43.18722],[5.38094,43.18986],[5.39128,43.18615]]],[[[5.61908,43.16141],[5.61533,43.15914],[5.61482,43.16234],[5.61908,43.16141]]],[[[5.32393,43.28619],[5.31189,43.27593],[5.28799,43.26116],[5.30355,43.27632],[5.29164,43.28028],[5.32393,43.28619]]],[[[5.3374,43.21288],[5.32944,43.2111],[5.32852,43.21248],[5.3374,43.21288]]],[[[5.36144,43.19687],[5.37005,43.19544],[5.3705,43.19383],[5.36144,43.19687]]],[[[5.32666,43.27918],[5.32437,43.28036],[5.32771,43.28046],[5.32666,43.27918]]],[[[5.3189,43.34707],[5.34051,43.33426],[5.36168,43.30868],[5.35769,43.29929],[5.3189,43.34707]]],[[[4.87679,43.36782],[4.87494,43.36236],[4.87366,43.36794],[4.87679,43.36782]]],[[[6.39598,42.98734],[6.39391,42.98841],[6.39678,42.98912],[6.39598,42.98734]]],[[[6.4348,43.01554],[6.47334,43.04693],[6.51129,43.04682],[6.48754,43.04272],[6.47096,43.01664],[6.43834,43.0036],[6.4348,43.01554]]],[[[6.13983,43.02061],[6.14479,43.0163],[6.13946,43.01972],[6.13983,43.02061]]],[[[5.74996,43.12661],[5.74802,43.12725],[5.75245,43.1273],[5.74996,43.12661]]],[[[6.40661,42.99561],[6.37032,43.00084],[6.41992,43.01383],[6.40661,42.99561]]],[[[6.36476,43.01343],[6.35996,43.01505],[6.3684,43.01807],[6.36476,43.01343]]],[[[5.76959,43.08065],[5.7657,43.0801],[5.76796,43.08191],[5.76959,43.08065]]],[[[6.24407,43.02004],[6.25084,42.99967],[6.20563,42.98181],[6.1613,42.99888],[6.24407,43.02004]]],[[[5.78996,43.07449],[5.77864,43.08096],[5.79221,43.07745],[5.78996,43.07449]]],[[[5.91986,43.11812],[5.91393,43.11872],[5.92061,43.11945],[5.91986,43.11812]]],[[[5.79082,43.06871],[5.78718,43.07224],[5.79033,43.07258],[5.79082,43.06871]]],[[[8.59421,41.87416],[8.58667,41.87601],[8.59789,41.88207],[8.59421,41.87416]]],[[[9.37449,41.56152],[9.37082,41.56044],[9.37098,41.56292],[9.37449,41.56152]]],[[[8.5376,42.37276],[8.54166,42.36619],[8.53514,42.37075],[8.5376,42.37276]]],[[[9.2592,41.34743],[9.25896,41.33363],[9.24887,41.34111],[9.2592,41.34743]]],[[[9.36321,41.54966],[9.36185,41.55372],[9.36486,41.55263],[9.36321,41.54966]]],[[[9.2683,41.37294],[9.26656,41.36239],[9.25038,41.36856],[9.2683,41.37294]]],[[[9.22633,41.37072],[9.22795,41.3741],[9.23027,41.37224],[9.22633,41.37072]]],[[[9.35497,41.54042],[9.35196,41.54033],[9.35231,41.54126],[9.35497,41.54042]]],[[[9.39651,41.66997],[9.38975,41.67043],[9.39411,41.67273],[9.39651,41.66997]]],[[[9.36316,41.63409],[9.36091,41.63323],[9.36134,41.63448],[9.36316,41.63409]]],[[[9.40227,41.8587],[9.40647,41.7137],[9.40019,41.69296],[9.37231,41.67883],[9.3881,41.67026],[9.38546,41.64626],[9.34943,41.63846],[9.35461,41.6166],[9.30761,41.6283],[9.28094,41.59719],[9.29602,41.5847],[9.31806,41.60486],[9.36796,41.59124],[9.34281,41.55937],[9.2725,41.52883],[9.28453,41.51734],[9.26821,41.50081],[9.28581,41.49924],[9.28775,41.48385],[9.26705,41.47071],[9.27794,41.46422],[9.22395,41.44249],[9.21532,41.4133],[9.22369,41.40475],[9.2651,41.42829],[9.25974,41.41366],[9.22004,41.36739],[9.18035,41.3662],[9.13294,41.39976],[9.0965,41.39206],[9.09503,41.41179],[9.12237,41.44149],[9.07012,41.44461],[9.07994,41.47749],[9.0418,41.45681],[8.99589,41.48531],[8.98355,41.4738],[8.95991,41.49193],[8.92003,41.48911],[8.91475,41.50721],[8.8833,41.50524],[8.89046,41.51638],[8.87781,41.52379],[8.84088,41.51969],[8.85328,41.54711],[8.82181,41.54435],[8.78219,41.56633],[8.80259,41.57317],[8.77415,41.59226],[8.79435,41.63269],[8.87244,41.64718],[8.9135,41.691],[8.81272,41.71413],[8.78283,41.69921],[8.77498,41.74142],[8.7072,41.7218],[8.70456,41.73938],[8.65872,41.74026],[8.72801,41.7739],[8.71083,41.80101],[8.77129,41.81124],[8.78452,41.83112],[8.75093,41.84516],[8.78823,41.85046],[8.77927,41.88361],[8.80263,41.89646],[8.75238,41.93339],[8.71944,41.90815],[8.64148,41.90991],[8.60661,41.89517],[8.6234,41.93484],[8.59208,41.9644],[8.66291,41.97654],[8.65999,42.01231],[8.74652,42.0511],[8.71886,42.06379],[8.70034,42.11231],[8.65893,42.10129],[8.61209,42.1346],[8.57986,42.12942],[8.58546,42.15173],[8.55879,42.14632],[8.5934,42.16831],[8.56114,42.1716],[8.58511,42.17901],[8.58139,42.20594],[8.56772,42.20452],[8.57385,42.22797],[8.53971,42.23713],[8.6928,42.26829],[8.66047,42.30235],[8.60165,42.30896],[8.62822,42.33201],[8.61487,42.34959],[8.55779,42.33224],[8.55773,42.36005],[8.54322,42.36729],[8.54729,42.37889],[8.56918,42.36941],[8.60791,42.38612],[8.60611,42.41645],[8.65682,42.4168],[8.66372,42.43447],[8.64822,42.44228],[8.66834,42.44478],[8.67983,42.46812],[8.64924,42.47431],[8.6655,42.51363],[8.7202,42.52542],[8.70916,42.57672],[8.72681,42.58405],[8.72704,42.56161],[8.75576,42.57139],[8.78105,42.55652],[8.80481,42.57089],[8.80263,42.60257],[8.86739,42.6084],[8.87916,42.62873],[8.93066,42.64531],[8.94669,42.63364],[9.01495,42.64136],[9.05932,42.66007],[9.0571,42.69548],[9.12456,42.73164],[9.2211,42.73567],[9.25779,42.7179],[9.28746,42.67449],[9.31418,42.689],[9.34563,42.74327],[9.34158,42.79757],[9.30955,42.83378],[9.3403,42.86567],[9.32137,42.89688],[9.36147,42.92476],[9.34969,42.92882],[9.35905,42.9454],[9.34016,42.99306],[9.4199,43.01161],[9.46355,42.9864],[9.45159,42.96176],[9.46935,42.93633],[9.49279,42.80588],[9.44619,42.67358],[9.53269,42.54802],[9.54349,42.4293],[9.53224,42.37191],[9.55996,42.28231],[9.55912,42.1967],[9.54998,42.10416],[9.41705,41.96123],[9.40227,41.8587]]],[[[9.4064,43.02766],[9.40392,43.02591],[9.40434,43.02737],[9.4064,43.02766]]],[[[9.34291,42.96376],[9.34015,42.96533],[9.34135,42.96567],[9.34291,42.96376]]]]}}]}