{"type":"FeatureCollection","features":[{"type":"Feature","properties":{"name":"Gare d'Austerlitz"},"geometry":{"type":"Point","coordinates":[2.36704,48.8405]}},{"type":"Feature","properties":{"name":"Gare de l'Est"},"geometry":{"type":"Point","coordinates":[2.35893,48.87737]}},{"type":"Feature","properties":{"name":"Gare de Lyon"},"geometry":{"type":"Point","coordinates":[2.37565,48.84431]}},{"type":"Feature","properties":{"name":"Gare Montparnasse"},"geometry":{"type":"Point","coordinates":[2.31982,48.84064]}},{"type":"Feature","properties":{"name":"Gare du Nord"},"geometry":{"type":"Point","coordinates":[2.35616,48.88164]}},{"type":"Feature","properties":{"name":"Gare Saint-Lazare"},"geometry":{"type":"Point","coordinates":[2.3263,48.87694]}}]}