{"type":"FeatureCollection","features":[{"type":"Feature","properties":{"name":"Paris - Lille","from":"Gare du Nord"},"geometry":{"type":"LineString","coordinates":[[2.35616,48.88164],[2.34575,48.94502],[2.51945,49.06233],[2.52656,49.10969],[2.47021,49.15922],[2.44182,49.23532],[2.47368,49.27195],[2.44915,49.29299],[2.43162,49.37715],[2.3966,49.39786],[2.43456,49.4868],[2.43081,49.53893],[2.43957,49.56626],[2.39093,49.60751],[2.37624,49.64817],[2.33664,49.67531],[2.35933,49.70655],[2.35483,49.73839],[2.40664,49.83046],[2.39049,49.8516],[2.34674,49.87167],[2.36641,49.88176],[2.4429,49.88837],[2.50557,49.91439],[2.54833,49.94886],[2.63467,49.97963],[2.67104,50.07054],[2.72509,50.08603],[2.77935,50.12592],[2.79005,50.18517],[2.76828,50.21666],[2.76751,50.27891],[2.79603,50.29186],[2.85705,50.29144],[3.09154,50.36046],[3.0784,50.41271],[3.00613,50.46883],[3.05535,50.58608],[3.09098,50.61525],[3.07572,50.63505]]}},{"type":"Feature","properties":{"name":"Paris - Strasbourg","from":"Gare de l'Est"},"geometry":{"type":"LineString","coordinates":[[2.35893,48.87737],[2.4569,48.89675],[2.5906,48.87349],[2.74668,48.88489],[2.76613,48.89969],[2.83915,48.9121],[2.87983,48.96385],[2.95439,48.96033],[2.98327,48.97841],[3.0215,48.95955],[3.12189,48.95044],[3.17823,48.98231],[3.23662,48.97247],[3.27372,48.94935],[3.29057,48.96608],[3.33505,48.97052],[3.37915,48.9986],[3.39971,49.03465],[3.46889,49.04384],[3.49038,49.06568],[3.51995,49.06637],[3.54456,49.08009],[3.56263,49.05808],[3.57806,49.05545],[3.6541,49.08682],[3.7285,49.09021],[3.90244,49.05698],[3.945,49.05773],[3.98332,49.0378],[4.02718,49.02878],[4.17746,49.01504],[4.34248,48.96011],[4.35747,48.92975],[4.41015,48.89605],[4.42843,48.8657],[4.4677,48.83983],[4.56914,48.72338],[4.58309,48.71764],[4.76369,48.7226],[4.8331,48.76584],[4.89416,48.78043],[4.99002,48.82462],[5.0367,48.81875],[5.06185,48.80463],[5.10357,48.80541],[5.22605,48.73786],[5.29989,48.71452],[5.36829,48.72016],[5.40613,48.7502],[5.41129,48.77403],[5.5236,48.80568],[5.66199,48.71909],[5.71461,48.71089],[5.78289,48.67972],[5.82142,48.6754],[5.93116,48.69007],[5.95079,48.70738],[5.97996,48.71137],[5.98721,48.733],[6.02312,48.75368],[6.0744,48.748],[6.13275,48.76262],[6.1696,48.73471],[6.17052,48.69667],[6.19679,48.67281],[6.25388,48.6408],[6.29034,48.64468],[6.33924,48.62741],[6.35631,48.59495],[6.39279,48.56175],[6.4451,48.55963],[6.46814,48.56591],[6.49325,48.58727],[6.61172,48.58849],[6.72543,48.63172],[6.81723,48.64873],[6.88502,48.68016],[6.98231,48.69315],[7.01166,48.70249],[7.0252,48.72563],[7.0703,48.74422],[7.11921,48.73854],[7.1346,48.72545],[7.22218,48.72027],[7.26999,48.73642],[7.31259,48.71991],[7.41213,48.7633],[7.5078,48.7459],[7.6337,48.75639],[7.69965,48.73401],[7.72679,48.60698],[7.74134,48.59533],[7.73215,48.58358]]}},{"type":"Feature","properties":{"name":"Paris - Mulhouse","from":"Gare de l'Est"},"geometry":{"type":"LineString","coordinates":[[2.35893,48.87737],[2.37792,48.89743],[2.46917,48.89486],[2.48538,48.87781],[2.5026,48.82668],[2.56787,48.82836],[2.68257,48.78459],[2.70366,48.75692],[2.73143,48.74257],[2.74062,48.69947],[2.78421,48.66411],[2.89414,48.6113],[2.97432,48.58794],[3.0161,48.55966],[3.15869,48.53397],[3.19665,48.5362],[3.23455,48.52264],[3.2523,48.51152],[3.25275,48.4864],[3.26954,48.47419],[3.44752,48.49751],[3.48814,48.49513],[3.51484,48.5108],[3.71606,48.51931],[3.74308,48.50841],[3.85332,48.49962],[3.88475,48.48417],[3.9581,48.39463],[4.05757,48.31376],[4.06957,48.28944],[4.09854,48.26518],[4.23687,48.25654],[4.35356,48.22395],[4.49564,48.24401],[4.53816,48.26077],[4.55707,48.28458],[4.57281,48.28857],[4.71471,48.23511],[4.7313,48.21798],[4.78501,48.19731],[4.7888,48.16205],[4.89726,48.12902],[4.96526,48.08704],[5.07654,48.11368],[5.15124,48.10961],[5.15902,48.09938],[5.15041,48.08543],[5.17692,48.06887],[5.18238,48.05001],[5.24124,48.03402],[5.25065,48.00652],[5.26465,47.99667],[5.27166,47.96473],[5.29613,47.9328],[5.2933,47.91123],[5.31978,47.90076],[5.37863,47.85034],[5.41351,47.8402],[5.43792,47.81242],[5.45545,47.80789],[5.52047,47.83699],[5.60102,47.8177],[5.63927,47.82969],[5.73019,47.81605],[5.82272,47.85041],[5.87127,47.8537],[5.89459,47.83809],[5.98391,47.8175],[6.04805,47.75291],[6.04777,47.69393],[6.08073,47.67481],[6.09942,47.63571],[6.12764,47.62166],[6.16417,47.61763],[6.20562,47.65728],[6.27858,47.68276],[6.31434,47.67183],[6.36465,47.68256],[6.49922,47.6826],[6.67541,47.70868],[6.83126,47.67281],[6.86867,47.62045],[6.93291,47.6216],[6.98868,47.60931],[7.07975,47.63133],[7.20029,47.61659],[7.25776,47.62879],[7.2689,47.67684],[7.30403,47.69817],[7.31564,47.7219],[7.34486,47.74291]]}},{"type":"Feature","properties":{"name":"Paris - Lyon - Marseille","from":"Gare de Lyon"},"geometry":{"type":"LineString","coordinates":[[2.37565,48.84431],[2.42408,48.80794],[2.44658,48.71681],[2.49845,48.70498],[2.54076,48.67615],[2.59568,48.56289],[2.63001,48.53608],[2.66286,48.5243],[2.67381,48.48673],[2.73493,48.443],[2.7373,48.42955],[2.72572,48.4119],[2.73302,48.40004],[2.78102,48.3927],[2.80035,48.37836],[2.83019,48.3855],[2.89329,48.36733],[2.94242,48.37967],[3.19802,48.30067],[3.20304,48.28435],[3.26107,48.22629],[3.2677,48.1958],[3.25879,48.17591],[3.29017,48.14403],[3.26732,48.10969],[3.2862,48.08731],[3.28065,48.06145],[3.30948,48.04313],[3.2972,48.01092],[3.34392,47.9811],[3.45948,47.95676],[3.5253,47.96258],[3.59865,47.98854],[3.68282,47.97288],[3.74231,47.98122],[3.92205,47.91918],[3.9673,47.86182],[4.06791,47.85241],[4.06271,47.82806],[4.09361,47.80129],[4.11407,47.76617],[4.12917,47.7591],[4.15962,47.76393],[4.17097,47.74293],[4.20912,47.73548],[4.21201,47.71736],[4.2335,47.69384],[4.22278,47.67148],[4.25,47.64917],[4.30119,47.63753],[4.32736,47.62027],[4.38422,47.6144],[4.45398,47.54531],[4.49869,47.54904],[4.55452,47.53268],[4.62616,47.49309],[4.66458,47.44266],[4.72096,47.40569],[4.7309,47.38132],[4.7963,47.3319],[4.82404,47.32453],[4.86179,47.33506],[4.88641,47.32084],[4.92235,47.3239],[4.96717,47.34244],[5.03048,47.3216],[5.02101,47.26939],[4.95707,47.13149],[4.74863,46.91215],[4.77408,46.85254],[4.84381,46.78013],[4.83603,46.75726],[4.86495,46.70968],[4.87487,46.63949],[4.91006,46.60592],[4.90695,46.56378],[4.93555,46.52368],[4.90316,46.49054],[4.87453,46.43966],[4.87164,46.39347],[4.83267,46.31339],[4.8015,46.27992],[4.78101,46.22345],[4.74232,46.17662],[4.71351,46.03585],[4.72259,46.00148],[4.71705,45.94251],[4.83141,45.87621],[4.82842,45.84054],[4.84845,45.82511],[4.8395,45.80383],[4.79781,45.77068],[4.84762,45.74193],[4.85625,45.67629],[4.79246,45.58986],[4.83749,45.54695],[4.87059,45.53838],[4.8768,45.52413],[4.85416,45.50182],[4.79709,45.4751],[4.76753,45.44385],[4.77519,45.39797],[4.79581,45.37023],[4.81919,45.26139],[4.80822,45.23367],[4.81495,45.18355],[4.83315,45.1575],[4.81802,45.13632],[4.83633,45.09793],[4.83054,45.07645],[4.86596,45.05966],[4.85735,45.01442],[4.87737,44.98892],[4.89644,44.93515],[4.85404,44.80809],[4.81596,44.75324],[4.78073,44.72963],[4.79282,44.66809],[4.75598,44.6152],[4.73649,44.53424],[4.71825,44.49104],[4.7015,44.47684],[4.71059,44.42167],[4.6977,44.32801],[4.71623,44.24971],[4.71148,44.23609],[4.72898,44.20257],[4.79216,44.17074],[4.81742,44.13847],[4.88162,44.11313],[4.89459,44.04695],[4.86021,43.96916],[4.79425,43.93903],[4.79665,43.92053],[4.75156,43.84833],[4.67084,43.81366],[4.62663,43.70791],[4.63394,43.68061],[4.65457,43.65587],[5.01755,43.57764],[5.05786,43.52998],[5.12557,43.53504],[5.19154,43.49317],[5.22555,43.50114],[5.23666,43.43528],[5.25386,43.40986],[5.3051,43.36623],[5.34074,43.362],[5.38721,43.33101],[5.39307,43.31243],[5.38036,43.30303]]}},{"type":"Feature","properties":{"name":"Paris - Bordeaux","from":"Gare d'Austerlitz"},"geometry":{"type":"LineString","coordinates":[[2.36704,48.8405],[2.40271,48.80051],[2.42629,48.73228],[2.38127,48.68888],[2.32745,48.6678],[2.30735,48.64882],[2.30845,48.61861],[2.29017,48.58026],[2.2906,48.53334],[2.21518,48.51402],[2.16959,48.45753],[2.16696,48.44048],[2.09728,48.40302],[2.01693,48.3333],[1.87909,48.071],[1.87965,48.01433],[1.90474,47.91923],[1.70878,47.84233],[1.61752,47.77229],[1.32626,47.59675],[1.32197,47.58132],[1.22406,47.50291],[1.09077,47.4669],[0.97304,47.41842],[0.82929,47.40242],[0.80835,47.38652],[0.75953,47.39277],[0.72769,47.38662],[0.70644,47.3797],[0.70095,47.36573],[0.674,47.34961],[0.62359,47.16399],[0.57748,47.12395],[0.58469,47.03877],[0.60884,46.96786],[0.60617,46.92818],[0.55594,46.85458],[0.54672,46.82876],[0.54972,46.8036],[0.47592,46.7399],[0.43313,46.72577],[0.41932,46.7018],[0.38591,46.68718],[0.32788,46.57626],[0.338,46.536],[0.32278,46.48916],[0.24723,46.40363],[0.25677,46.36667],[0.24266,46.32969],[0.22876,46.16382],[0.21223,46.11795],[0.22531,46.07118],[0.20717,46.03873],[0.14551,46.00142],[0.1469,45.96127],[0.10507,45.88012],[0.10684,45.84287],[0.15162,45.8091],[0.15115,45.78405],[0.1365,45.7673],[0.15726,45.74618],[0.15427,45.69855],[0.17165,45.6635],[0.11145,45.6228],[0.09463,45.58587],[0.12111,45.55915],[0.12585,45.52986],[0.16339,45.49727],[0.16948,45.46565],[0.18408,45.45045],[0.11756,45.37627],[0.10183,45.32329],[0.04537,45.27383],[0.03032,45.22734],[-0.0185,45.17399],[-0.02171,45.10988],[-0.17664,45.00048],[-0.22944,44.9454],[-0.23951,44.90736],[-0.29938,44.88635],[-0.32741,44.90249],[-0.47708,44.93416],[-0.51901,44.91984],[-0.53697,44.87173],[-0.53387,44.85062],[-0.55593,44.82604]]}},{"type":"Feature","properties":{"name":"Paris - Brest","from":"Gare Montparnasse"},"geometry":{"type":"LineString","coordinates":[[2.31982,48.84064],[2.28412,48.81534],[2.21419,48.82107],[2.18307,48.80155],[2.12713,48.7923],[2.07115,48.79848],[1.93522,48.75246],[1.86124,48.70037],[1.84196,48.65147],[1.81708,48.63478],[1.69,48.61142],[1.66248,48.59353],[1.59774,48.59349],[1.58501,48.53337],[1.53465,48.48565],[1.48653,48.4674],[1.47408,48.44466],[1.40302,48.43646],[1.27952,48.45612],[1.23035,48.45184],[1.13875,48.47906],[1.07254,48.4874],[0.94644,48.46228],[0.92053,48.43602],[0.88058,48.42498],[0.87109,48.3996],[0.84674,48.38155],[0.84421,48.36389],[0.8055,48.32048],[0.68718,48.26439],[0.63714,48.18121],[0.577,48.13846],[0.57153,48.11672],[0.54043,48.09476],[0.44999,48.05334],[0.21014,47.99208],[0.17772,48.00252],[0.14715,48.07984],[0.02991,48.10519],[-0.04882,48.1426],[-0.07064,48.17153],[-0.11111,48.18251],[-0.33095,48.1276],[-0.40896,48.16107],[-0.47469,48.15802],[-0.58614,48.13077],[-0.63636,48.13191],[-0.70268,48.11535],[-0.75129,48.07605],[-0.80277,48.07609],[-0.87353,48.09737],[-0.93145,48.09568],[-0.99147,48.1205],[-1.12646,48.11208],[-1.19678,48.12568],[-1.26697,48.09931],[-1.30235,48.1135],[-1.34036,48.10499],[-1.36168,48.11203],[-1.44368,48.10546],[-1.56847,48.12055],[-1.68998,48.10106],[-1.70738,48.112],[-1.75324,48.10961],[-1.88055,48.14068],[-1.9405,48.13565],[-2.00396,48.17282],[-2.11774,48.21691],[-2.14682,48.25085],[-2.15951,48.28935],[-2.2101,48.32769],[-2.36604,48.37957],[-2.37446,48.39346],[-2.45726,48.43211],[-2.49909,48.46564],[-2.59992,48.45968],[-2.69958,48.47868],[-2.75286,48.50528],[-2.78487,48.50973],[-2.83075,48.49448],[-2.99969,48.53927],[-3.1222,48.55742],[-3.16444,48.553],[-3.18569,48.56961],[-3.25477,48.57394],[-3.2991,48.59391],[-3.43886,48.60928],[-3.48319,48.60705],[-3.58659,48.57628],[-3.6289,48.57748],[-3.65774,48.54231],[-3.69971,48.56278],[-3.82574,48.57979],[-3.84185,48.57435],[-3.86662,48.54121],[-3.86851,48.51897],[-3.90073,48.49586],[-3.94335,48.49657],[-3.97232,48.48263],[-4.00215,48.4858],[-4.03654,48.50354],[-4.16869,48.48615],[-4.34597,48.41133],[-4.47737,48.38831]]}},{"type":"Feature","properties":{"name":"Paris - Le Havre","from":"Gare Saint-Lazare"},"geometry":{"type":"LineString","coordinates":[[2.3263,48.87694],[2.26968,48.91272],[2.20769,48.90955],[2.11789,48.95905],[2.01242,48.92884],[2.00071,48.93626],[1.98958,48.97652],[1.94191,48.99597],[1.82225,48.96488],[1.7631,48.96421],[1.69528,48.99239],[1.62681,48.99866],[1.58921,49.03806],[1.54186,49.03718],[1.50726,49.07901],[1.46316,49.10168],[1.40369,49.15355],[1.34303,49.17914],[1.31504,49.20521],[1.26317,49.20099],[1.23317,49.21205],[1.22373,49.22865],[1.2332,49.26397],[1.1938,49.31374],[1.1067,49.31801],[1.10152,49.41894],[1.12057,49.44],[1.0599,49.4539],[1.04958,49.49688],[1.03019,49.52676],[0.9553,49.54811],[0.9362,49.57958],[0.90102,49.59381],[0.85696,49.63546],[0.52098,49.59389],[0.48114,49.592],[0.45007,49.60697],[0.4165,49.6034],[0.36122,49.5887],[0.32379,49.55379],[0.28652,49.53656],[0.20657,49.51799],[0.18529,49.50148],[0.1276,49.49308]]}}]}