{"type":"FeatureCollection","features":[{"type":"Feature","properties":{"name":"Paris before 1860 (approx. = arrondissements 1-11)"},"geometry":{"type":"Polygon","coordinates":[[[2.28984,48.85824],[2.29509,48.86196],[2.29792,48.86298],[2.30156,48.86358],[2.30147,48.86453],[2.2999,48.86533],[2.29891,48.86856],[2.29753,48.87091],[2.29504,48.87378],[2.29816,48.87808],[2.32743,48.88352],[2.32944,48.88455],[2.3398,48.88203],[2.35097,48.88384],[2.3593,48.88443],[2.36802,48.88415],[2.37021,48.88269],[2.37033,48.87795],[2.37799,48.87109],[2.38308,48.86718],[2.3873,48.86309],[2.38957,48.85854],[2.39444,48.85657],[2.39843,48.85135],[2.39926,48.84884],[2.39911,48.8481],[2.37882,48.85063],[2.37197,48.8524],[2.37036,48.85325],[2.36922,48.85317],[2.3665,48.84737],[2.36461,48.84619],[2.36603,48.84493],[2.36495,48.84427],[2.36182,48.83996],[2.35166,48.83678],[2.347,48.83732],[2.33673,48.83965],[2.3202,48.84511],[2.31661,48.8468],[2.31373,48.84593],[2.31052,48.84797],[2.30734,48.84714],[2.28984,48.85824]]]}}]}