{"type":"FeatureCollection","features":[{"type":"Feature","properties":{"name":"1e arrondissement","num":1},"geometry":{"type":"Polygon","coordinates":[[[2.32801,48.86992],[2.33066,48.86819],[2.35095,48.86341],[2.34756,48.85735],[2.34699,48.85701],[2.3459,48.85531],[2.34459,48.85405],[2.34286,48.85486],[2.34086,48.85656],[2.33755,48.85839],[2.32991,48.86013],[2.3209,48.86306],[2.32532,48.86901],[2.32516,48.86945],[2.32801,48.86992]]]}},{"type":"Feature","properties":{"name":"2e arrondissement","num":2},"geometry":{"type":"Polygon","coordinates":[[[2.35426,48.86933],[2.35095,48.86341],[2.33066,48.86819],[2.32801,48.86992],[2.34004,48.87198],[2.35426,48.86933]]]}},{"type":"Feature","properties":{"name":"3e arrondissement","num":3},"geometry":{"type":"Polygon","coordinates":[[[2.36326,48.86784],[2.36425,48.86725],[2.36675,48.86306],[2.36851,48.85573],[2.36445,48.85641],[2.36175,48.85725],[2.35937,48.85832],[2.3569,48.86007],[2.35016,48.86199],[2.35426,48.86933],[2.36326,48.86784]]]}},{"type":"Feature","properties":{"name":"4e arrondissement","num":4},"geometry":{"type":"Polygon","coordinates":[[[2.36851,48.85573],[2.36914,48.85316],[2.3665,48.84737],[2.36443,48.84614],[2.36249,48.84762],[2.35917,48.84948],[2.35371,48.85122],[2.35004,48.852],[2.34459,48.85405],[2.3459,48.85531],[2.34699,48.85701],[2.34756,48.85735],[2.35016,48.86199],[2.3569,48.86007],[2.35937,48.85832],[2.36175,48.85725],[2.36445,48.85641],[2.36851,48.85573]]]}},{"type":"Feature","properties":{"name":"5e arrondissement","num":5},"geometry":{"type":"Polygon","coordinates":[[[2.36249,48.84762],[2.36603,48.84493],[2.36495,48.84426],[2.36182,48.83996],[2.35184,48.83679],[2.347,48.83732],[2.33673,48.83965],[2.33679,48.8407],[2.3373,48.84093],[2.34459,48.85405],[2.35004,48.852],[2.35371,48.85122],[2.35917,48.84948],[2.36249,48.84762]]]}},{"type":"Feature","properties":{"name":"6e arrondissement","num":6},"geometry":{"type":"Polygon","coordinates":[[[2.34459,48.85405],[2.3373,48.84093],[2.33679,48.8407],[2.33673,48.83965],[2.3202,48.84511],[2.31657,48.84682],[2.31936,48.84785],[2.32719,48.85163],[2.32842,48.85182],[2.32931,48.85261],[2.33084,48.8552],[2.33327,48.85826],[2.33245,48.85851],[2.33291,48.85935],[2.33755,48.85839],[2.34086,48.85656],[2.34286,48.85486],[2.34459,48.85405]]]}},{"type":"Feature","properties":{"name":"7e arrondissement","num":7},"geometry":{"type":"Polygon","coordinates":[[[2.31847,48.86378],[2.33291,48.85935],[2.33245,48.85851],[2.33327,48.85826],[2.33084,48.8552],[2.32931,48.85261],[2.32842,48.85182],[2.32719,48.85163],[2.31936,48.84785],[2.31373,48.84593],[2.31053,48.84799],[2.30734,48.84714],[2.28984,48.85824],[2.29432,48.86159],[2.29652,48.86256],[2.29923,48.86327],[2.31847,48.86378]]]}},{"type":"Feature","properties":{"name":"8e arrondissement","num":8},"geometry":{"type":"Polygon","coordinates":[[[2.32584,48.86956],[2.32516,48.86945],[2.32532,48.86901],[2.3209,48.86306],[2.31847,48.86378],[2.30159,48.86347],[2.30152,48.86452],[2.2999,48.86533],[2.29891,48.86856],[2.29753,48.87093],[2.29504,48.87378],[2.29816,48.87808],[2.30861,48.88032],[2.31666,48.88133],[2.32718,48.88348],[2.32685,48.87563],[2.32658,48.87558],[2.32705,48.87374],[2.32584,48.86956]]]}},{"type":"Feature","properties":{"name":"9e arrondissement","num":9},"geometry":{"type":"Polygon","coordinates":[[[2.33978,48.88203],[2.34951,48.88373],[2.34986,48.88063],[2.34911,48.87748],[2.34825,48.87579],[2.34791,48.87402],[2.34788,48.8707],[2.34004,48.87198],[2.32584,48.86956],[2.32705,48.87374],[2.32658,48.87558],[2.32685,48.87563],[2.32718,48.88348],[2.32814,48.88371],[2.32944,48.88455],[2.3373,48.8824],[2.33978,48.88203]]]}},{"type":"Feature","properties":{"name":"10e arrondissement","num":10},"geometry":{"type":"Polygon","coordinates":[[[2.35911,48.88442],[2.36839,48.88409],[2.37018,48.88274],[2.37028,48.87799],[2.37699,48.87206],[2.36383,48.8675],[2.36326,48.86784],[2.35638,48.86885],[2.34788,48.8707],[2.34791,48.87402],[2.34825,48.87579],[2.34911,48.87748],[2.34986,48.88063],[2.34951,48.88373],[2.35911,48.88442]]]}},{"type":"Feature","properties":{"name":"11e arrondissement","num":11},"geometry":{"type":"Polygon","coordinates":[[[2.39444,48.85657],[2.39843,48.85135],[2.39926,48.84884],[2.39912,48.8481],[2.38378,48.85021],[2.37882,48.85063],[2.37197,48.8524],[2.37035,48.85325],[2.36914,48.85316],[2.36675,48.86306],[2.36425,48.86725],[2.36383,48.8675],[2.37699,48.87206],[2.38308,48.86718],[2.38346,48.86645],[2.3873,48.86309],[2.38956,48.85855],[2.39227,48.85769],[2.39444,48.85657]]]}},{"type":"Feature","properties":{"name":"12e arrondissement","num":12},"geometry":{"type":"Polygon","coordinates":[[[2.41388,48.83357],[2.41699,48.83395],[2.42225,48.83569],[2.42161,48.83686],[2.42086,48.83962],[2.41957,48.84153],[2.41942,48.84248],[2.41988,48.84343],[2.42211,48.8445],[2.42474,48.84177],[2.43719,48.84089],[2.43794,48.84457],[2.44051,48.84435],[2.44087,48.84521],[2.44077,48.84592],[2.44653,48.84575],[2.44641,48.84493],[2.45807,48.84345],[2.46221,48.84255],[2.46419,48.84173],[2.46581,48.84061],[2.46976,48.83641],[2.46953,48.83495],[2.46903,48.83409],[2.46625,48.83239],[2.46516,48.831],[2.46464,48.82936],[2.46461,48.82763],[2.46618,48.82733],[2.46472,48.82328],[2.46252,48.81927],[2.4628,48.81903],[2.45863,48.81701],[2.45321,48.81725],[2.44964,48.81796],[2.43735,48.81822],[2.43747,48.8191],[2.43691,48.81938],[2.43516,48.81965],[2.43418,48.81928],[2.4343,48.82016],[2.43248,48.82142],[2.43289,48.82169],[2.43262,48.8219],[2.43219,48.82162],[2.43037,48.82288],[2.43069,48.82323],[2.42998,48.82349],[2.42624,48.82421],[2.42017,48.82414],[2.41652,48.82481],[2.41068,48.82508],[2.40863,48.8259],[2.40474,48.82863],[2.40249,48.82965],[2.39435,48.82751],[2.39026,48.82573],[2.37893,48.83449],[2.37309,48.83967],[2.36443,48.84614],[2.3665,48.84737],[2.36914,48.85316],[2.37028,48.85326],[2.37197,48.8524],[2.37882,48.85063],[2.38378,48.85021],[2.39592,48.84838],[2.41599,48.84661],[2.41351,48.83788],[2.41227,48.83455],[2.41122,48.83386],[2.41388,48.83357]]]}},{"type":"Feature","properties":{"name":"13e arrondissement","num":13},"geometry":{"type":"Polygon","coordinates":[[[2.36603,48.84493],[2.38706,48.82798],[2.39026,48.82573],[2.38152,48.82241],[2.38076,48.8217],[2.3634,48.81606],[2.35592,48.81597],[2.3524,48.81853],[2.34692,48.81586],[2.34443,48.81611],[2.3445,48.81558],[2.34397,48.81577],[2.34463,48.81954],[2.34268,48.82119],[2.34144,48.82367],[2.34169,48.82604],[2.34114,48.83249],[2.34207,48.83836],[2.347,48.83732],[2.35184,48.83679],[2.36182,48.83996],[2.36495,48.84426],[2.36603,48.84493]]]}},{"type":"Feature","properties":{"name":"14e arrondissement","num":14},"geometry":{"type":"Polygon","coordinates":[[[2.33381,48.84061],[2.34207,48.83836],[2.34114,48.83249],[2.34169,48.82604],[2.34144,48.82367],[2.34268,48.82119],[2.34463,48.81954],[2.34397,48.81577],[2.34171,48.81634],[2.33175,48.81704],[2.33237,48.81822],[2.3012,48.82515],[2.31993,48.84052],[2.32137,48.83978],[2.32184,48.84017],[2.32149,48.84101],[2.32471,48.84362],[2.33381,48.84061]]]}},{"type":"Feature","properties":{"name":"15e arrondissement","num":15},"geometry":{"type":"Polygon","coordinates":[[[2.28984,48.85824],[2.30734,48.84714],[2.31053,48.84799],[2.31373,48.84593],[2.31657,48.84682],[2.31915,48.84551],[2.32471,48.84362],[2.32149,48.84101],[2.32184,48.84017],[2.32137,48.83978],[2.31993,48.84052],[2.3012,48.82515],[2.29222,48.82714],[2.27903,48.83246],[2.27551,48.82959],[2.27274,48.82793],[2.26783,48.82784],[2.26732,48.83149],[2.27004,48.833],[2.26785,48.83456],[2.2673,48.83465],[2.26296,48.8339],[2.27571,48.84696],[2.27916,48.84977],[2.28811,48.85612],[2.28894,48.85746],[2.28984,48.85824]]]}},{"type":"Feature","properties":{"name":"16e arrondissement","num":16},"geometry":{"type":"Polygon","coordinates":[[[2.25888,48.88028],[2.27749,48.87796],[2.2798,48.87865],[2.29504,48.87378],[2.29753,48.87093],[2.29891,48.86856],[2.2999,48.86533],[2.30152,48.86452],[2.30159,48.86347],[2.29923,48.86327],[2.29637,48.86251],[2.2942,48.86152],[2.29178,48.85978],[2.28906,48.85759],[2.28811,48.85612],[2.27916,48.84977],[2.27571,48.84696],[2.26296,48.8339],[2.25515,48.83481],[2.25165,48.83891],[2.25122,48.8429],[2.25254,48.84558],[2.25066,48.84563],[2.24247,48.84773],[2.23941,48.85008],[2.22415,48.85344],[2.22433,48.85595],[2.22575,48.85971],[2.22729,48.86257],[2.22825,48.86516],[2.23062,48.86799],[2.23212,48.86955],[2.24045,48.87188],[2.24335,48.87412],[2.24562,48.87636],[2.25482,48.87408],[2.25541,48.87426],[2.25841,48.8801],[2.25888,48.88028]]]}},{"type":"Feature","properties":{"name":"17e arrondissement","num":17},"geometry":{"type":"Polygon","coordinates":[[[2.29816,48.87808],[2.29504,48.87378],[2.2798,48.87865],[2.28091,48.88288],[2.28566,48.88657],[2.29154,48.88945],[2.29506,48.88987],[2.3075,48.89594],[2.31852,48.89963],[2.32039,48.90076],[2.33015,48.90104],[2.32559,48.8875],[2.32743,48.88352],[2.31666,48.88133],[2.30861,48.88032],[2.29816,48.87808]]]}},{"type":"Feature","properties":{"name":"18e arrondissement","num":18},"geometry":{"type":"Polygon","coordinates":[[[2.36679,48.88664],[2.36469,48.88437],[2.35911,48.88442],[2.34951,48.88373],[2.33982,48.88202],[2.3373,48.8824],[2.32944,48.88455],[2.32743,48.88352],[2.32559,48.8875],[2.33015,48.90104],[2.37029,48.90186],[2.37039,48.89663],[2.37179,48.89541],[2.37002,48.89403],[2.36679,48.88664]]]}},{"type":"Feature","properties":{"name":"19e arrondissement","num":19},"geometry":{"type":"Polygon","coordinates":[[[2.38444,48.90216],[2.39071,48.90098],[2.39552,48.89826],[2.39777,48.89461],[2.39919,48.88823],[2.39921,48.88542],[2.40011,48.88381],[2.40149,48.88262],[2.40463,48.88123],[2.40934,48.88026],[2.41084,48.87842],[2.40257,48.87601],[2.39533,48.87525],[2.38978,48.87534],[2.38855,48.87479],[2.38677,48.8746],[2.38492,48.87375],[2.37699,48.87206],[2.37028,48.87799],[2.37018,48.88274],[2.36839,48.88409],[2.36469,48.88437],[2.36679,48.88664],[2.37002,48.89403],[2.37179,48.89541],[2.37039,48.89663],[2.37019,48.90167],[2.38444,48.90216]]]}},{"type":"Feature","properties":{"name":"20e arrondissement","num":20},"geometry":{"type":"Polygon","coordinates":[[[2.4125,48.87638],[2.41362,48.87258],[2.41401,48.8689],[2.41386,48.86408],[2.41409,48.86231],[2.41643,48.84879],[2.41599,48.84661],[2.39912,48.8481],[2.39926,48.84884],[2.39843,48.85135],[2.39444,48.85657],[2.39227,48.85769],[2.38958,48.85853],[2.3873,48.86309],[2.38346,48.86645],[2.38308,48.86718],[2.37699,48.87206],[2.38492,48.87375],[2.38677,48.8746],[2.38855,48.87479],[2.38978,48.87534],[2.39533,48.87525],[2.40257,48.87601],[2.41084,48.87842],[2.4125,48.87638]]]}}]}