{"type":"FeatureCollection","features":[{"type":"Feature","properties":{"name":"Hauts-de-Seine","code":"92"},"geometry":{"type":"Polygon","coordinates":[[[2.29097,48.95097],[2.32697,48.94536],[2.33556,48.94068],[2.33635,48.93235],[2.33243,48.92634],[2.31982,48.91594],[2.31376,48.91401],[2.32088,48.90464],[2.31988,48.90046],[2.28567,48.88657],[2.2809,48.8828],[2.27995,48.87857],[2.25847,48.88039],[2.25541,48.87426],[2.24569,48.87643],[2.24109,48.87243],[2.23174,48.86907],[2.22822,48.86518],[2.22422,48.85352],[2.25248,48.84548],[2.25171,48.83882],[2.25514,48.83481],[2.2673,48.83466],[2.27005,48.83301],[2.26722,48.83154],[2.26754,48.82779],[2.2728,48.82792],[2.27906,48.83249],[2.29219,48.82715],[2.33247,48.81825],[2.32551,48.80953],[2.31905,48.80995],[2.31786,48.80841],[2.31834,48.80603],[2.324,48.80537],[2.32596,48.80666],[2.3187,48.788],[2.32512,48.78631],[2.32445,48.78225],[2.32581,48.78191],[2.32458,48.77907],[2.32662,48.77873],[2.31567,48.7668],[2.31336,48.76015],[2.3087,48.75542],[2.31146,48.75433],[2.31012,48.75219],[2.32072,48.74876],[2.31848,48.74504],[2.31434,48.7433],[2.31703,48.74089],[2.31304,48.7382],[2.31872,48.73702],[2.31444,48.73043],[2.30792,48.72935],[2.30384,48.72949],[2.30154,48.73623],[2.30245,48.7408],[2.27986,48.73271],[2.27535,48.73974],[2.28481,48.74564],[2.2854,48.74751],[2.27951,48.75315],[2.27501,48.75525],[2.27615,48.75665],[2.26944,48.75765],[2.27092,48.7607],[2.26865,48.76068],[2.269,48.76202],[2.26201,48.75979],[2.24933,48.76185],[2.24702,48.76083],[2.23859,48.76647],[2.23298,48.7662],[2.23313,48.76918],[2.23065,48.77126],[2.2304,48.77395],[2.22407,48.77786],[2.22367,48.78066],[2.22663,48.78158],[2.22332,48.78595],[2.21924,48.78536],[2.2115,48.78814],[2.20895,48.78761],[2.21162,48.79126],[2.20264,48.7984],[2.18294,48.79723],[2.18696,48.8007],[2.18196,48.8006],[2.18042,48.80481],[2.18307,48.80526],[2.17635,48.81099],[2.17674,48.81401],[2.17482,48.81511],[2.16931,48.81591],[2.16661,48.81231],[2.16271,48.8124],[2.15158,48.81702],[2.1503,48.81875],[2.15147,48.82141],[2.14587,48.83602],[2.14572,48.84178],[2.15095,48.84799],[2.15987,48.84754],[2.15032,48.85801],[2.15495,48.86378],[2.15376,48.8644],[2.15714,48.86963],[2.14848,48.86847],[2.15831,48.88061],[2.16348,48.88318],[2.16333,48.88844],[2.16838,48.89508],[2.17652,48.90035],[2.19267,48.9048],[2.20615,48.91093],[2.23114,48.92773],[2.26084,48.94344],[2.26872,48.94658],[2.29097,48.95097]]]}},{"type":"Feature","properties":{"name":"Seine-Saint-Denis","code":"93"},"geometry":{"type":"Polygon","coordinates":[[[2.55306,49.00982],[2.55814,49.01201],[2.56579,49.0124],[2.56619,49.01105],[2.56878,49.01113],[2.57055,49.0077],[2.56433,49.00745],[2.56466,49.00565],[2.56951,49.00578],[2.56903,49.00393],[2.57122,49.00416],[2.57584,49.00029],[2.58099,48.99047],[2.57934,48.99016],[2.58144,48.98593],[2.57679,48.98413],[2.57868,48.97914],[2.56352,48.98039],[2.56248,48.97886],[2.58372,48.95705],[2.58588,48.957],[2.58981,48.95344],[2.59361,48.94728],[2.59593,48.93861],[2.60319,48.93754],[2.6026,48.92936],[2.59418,48.92574],[2.58877,48.92094],[2.59075,48.91188],[2.58881,48.90949],[2.59237,48.9077],[2.5842,48.90335],[2.58893,48.89864],[2.58695,48.89814],[2.58703,48.89395],[2.58386,48.89491],[2.57663,48.89223],[2.57223,48.8925],[2.57016,48.89039],[2.56275,48.88971],[2.55941,48.88647],[2.56037,48.88417],[2.56487,48.88144],[2.57137,48.8797],[2.56801,48.87435],[2.57068,48.86935],[2.56763,48.86588],[2.57242,48.86794],[2.57802,48.86521],[2.58733,48.86501],[2.58793,48.86361],[2.58635,48.86001],[2.58171,48.85836],[2.58306,48.85543],[2.57384,48.85338],[2.58663,48.8338],[2.58572,48.83057],[2.58726,48.82566],[2.59165,48.82767],[2.5946,48.82129],[2.59646,48.81089],[2.59228,48.80744],[2.57006,48.81504],[2.5685,48.81828],[2.57221,48.82366],[2.56132,48.82648],[2.56037,48.82882],[2.5474,48.83611],[2.54418,48.83499],[2.5382,48.8368],[2.53665,48.83851],[2.54026,48.83934],[2.53443,48.84528],[2.5287,48.84376],[2.52484,48.84907],[2.51898,48.84818],[2.51565,48.85138],[2.51367,48.85017],[2.50544,48.85719],[2.49652,48.85609],[2.49496,48.85883],[2.49647,48.85919],[2.49612,48.86076],[2.49162,48.85968],[2.49101,48.86081],[2.48153,48.86141],[2.48078,48.86015],[2.46825,48.8607],[2.46676,48.86003],[2.4673,48.85666],[2.45386,48.85546],[2.44874,48.85344],[2.4471,48.85116],[2.43518,48.85328],[2.43443,48.85085],[2.42953,48.85098],[2.42918,48.84874],[2.41634,48.84924],[2.41239,48.876],[2.40946,48.8801],[2.4002,48.88383],[2.39762,48.89458],[2.3949,48.89844],[2.39033,48.90101],[2.38515,48.90201],[2.31988,48.90046],[2.32088,48.90464],[2.31376,48.91401],[2.31982,48.91594],[2.33243,48.92634],[2.33635,48.93235],[2.33556,48.94068],[2.32697,48.94536],[2.29097,48.95097],[2.29228,48.95139],[2.28825,48.95835],[2.28982,48.96145],[2.29896,48.9663],[2.30497,48.96231],[2.30894,48.96351],[2.31037,48.96175],[2.31318,48.96222],[2.3228,48.95754],[2.32773,48.95966],[2.33297,48.95552],[2.3441,48.96824],[2.35393,48.96573],[2.35872,48.97274],[2.36616,48.97413],[2.38454,48.971],[2.39797,48.95989],[2.40738,48.95612],[2.41755,48.95951],[2.41885,48.95775],[2.42816,48.95904],[2.43591,48.95518],[2.44522,48.95682],[2.45034,48.95492],[2.45949,48.95505],[2.46086,48.95846],[2.46733,48.96433],[2.46943,48.96305],[2.47502,48.96776],[2.47781,48.96671],[2.48075,48.96982],[2.48683,48.96729],[2.49013,48.97016],[2.48829,48.97116],[2.49274,48.97453],[2.49601,48.97272],[2.49809,48.97395],[2.49585,48.97501],[2.50052,48.97529],[2.50215,48.97657],[2.5004,48.9777],[2.5037,48.97947],[2.51477,48.98226],[2.51265,48.98587],[2.51894,48.98774],[2.51882,48.99076],[2.52292,48.99193],[2.52437,48.99625],[2.53224,49.00522],[2.5355,49.00656],[2.53565,49.00528],[2.54406,49.00559],[2.54928,49.00306],[2.54882,49.00665],[2.55309,49.00677],[2.55306,49.00982]]]}},{"type":"Feature","properties":{"name":"Val-de-Marne","code":"94"},"geometry":{"type":"Polygon","coordinates":[[[2.3319,48.81701],[2.34717,48.8161],[2.35239,48.81856],[2.35615,48.81598],[2.36293,48.81608],[2.40247,48.82954],[2.41114,48.82489],[2.42923,48.82362],[2.43746,48.81818],[2.459,48.81724],[2.4627,48.81906],[2.46618,48.82733],[2.46457,48.82766],[2.46496,48.83044],[2.46896,48.83392],[2.46971,48.83658],[2.46522,48.84111],[2.44653,48.84575],[2.43796,48.84467],[2.43718,48.84089],[2.42453,48.84189],[2.42184,48.84444],[2.41953,48.84145],[2.42214,48.83579],[2.4135,48.83372],[2.41224,48.83454],[2.41634,48.84924],[2.42918,48.84874],[2.42953,48.85098],[2.43443,48.85085],[2.43518,48.85328],[2.4471,48.85116],[2.44874,48.85344],[2.45386,48.85546],[2.4673,48.85666],[2.46676,48.86003],[2.46825,48.8607],[2.48078,48.86015],[2.48153,48.86141],[2.49101,48.86081],[2.49162,48.85968],[2.49612,48.86076],[2.49647,48.85919],[2.49496,48.85883],[2.49652,48.85609],[2.50544,48.85719],[2.51367,48.85017],[2.51565,48.85138],[2.51898,48.84818],[2.52484,48.84907],[2.5287,48.84376],[2.53443,48.84528],[2.54026,48.83934],[2.53665,48.83851],[2.5382,48.8368],[2.54418,48.83499],[2.5474,48.83611],[2.56037,48.82882],[2.56132,48.82648],[2.57221,48.82366],[2.5685,48.81828],[2.57006,48.81504],[2.59648,48.80613],[2.59211,48.7996],[2.59294,48.79761],[2.59977,48.79498],[2.59423,48.78832],[2.59495,48.78504],[2.59196,48.78536],[2.59141,48.78361],[2.58848,48.78299],[2.58845,48.77827],[2.58561,48.77862],[2.5868,48.77355],[2.59278,48.77119],[2.607,48.7744],[2.61113,48.77035],[2.61557,48.76237],[2.61482,48.76112],[2.60274,48.75897],[2.59754,48.76057],[2.59937,48.75549],[2.60234,48.75373],[2.59619,48.74732],[2.59177,48.7476],[2.58541,48.74171],[2.59531,48.73652],[2.59415,48.73567],[2.59468,48.73181],[2.59032,48.73114],[2.5809,48.72194],[2.57921,48.72275],[2.57528,48.71283],[2.5721,48.71346],[2.56814,48.70897],[2.57056,48.70502],[2.57,48.70348],[2.58186,48.69744],[2.57064,48.69494],[2.57166,48.69201],[2.55387,48.68832],[2.55036,48.68854],[2.55079,48.69053],[2.54565,48.69319],[2.54654,48.69517],[2.54422,48.69472],[2.5428,48.69688],[2.54431,48.69845],[2.5416,48.70012],[2.53622,48.69716],[2.5359,48.70081],[2.53108,48.69979],[2.52858,48.70388],[2.52947,48.70792],[2.52255,48.70982],[2.51731,48.71591],[2.51575,48.72894],[2.51026,48.73457],[2.50754,48.7331],[2.5062,48.73571],[2.47877,48.72764],[2.46793,48.72658],[2.46597,48.72951],[2.46487,48.7272],[2.46055,48.72618],[2.46001,48.72384],[2.45423,48.72468],[2.45416,48.72045],[2.44843,48.7218],[2.44793,48.71795],[2.4506,48.71579],[2.4488,48.71483],[2.44237,48.72155],[2.44354,48.72446],[2.44013,48.72543],[2.42554,48.7227],[2.41426,48.71782],[2.41327,48.71869],[2.41582,48.72086],[2.41238,48.72193],[2.41013,48.72574],[2.40224,48.72655],[2.39747,48.7212],[2.39171,48.72263],[2.38505,48.71914],[2.37824,48.7208],[2.37655,48.71941],[2.37071,48.72018],[2.36935,48.74606],[2.36291,48.74609],[2.36301,48.74411],[2.35934,48.7424],[2.35644,48.73816],[2.34775,48.74148],[2.34169,48.74046],[2.33715,48.74226],[2.33771,48.74324],[2.33375,48.7468],[2.32688,48.75116],[2.32266,48.74812],[2.31012,48.75219],[2.31146,48.75433],[2.3087,48.75542],[2.31336,48.76015],[2.31567,48.7668],[2.32662,48.77873],[2.32458,48.77907],[2.32581,48.78191],[2.32445,48.78225],[2.32512,48.78631],[2.3187,48.788],[2.32596,48.80666],[2.324,48.80537],[2.31834,48.80603],[2.31786,48.80841],[2.31905,48.80995],[2.32551,48.80953],[2.3319,48.81701]]]}}]}