{"type":"FeatureCollection","features":[{"type":"Feature","properties":{"name":"Ile-de-France"},"geometry":{"type":"Polygon","coordinates":[[[2.59052,49.07965],[2.6033,49.08588],[2.61034,49.09494],[2.623,49.09559],[2.63327,49.10838],[2.63655,49.10711],[2.63584,49.10181],[2.64124,49.09909],[2.65021,49.10055],[2.67739,49.08829],[2.69502,49.07474],[2.68991,49.06757],[2.69781,49.0644],[2.70523,49.06504],[2.72436,49.08046],[2.72466,49.07537],[2.72931,49.07477],[2.73242,49.0704],[2.73501,49.06045],[2.75355,49.06074],[2.77793,49.07023],[2.78708,49.0755],[2.76834,49.08326],[2.78887,49.08287],[2.78399,49.08864],[2.80925,49.09754],[2.81985,49.08737],[2.82954,49.08383],[2.84495,49.08488],[2.85496,49.07338],[2.85465,49.07018],[2.87032,49.07019],[2.88761,49.07947],[2.89495,49.07706],[2.90151,49.08537],[2.92331,49.07758],[2.93307,49.08095],[2.94059,49.07713],[2.94583,49.08808],[2.95674,49.08541],[2.96873,49.09146],[2.97535,49.0742],[2.98689,49.07107],[2.99124,49.08401],[3.00088,49.08953],[3.00605,49.08645],[3.00852,49.09151],[3.03157,49.08561],[3.03279,49.08907],[3.051,49.08509],[3.05854,49.08855],[3.06501,49.08515],[3.0631,49.09058],[3.05562,49.09643],[3.05602,49.10048],[3.06969,49.11752],[3.08098,49.11183],[3.0948,49.11169],[3.10264,49.108],[3.13817,49.10713],[3.14397,49.10192],[3.16523,49.09965],[3.15358,49.08328],[3.17663,49.06958],[3.18159,49.06275],[3.18217,49.05236],[3.19075,49.05104],[3.18924,49.04596],[3.18046,49.04449],[3.18273,49.04169],[3.17692,49.03075],[3.16103,49.02423],[3.16829,49.01667],[3.1674,49.0124],[3.18052,49.01298],[3.19754,49.00849],[3.19605,49.00482],[3.20716,49.00069],[3.20932,48.99379],[3.22471,48.99102],[3.22484,48.98733],[3.22918,48.98842],[3.22714,48.98191],[3.23033,48.98131],[3.23122,48.97675],[3.24935,48.97436],[3.2594,48.95333],[3.25721,48.95249],[3.26297,48.94903],[3.26018,48.94479],[3.26487,48.93915],[3.27187,48.93755],[3.28453,48.94053],[3.30475,48.94876],[3.31288,48.93362],[3.31308,48.92122],[3.3303,48.90871],[3.33648,48.90919],[3.34649,48.91702],[3.35358,48.91524],[3.36053,48.9184],[3.36677,48.92253],[3.36831,48.92766],[3.3765,48.90968],[3.37148,48.90524],[3.36897,48.89368],[3.38369,48.88891],[3.38103,48.8869],[3.38323,48.88455],[3.38107,48.88392],[3.38143,48.87157],[3.39165,48.87086],[3.39324,48.8754],[3.40586,48.87588],[3.40594,48.87084],[3.40048,48.86771],[3.40421,48.86398],[3.42399,48.86738],[3.43035,48.86074],[3.44563,48.86035],[3.45223,48.85629],[3.44536,48.84323],[3.46071,48.83944],[3.46617,48.84252],[3.47046,48.851],[3.48519,48.85191],[3.49131,48.83467],[3.48496,48.82501],[3.4872,48.81519],[3.48092,48.81218],[3.47038,48.82089],[3.44815,48.81115],[3.43217,48.81226],[3.41661,48.81783],[3.40417,48.80927],[3.41113,48.8037],[3.42304,48.80075],[3.44212,48.80358],[3.43994,48.79812],[3.44395,48.79139],[3.44186,48.78241],[3.43817,48.78511],[3.42945,48.77943],[3.4241,48.78412],[3.40892,48.7839],[3.39583,48.75925],[3.39911,48.755],[3.4091,48.7523],[3.42586,48.75452],[3.42852,48.75839],[3.43659,48.75318],[3.43628,48.74368],[3.44407,48.73663],[3.46973,48.73787],[3.46531,48.71187],[3.46726,48.70857],[3.4643,48.70738],[3.47778,48.69792],[3.47256,48.69786],[3.47168,48.68567],[3.46268,48.68545],[3.44755,48.67725],[3.44949,48.67576],[3.4427,48.67251],[3.44618,48.6669],[3.44061,48.66365],[3.46043,48.65301],[3.45109,48.63465],[3.47657,48.63733],[3.49288,48.64762],[3.5175,48.64337],[3.53324,48.64651],[3.51738,48.63719],[3.51907,48.63347],[3.53798,48.63162],[3.55851,48.61696],[3.54084,48.61604],[3.54011,48.61264],[3.53462,48.61035],[3.50321,48.60456],[3.51586,48.58978],[3.49318,48.59025],[3.48528,48.58043],[3.47338,48.57688],[3.46552,48.57049],[3.47423,48.56449],[3.47638,48.55208],[3.48589,48.54727],[3.47909,48.54552],[3.48175,48.54145],[3.47566,48.5414],[3.45695,48.52963],[3.44003,48.5284],[3.41424,48.53347],[3.4054,48.52801],[3.42355,48.51481],[3.4351,48.49602],[3.43464,48.49025],[3.42044,48.49174],[3.40966,48.48569],[3.40507,48.48855],[3.40398,48.48602],[3.39811,48.4863],[3.39933,48.48361],[3.39348,48.48434],[3.39245,48.48156],[3.38336,48.47944],[3.3885,48.47719],[3.39115,48.47047],[3.39964,48.46768],[3.39438,48.46274],[3.40648,48.45245],[3.40494,48.43941],[3.40159,48.43575],[3.39515,48.43682],[3.39663,48.43274],[3.39167,48.42325],[3.41183,48.42131],[3.41146,48.41742],[3.40241,48.41767],[3.4025,48.41517],[3.4221,48.41619],[3.41479,48.39027],[3.40204,48.38971],[3.38789,48.39835],[3.37791,48.39911],[3.37348,48.3935],[3.36722,48.39432],[3.36279,48.38258],[3.36516,48.37228],[3.35642,48.37121],[3.35656,48.37845],[3.35097,48.37863],[3.34842,48.37326],[3.3364,48.373],[3.33547,48.37018],[3.31207,48.37723],[3.30932,48.37698],[3.31091,48.37297],[3.30515,48.37287],[3.29933,48.37544],[3.30019,48.37837],[3.28963,48.37584],[3.29126,48.38005],[3.28282,48.38157],[3.2824,48.37752],[3.26802,48.37797],[3.26704,48.37355],[3.26089,48.37301],[3.26174,48.36829],[3.25438,48.36502],[3.22372,48.3704],[3.20034,48.36368],[3.19026,48.37093],[3.18494,48.36813],[3.17967,48.37572],[3.17181,48.37768],[3.16677,48.37065],[3.15242,48.37144],[3.14657,48.36565],[3.13987,48.3726],[3.12809,48.36963],[3.12885,48.36723],[3.11721,48.36662],[3.10342,48.34951],[3.0996,48.3516],[3.10115,48.35645],[3.09888,48.35782],[3.08869,48.35725],[3.07836,48.36119],[3.06055,48.35744],[3.04952,48.36012],[3.03714,48.34257],[3.03962,48.34165],[3.03666,48.33502],[3.04358,48.33044],[3.02822,48.32163],[3.02703,48.31701],[3.01478,48.30622],[3.02744,48.30286],[3.01874,48.29476],[3.02977,48.28584],[3.02496,48.27601],[3.04547,48.27073],[3.04276,48.26201],[3.04757,48.2497],[3.03146,48.24888],[3.02756,48.24148],[3.01857,48.23519],[3.02281,48.23032],[3.01131,48.22081],[3.00462,48.20677],[2.99301,48.20445],[2.98896,48.20902],[2.97305,48.20555],[2.97376,48.19678],[2.97131,48.19477],[2.95542,48.19252],[2.93695,48.18303],[2.93458,48.17594],[2.93631,48.16339],[2.86803,48.15643],[2.84988,48.1411],[2.83618,48.13414],[2.82421,48.13393],[2.82088,48.12966],[2.80122,48.13145],[2.79688,48.14172],[2.80114,48.14958],[2.79791,48.15116],[2.81142,48.16376],[2.81033,48.16613],[2.80168,48.16428],[2.80008,48.16806],[2.79526,48.16908],[2.79207,48.16455],[2.77916,48.1675],[2.77172,48.16169],[2.76724,48.1649],[2.75517,48.16009],[2.73641,48.16631],[2.741,48.15987],[2.75358,48.15321],[2.7552,48.14565],[2.72046,48.13691],[2.70532,48.12303],[2.67743,48.12593],[2.66475,48.12054],[2.63967,48.13895],[2.60268,48.13149],[2.57482,48.13127],[2.57056,48.14082],[2.55827,48.14161],[2.53751,48.14034],[2.51964,48.12714],[2.52187,48.12512],[2.47601,48.12964],[2.46487,48.12911],[2.45438,48.12237],[2.44921,48.12548],[2.44431,48.12423],[2.44426,48.13147],[2.46012,48.13685],[2.46753,48.14822],[2.47465,48.14883],[2.47386,48.15406],[2.47857,48.155],[2.48324,48.16452],[2.50633,48.15644],[2.51653,48.16624],[2.51235,48.17068],[2.51547,48.17477],[2.50728,48.17968],[2.51814,48.18991],[2.51297,48.19298],[2.52313,48.19489],[2.52294,48.20052],[2.51851,48.20133],[2.52102,48.20659],[2.51699,48.20983],[2.5174,48.21438],[2.51412,48.21438],[2.51334,48.22436],[2.51833,48.22759],[2.50689,48.22599],[2.50619,48.23854],[2.48411,48.23905],[2.47634,48.24444],[2.4789,48.24951],[2.46909,48.25527],[2.45016,48.25004],[2.4464,48.25518],[2.44014,48.2532],[2.42352,48.26037],[2.4177,48.27885],[2.42317,48.28752],[2.42332,48.29476],[2.40892,48.30911],[2.40266,48.32072],[2.39747,48.31456],[2.36995,48.30867],[2.36713,48.31206],[2.35823,48.30849],[2.35347,48.31441],[2.34198,48.31683],[2.33478,48.32739],[2.32816,48.3264],[2.32755,48.33297],[2.32645,48.32965],[2.32365,48.33238],[2.31718,48.33157],[2.31259,48.3308],[2.29569,48.30808],[2.2669,48.31468],[2.26259,48.31037],[2.26522,48.30937],[2.25888,48.30721],[2.25357,48.30024],[2.24516,48.2984],[2.2493,48.31629],[2.23805,48.31637],[2.24617,48.33126],[2.23774,48.33207],[2.23343,48.33067],[2.23432,48.32788],[2.22757,48.32963],[2.22851,48.33296],[2.22391,48.33642],[2.21583,48.33421],[2.20709,48.34494],[2.20225,48.3446],[2.20508,48.34229],[2.20286,48.33891],[2.1879,48.33237],[2.18812,48.32805],[2.18213,48.32427],[2.1849,48.32112],[2.18069,48.31168],[2.17171,48.31594],[2.16902,48.3127],[2.1523,48.31591],[2.15571,48.3045],[2.16097,48.30455],[2.16375,48.29843],[2.1106,48.29695],[2.11372,48.30725],[2.10617,48.30763],[2.08534,48.29401],[2.05271,48.29547],[2.05193,48.29098],[2.04126,48.28438],[2.0374,48.28823],[2.02499,48.28923],[2.01155,48.28483],[1.97529,48.2872],[1.97272,48.28822],[1.97451,48.29291],[1.98038,48.29225],[1.98237,48.29545],[1.9652,48.29516],[1.95923,48.30869],[1.97346,48.31591],[1.9745,48.3126],[1.97909,48.31266],[1.98065,48.31877],[1.9745,48.32317],[1.98234,48.32832],[1.9687,48.34131],[1.97536,48.34479],[1.97331,48.35581],[1.98903,48.36358],[1.98458,48.3651],[1.98415,48.36834],[1.97801,48.36886],[1.98215,48.37485],[1.98031,48.37826],[1.96672,48.38042],[1.97416,48.38979],[1.97335,48.39577],[1.97824,48.402],[1.94642,48.40634],[1.93212,48.40341],[1.92837,48.40605],[1.93273,48.41069],[1.92589,48.41274],[1.92762,48.41634],[1.93194,48.41631],[1.93219,48.42036],[1.93961,48.41958],[1.94072,48.42548],[1.93676,48.43005],[1.93916,48.43428],[1.93633,48.43481],[1.94289,48.44109],[1.93296,48.44204],[1.93282,48.44968],[1.92855,48.45097],[1.92945,48.45696],[1.92215,48.4576],[1.92074,48.44775],[1.90709,48.44536],[1.90426,48.43861],[1.87169,48.43978],[1.85762,48.44678],[1.84492,48.4461],[1.84413,48.45203],[1.8396,48.45232],[1.83659,48.46709],[1.80145,48.46604],[1.80321,48.47257],[1.79156,48.48124],[1.79634,48.48419],[1.78564,48.49008],[1.79064,48.49684],[1.78905,48.50016],[1.78303,48.50022],[1.77989,48.50956],[1.77684,48.50931],[1.77837,48.51768],[1.77575,48.52771],[1.78725,48.55374],[1.77818,48.55263],[1.76796,48.55896],[1.76273,48.56513],[1.76533,48.56937],[1.7574,48.57496],[1.74586,48.57614],[1.74389,48.57246],[1.73683,48.57228],[1.73178,48.57554],[1.72742,48.5726],[1.70925,48.57802],[1.7103,48.58136],[1.70199,48.585],[1.71877,48.60574],[1.71466,48.61468],[1.70282,48.61181],[1.69258,48.61464],[1.6871,48.61117],[1.68232,48.6156],[1.69063,48.61741],[1.68491,48.61983],[1.67442,48.61471],[1.66794,48.61709],[1.66622,48.61371],[1.65517,48.62272],[1.65824,48.62764],[1.64957,48.63227],[1.65042,48.63744],[1.63832,48.6451],[1.64385,48.64806],[1.6432,48.65129],[1.62122,48.64958],[1.60312,48.66242],[1.60128,48.66834],[1.608,48.6723],[1.60469,48.67524],[1.61177,48.68947],[1.60539,48.68926],[1.59436,48.69483],[1.5912,48.69251],[1.58219,48.69605],[1.58512,48.69926],[1.57685,48.70258],[1.59171,48.70772],[1.5876,48.71062],[1.61583,48.73615],[1.62026,48.73601],[1.62654,48.74805],[1.60834,48.76075],[1.58547,48.76172],[1.58146,48.76552],[1.58759,48.7736],[1.57663,48.78302],[1.57529,48.79115],[1.58096,48.79375],[1.57754,48.79553],[1.57999,48.79991],[1.57725,48.8052],[1.58202,48.80532],[1.58071,48.81056],[1.5912,48.81487],[1.58409,48.8266],[1.57898,48.82944],[1.59392,48.83372],[1.59785,48.83906],[1.57727,48.84436],[1.58404,48.86051],[1.56049,48.86781],[1.55884,48.86424],[1.55522,48.86507],[1.54623,48.87243],[1.55624,48.88221],[1.55978,48.88205],[1.56374,48.89063],[1.5534,48.89326],[1.54997,48.89872],[1.53917,48.90489],[1.53843,48.90848],[1.54525,48.91299],[1.5384,48.92251],[1.51864,48.92535],[1.51419,48.92195],[1.50734,48.9276],[1.51201,48.93447],[1.50152,48.94105],[1.511,48.95357],[1.50107,48.95268],[1.49497,48.95679],[1.49873,48.95695],[1.49935,48.96046],[1.4919,48.96441],[1.49661,48.96934],[1.51839,48.97835],[1.51242,48.97863],[1.5079,48.98376],[1.49836,48.97916],[1.47858,48.98055],[1.47504,48.97953],[1.47736,48.97689],[1.47089,48.97482],[1.4661,48.98391],[1.46093,48.98644],[1.4617,48.98887],[1.47153,48.9897],[1.46907,48.9935],[1.47875,48.99889],[1.48003,49.00753],[1.47412,49.0096],[1.47788,49.01376],[1.47493,49.01775],[1.45776,49.02629],[1.45796,49.03484],[1.44645,49.04635],[1.4528,49.05054],[1.44728,49.05351],[1.45692,49.05789],[1.46173,49.06414],[1.48029,49.05201],[1.48741,49.05165],[1.49376,49.05699],[1.5033,49.0591],[1.51001,49.06706],[1.51431,49.07937],[1.50792,49.08539],[1.51593,49.08086],[1.52135,49.06835],[1.5413,49.07371],[1.55814,49.06916],[1.56924,49.07328],[1.57341,49.07848],[1.60508,49.08517],[1.60707,49.08417],[1.60345,49.08328],[1.6088,49.07789],[1.62332,49.08608],[1.61913,49.08776],[1.62309,49.09341],[1.61754,49.09399],[1.61858,49.09698],[1.62754,49.10306],[1.62956,49.10995],[1.64457,49.11845],[1.6471,49.12471],[1.65768,49.13188],[1.65657,49.13768],[1.65295,49.13824],[1.65306,49.14463],[1.66437,49.15337],[1.66097,49.1578],[1.66468,49.16587],[1.6702,49.16946],[1.66639,49.17685],[1.67182,49.18088],[1.66907,49.18667],[1.6765,49.20016],[1.67688,49.20318],[1.67223,49.2062],[1.67491,49.21148],[1.6889,49.21835],[1.69164,49.22345],[1.69863,49.22452],[1.70885,49.2355],[1.7094,49.24131],[1.71264,49.24119],[1.71211,49.23302],[1.72966,49.2292],[1.74045,49.22344],[1.73411,49.22128],[1.73369,49.21096],[1.71477,49.20734],[1.71555,49.20266],[1.72505,49.20078],[1.72682,49.19489],[1.73744,49.1946],[1.74464,49.18318],[1.74083,49.18073],[1.75551,49.17459],[1.78481,49.18583],[1.79099,49.17986],[1.79433,49.18041],[1.79547,49.18526],[1.80258,49.18493],[1.80355,49.17996],[1.81384,49.17802],[1.81169,49.17361],[1.82691,49.17961],[1.8343,49.17564],[1.83748,49.17318],[1.83647,49.16454],[1.84449,49.17043],[1.85822,49.16986],[1.87677,49.17531],[1.87704,49.17145],[1.88321,49.16631],[1.88257,49.16249],[1.92451,49.17352],[1.93433,49.17356],[1.93491,49.17008],[1.94982,49.17035],[1.9627,49.17461],[1.97344,49.1839],[1.99039,49.17667],[2.00184,49.17594],[2.02178,49.18868],[2.03356,49.18811],[2.04753,49.19859],[2.07199,49.20413],[2.07491,49.20869],[2.08089,49.21045],[2.08283,49.20569],[2.09117,49.20854],[2.0902,49.19833],[2.09255,49.19564],[2.08946,49.19604],[2.08946,49.19366],[2.09771,49.18917],[2.10966,49.19073],[2.11334,49.18654],[2.1281,49.19341],[2.13521,49.19118],[2.13695,49.17905],[2.14076,49.17892],[2.14056,49.18574],[2.14705,49.1881],[2.14829,49.18485],[2.16457,49.17967],[2.15775,49.1726],[2.16879,49.16395],[2.17124,49.16769],[2.18225,49.17038],[2.1761,49.17603],[2.19552,49.17318],[2.20968,49.17553],[2.21865,49.18068],[2.23541,49.16703],[2.21656,49.15469],[2.22958,49.15129],[2.25378,49.15261],[2.26221,49.1583],[2.26812,49.15571],[2.28641,49.15992],[2.28509,49.16571],[2.2895,49.16803],[2.2888,49.17071],[2.29943,49.17584],[2.3012,49.18389],[2.31093,49.18641],[2.32178,49.18443],[2.31965,49.18232],[2.34626,49.16182],[2.3593,49.14735],[2.37073,49.15865],[2.37637,49.15904],[2.39129,49.14935],[2.4131,49.15235],[2.4409,49.1458],[2.4354,49.13394],[2.45823,49.14114],[2.46249,49.13912],[2.46151,49.13594],[2.47158,49.13543],[2.4776,49.13107],[2.47547,49.12832],[2.49923,49.12227],[2.50326,49.11758],[2.49159,49.11131],[2.48993,49.10636],[2.53106,49.0996],[2.53299,49.11938],[2.5408,49.12225],[2.54367,49.11972],[2.53853,49.11861],[2.53976,49.11645],[2.54716,49.11621],[2.54897,49.12196],[2.55702,49.12382],[2.55153,49.1126],[2.55575,49.10904],[2.55817,49.09839],[2.57868,49.09195],[2.57885,49.08445],[2.59052,49.07965]]]}}]}