{"type":"FeatureCollection","features":[{"type":"Feature","properties":{"name":"Ablon-sur-Seine","code":"94001"},"geometry":{"type":"Polygon","coordinates":[[[2.41101,48.72605],[2.41554,48.72656],[2.4211,48.72953],[2.42603,48.72824],[2.42756,48.72865],[2.43133,48.72646],[2.43404,48.72665],[2.43513,48.72409],[2.42554,48.7227],[2.41426,48.71782],[2.41327,48.71869],[2.41582,48.72086],[2.41238,48.72193],[2.41136,48.72325],[2.41101,48.72605]]]}},{"type":"Feature","properties":{"name":"Charenton-le-Pont","code":"94018"},"geometry":{"type":"Polygon","coordinates":[[[2.41959,48.81691],[2.40936,48.81667],[2.3957,48.82191],[2.39007,48.8257],[2.39396,48.82743],[2.40247,48.82954],[2.41114,48.82489],[2.41996,48.82408],[2.41959,48.81691]]]}},{"type":"Feature","properties":{"name":"Chennevi\u00e8res-sur-Marne","code":"94019"},"geometry":{"type":"Polygon","coordinates":[[[2.52228,48.80407],[2.52895,48.80606],[2.54005,48.80598],[2.54524,48.80552],[2.54712,48.80379],[2.55116,48.80316],[2.55395,48.80482],[2.55403,48.8081],[2.55851,48.8076],[2.55973,48.80503],[2.55816,48.80373],[2.56647,48.80524],[2.57054,48.80227],[2.57168,48.79894],[2.55546,48.7921],[2.55432,48.79267],[2.55595,48.79445],[2.5541,48.79482],[2.55345,48.79812],[2.54731,48.79745],[2.54763,48.79646],[2.54584,48.79076],[2.53265,48.79227],[2.53055,48.78686],[2.52228,48.78199],[2.5182,48.78469],[2.51686,48.78647],[2.51991,48.78833],[2.52245,48.79228],[2.52348,48.7958],[2.52228,48.80407]]]}},{"type":"Feature","properties":{"name":"Choisy-le-Roi","code":"94022"},"geometry":{"type":"Polygon","coordinates":[[[2.44255,48.76196],[2.44142,48.76119],[2.43402,48.76352],[2.4266,48.7606],[2.42851,48.75818],[2.42565,48.75707],[2.42863,48.7526],[2.42752,48.75101],[2.42462,48.75262],[2.4202,48.74971],[2.41811,48.75279],[2.41379,48.75165],[2.41327,48.75242],[2.40611,48.75107],[2.40332,48.76137],[2.39814,48.76583],[2.40397,48.76686],[2.39873,48.77472],[2.40038,48.77506],[2.40205,48.77302],[2.41195,48.77424],[2.41479,48.77727],[2.42803,48.77603],[2.42761,48.77079],[2.43054,48.77068],[2.43217,48.76678],[2.43557,48.76723],[2.43988,48.7647],[2.43848,48.76367],[2.44255,48.76196]]]}},{"type":"Feature","properties":{"name":"Ivry-sur-Seine","code":"94041"},"geometry":{"type":"Polygon","coordinates":[[[2.37117,48.80399],[2.36422,48.81115],[2.36622,48.81192],[2.36421,48.8164],[2.38076,48.8217],[2.39007,48.8257],[2.3957,48.82191],[2.40936,48.81667],[2.41026,48.81467],[2.40888,48.80846],[2.40419,48.80806],[2.40507,48.80514],[2.39942,48.80366],[2.39481,48.79982],[2.39276,48.80057],[2.39166,48.79935],[2.38667,48.80058],[2.38557,48.80425],[2.37927,48.80147],[2.37568,48.80592],[2.37117,48.80399]]]}},{"type":"Feature","properties":{"name":"Maisons-Alfort","code":"94046"},"geometry":{"type":"Polygon","coordinates":[[[2.43275,48.78673],[2.42523,48.80535],[2.42293,48.80912],[2.4159,48.81633],[2.41959,48.81691],[2.43489,48.81633],[2.43784,48.81693],[2.45091,48.81581],[2.45677,48.81131],[2.46402,48.80736],[2.45745,48.80512],[2.4545,48.80595],[2.44751,48.80212],[2.44263,48.79633],[2.43991,48.7954],[2.44065,48.79338],[2.43677,48.7923],[2.43904,48.78913],[2.43563,48.78822],[2.43601,48.78708],[2.43275,48.78673]]]}},{"type":"Feature","properties":{"name":"Noiseau","code":"94053"},"geometry":{"type":"Polygon","coordinates":[[[2.53555,48.77702],[2.54085,48.78099],[2.54464,48.78253],[2.54948,48.78236],[2.55371,48.78333],[2.55714,48.78633],[2.56197,48.7878],[2.56386,48.78533],[2.56368,48.78267],[2.56642,48.77821],[2.56573,48.77733],[2.56777,48.77461],[2.5722,48.77424],[2.57313,48.77327],[2.57655,48.77269],[2.57661,48.77163],[2.57366,48.77158],[2.57073,48.76928],[2.57168,48.7671],[2.56973,48.76633],[2.56804,48.76734],[2.56325,48.76349],[2.56151,48.76366],[2.56002,48.76591],[2.55886,48.76607],[2.55669,48.7643],[2.55036,48.76553],[2.54295,48.76523],[2.54072,48.76577],[2.53943,48.76757],[2.5407,48.77062],[2.53669,48.77361],[2.53555,48.77702]]]}},{"type":"Feature","properties":{"name":"Orly","code":"94054"},"geometry":{"type":"Polygon","coordinates":[[[2.36935,48.74606],[2.37443,48.7462],[2.37415,48.74836],[2.37801,48.74923],[2.38208,48.74824],[2.38616,48.75035],[2.38931,48.74955],[2.38729,48.75285],[2.39115,48.75215],[2.39331,48.75085],[2.39905,48.75236],[2.39946,48.74968],[2.41811,48.75279],[2.4202,48.74971],[2.42462,48.75262],[2.43254,48.74837],[2.43682,48.74515],[2.42436,48.74266],[2.42185,48.74333],[2.421,48.74474],[2.41911,48.74365],[2.41509,48.74303],[2.41479,48.74368],[2.40872,48.74222],[2.40215,48.73885],[2.40269,48.73801],[2.39113,48.73761],[2.38906,48.73632],[2.38922,48.73447],[2.38776,48.73273],[2.38512,48.73266],[2.38497,48.72989],[2.37977,48.72926],[2.37956,48.72809],[2.37668,48.72765],[2.37044,48.72786],[2.36935,48.74606]]]}},{"type":"Feature","properties":{"name":"Ormesson-sur-Marne","code":"94055"},"geometry":{"type":"Polygon","coordinates":[[[2.53555,48.77702],[2.53059,48.77678],[2.52923,48.77824],[2.52676,48.77707],[2.5203,48.7768],[2.52253,48.7796],[2.51975,48.78087],[2.51231,48.78097],[2.51788,48.7855],[2.52228,48.78199],[2.52484,48.78393],[2.52563,48.78349],[2.53055,48.78686],[2.53265,48.79227],[2.54584,48.79076],[2.54763,48.79646],[2.54731,48.79745],[2.55345,48.79812],[2.5541,48.79482],[2.55595,48.79445],[2.55432,48.79267],[2.56197,48.7878],[2.55714,48.78633],[2.55371,48.78333],[2.54948,48.78236],[2.54464,48.78253],[2.54085,48.78099],[2.53555,48.77702]]]}},{"type":"Feature","properties":{"name":"Plessis-Tr\u00e9vise","code":"94059"},"geometry":{"type":"Polygon","coordinates":[[[2.5685,48.81828],[2.57006,48.81504],[2.57454,48.81369],[2.57413,48.81291],[2.58243,48.81024],[2.59024,48.80901],[2.59228,48.80744],[2.59648,48.80613],[2.58847,48.79332],[2.58201,48.79415],[2.57599,48.79348],[2.57507,48.7955],[2.57231,48.79566],[2.57054,48.80227],[2.56647,48.80524],[2.55816,48.80373],[2.55973,48.80503],[2.55851,48.8076],[2.56198,48.81171],[2.564,48.81227],[2.56553,48.81392],[2.55741,48.81871],[2.55776,48.81952],[2.55612,48.821],[2.55968,48.82277],[2.5685,48.81828]]]}},{"type":"Feature","properties":{"name":"Queue-en-Brie","code":"94060"},"geometry":{"type":"Polygon","coordinates":[[[2.55546,48.7921],[2.57168,48.79894],[2.57231,48.79566],[2.57507,48.7955],[2.57599,48.79348],[2.58201,48.79415],[2.58847,48.79332],[2.59154,48.79736],[2.59605,48.79695],[2.59977,48.79498],[2.59928,48.79335],[2.59423,48.78832],[2.59495,48.78504],[2.59196,48.78536],[2.59141,48.78361],[2.58848,48.78299],[2.58845,48.77827],[2.58561,48.77862],[2.5868,48.77355],[2.58931,48.77152],[2.59278,48.77119],[2.60136,48.77397],[2.607,48.7744],[2.60787,48.77283],[2.61113,48.77035],[2.61308,48.76579],[2.61557,48.76237],[2.61482,48.76112],[2.60274,48.75897],[2.58738,48.76391],[2.58201,48.75503],[2.57711,48.75508],[2.57221,48.75726],[2.57304,48.75817],[2.57006,48.7607],[2.57615,48.75987],[2.58082,48.76493],[2.5769,48.76612],[2.57746,48.76771],[2.57605,48.76848],[2.57168,48.7671],[2.57073,48.76928],[2.57366,48.77158],[2.57661,48.77163],[2.57655,48.77269],[2.56992,48.77478],[2.56777,48.77461],[2.56573,48.77733],[2.56642,48.77821],[2.56368,48.78267],[2.56386,48.78533],[2.56041,48.78925],[2.55546,48.7921]]]}},{"type":"Feature","properties":{"name":"Saint-Maur-des-Foss\u00e9s","code":"94068"},"geometry":{"type":"Polygon","coordinates":[[[2.52228,48.80407],[2.52348,48.7958],[2.52245,48.79228],[2.51991,48.78833],[2.51686,48.78647],[2.5102,48.78419],[2.50139,48.78472],[2.48717,48.78421],[2.47486,48.78764],[2.47215,48.79088],[2.47034,48.7992],[2.46835,48.80438],[2.46063,48.80936],[2.46458,48.81179],[2.46546,48.81107],[2.46995,48.81254],[2.47392,48.81592],[2.48019,48.81352],[2.49324,48.81108],[2.5055,48.81048],[2.51652,48.80893],[2.51916,48.80758],[2.52228,48.80407]]]}},{"type":"Feature","properties":{"name":"Saint-Maurice","code":"94069"},"geometry":{"type":"Polygon","coordinates":[[[2.45465,48.81351],[2.45091,48.81581],[2.43784,48.81693],[2.43489,48.81633],[2.41959,48.81691],[2.41996,48.82408],[2.42923,48.82362],[2.43491,48.81967],[2.43745,48.81911],[2.43746,48.81818],[2.45333,48.81716],[2.459,48.81724],[2.46121,48.81836],[2.46564,48.81639],[2.45945,48.81275],[2.45465,48.81351]]]}},{"type":"Feature","properties":{"name":"Valenton","code":"94074"},"geometry":{"type":"Polygon","coordinates":[[[2.44255,48.76196],[2.43848,48.76367],[2.43988,48.7647],[2.43557,48.76723],[2.43911,48.77125],[2.44094,48.77189],[2.4492,48.77003],[2.45724,48.7662],[2.45958,48.76647],[2.46107,48.76571],[2.46333,48.76678],[2.46637,48.76611],[2.46887,48.76009],[2.46782,48.75122],[2.47252,48.75247],[2.47361,48.74877],[2.4735,48.74451],[2.47605,48.74093],[2.4734,48.73984],[2.47779,48.73581],[2.48226,48.73303],[2.48455,48.72907],[2.47877,48.72764],[2.47298,48.72757],[2.47292,48.73344],[2.47074,48.73795],[2.46575,48.74189],[2.46234,48.73752],[2.45714,48.7402],[2.4619,48.74709],[2.45337,48.749],[2.45438,48.75194],[2.45343,48.75561],[2.44911,48.76106],[2.44473,48.76301],[2.44255,48.76196]]]}},{"type":"Feature","properties":{"name":"Villeneuve-le-Roi","code":"94077"},"geometry":{"type":"Polygon","coordinates":[[[2.37071,48.72018],[2.37044,48.72786],[2.37668,48.72765],[2.37956,48.72809],[2.37977,48.72926],[2.38497,48.72989],[2.38512,48.73266],[2.38776,48.73273],[2.38922,48.73447],[2.38906,48.73632],[2.39113,48.73761],[2.40269,48.73801],[2.40215,48.73885],[2.40449,48.73978],[2.40503,48.74075],[2.41479,48.74368],[2.41509,48.74303],[2.41911,48.74365],[2.421,48.74474],[2.42185,48.74333],[2.42436,48.74266],[2.43682,48.74515],[2.44498,48.73547],[2.4442,48.7283],[2.44282,48.72648],[2.43513,48.72409],[2.43404,48.72665],[2.43133,48.72646],[2.42756,48.72865],[2.42603,48.72824],[2.4211,48.72953],[2.41554,48.72656],[2.41013,48.72574],[2.40224,48.72655],[2.40155,48.72462],[2.39966,48.72466],[2.39747,48.7212],[2.39171,48.72263],[2.39,48.7208],[2.38675,48.72098],[2.38505,48.71914],[2.37824,48.7208],[2.37655,48.71941],[2.37071,48.72018]]]}},{"type":"Feature","properties":{"name":"Villeneuve-Saint-Georges","code":"94078"},"geometry":{"type":"Polygon","coordinates":[[[2.44284,48.72069],[2.44354,48.72446],[2.44116,48.7241],[2.44013,48.72543],[2.44282,48.72648],[2.4442,48.7283],[2.44498,48.73547],[2.43682,48.74515],[2.42752,48.75101],[2.42863,48.7526],[2.42565,48.75707],[2.42851,48.75818],[2.4266,48.7606],[2.43402,48.76352],[2.44142,48.76119],[2.44473,48.76301],[2.44911,48.76106],[2.45343,48.75561],[2.45438,48.75194],[2.45337,48.749],[2.4619,48.74709],[2.45714,48.7402],[2.46234,48.73752],[2.46575,48.74189],[2.47074,48.73795],[2.47292,48.73344],[2.47298,48.72757],[2.46793,48.72658],[2.46739,48.72871],[2.46597,48.72951],[2.46487,48.7272],[2.46055,48.72618],[2.46001,48.72384],[2.45423,48.72468],[2.45333,48.72253],[2.45416,48.72045],[2.44843,48.7218],[2.44752,48.71949],[2.44793,48.71795],[2.45116,48.71488],[2.4488,48.71483],[2.44284,48.72069]]]}},{"type":"Feature","properties":{"name":"Vitry-sur-Seine","code":"94081"},"geometry":{"type":"Polygon","coordinates":[[[2.36727,48.77938],[2.37089,48.78065],[2.36951,48.78236],[2.37689,48.78659],[2.37028,48.79653],[2.37197,48.79717],[2.36979,48.79918],[2.36999,48.80074],[2.37302,48.80252],[2.37117,48.80399],[2.37568,48.80592],[2.37927,48.80147],[2.38557,48.80425],[2.38667,48.80058],[2.39166,48.79935],[2.39276,48.80057],[2.39481,48.79982],[2.39942,48.80366],[2.40507,48.80514],[2.40419,48.80806],[2.40888,48.80846],[2.40909,48.8063],[2.41099,48.80383],[2.4184,48.79771],[2.42166,48.79434],[2.42267,48.79177],[2.42201,48.78804],[2.41596,48.77864],[2.41195,48.77424],[2.40205,48.77302],[2.40038,48.77506],[2.39234,48.77337],[2.39254,48.77234],[2.38862,48.77193],[2.38812,48.77323],[2.38191,48.77184],[2.37925,48.77313],[2.37652,48.77156],[2.37418,48.77183],[2.37106,48.77002],[2.36782,48.77191],[2.36727,48.77938]]]}},{"type":"Feature","properties":{"name":"Coubron","code":"93015"},"geometry":{"type":"Polygon","coordinates":[[[2.55922,48.9214],[2.56062,48.92459],[2.56211,48.92526],[2.56458,48.92832],[2.56729,48.92453],[2.572,48.92439],[2.57212,48.92583],[2.57508,48.92591],[2.57642,48.92727],[2.59063,48.92808],[2.59262,48.92656],[2.59234,48.92502],[2.58877,48.92094],[2.589,48.91727],[2.59045,48.91581],[2.59075,48.91188],[2.58881,48.90949],[2.59237,48.9077],[2.59142,48.90714],[2.58401,48.91065],[2.57902,48.90832],[2.5773,48.90657],[2.5652,48.90836],[2.55999,48.91102],[2.56397,48.91307],[2.56398,48.9155],[2.56216,48.92077],[2.55922,48.9214]]]}},{"type":"Feature","properties":{"name":"\u00c9pinay-sur-Seine","code":"93031"},"geometry":{"type":"Polygon","coordinates":[[[2.29862,48.96635],[2.30156,48.96523],[2.30497,48.96231],[2.30894,48.96351],[2.31037,48.96175],[2.31318,48.96222],[2.31918,48.95867],[2.3228,48.95754],[2.32834,48.95966],[2.3458,48.94653],[2.33967,48.94761],[2.33653,48.94532],[2.33926,48.94554],[2.34116,48.94415],[2.33836,48.94261],[2.33311,48.94563],[2.31406,48.95021],[2.30348,48.95174],[2.29228,48.95139],[2.28846,48.95897],[2.28982,48.96145],[2.29862,48.96635]]]}},{"type":"Feature","properties":{"name":"Asni\u00e8res-sur-Seine","code":"92004"},"geometry":{"type":"Polygon","coordinates":[[[2.31982,48.91594],[2.29819,48.90974],[2.28427,48.90228],[2.28185,48.90462],[2.28013,48.90364],[2.27431,48.90828],[2.2682,48.90597],[2.2664,48.90629],[2.26495,48.91027],[2.27216,48.91017],[2.27232,48.91273],[2.28065,48.91911],[2.27614,48.92305],[2.27239,48.92855],[2.27304,48.93384],[2.28112,48.93304],[2.28335,48.93175],[2.28438,48.93023],[2.28453,48.92614],[2.28692,48.92168],[2.29186,48.9179],[2.29524,48.91992],[2.29631,48.91274],[2.31775,48.92082],[2.32202,48.91867],[2.31982,48.91594]]]}},{"type":"Feature","properties":{"name":"Bourg-la-Reine","code":"92014"},"geometry":{"type":"Polygon","coordinates":[[[2.31244,48.77217],[2.31427,48.77683],[2.30701,48.77744],[2.30676,48.77838],[2.31244,48.78932],[2.32512,48.78631],[2.32445,48.78225],[2.32581,48.78191],[2.32458,48.77907],[2.32662,48.77873],[2.32572,48.77707],[2.32374,48.77658],[2.31993,48.77072],[2.31244,48.77217]]]}},{"type":"Feature","properties":{"name":"Clichy","code":"92024"},"geometry":{"type":"Polygon","coordinates":[[[2.31376,48.91401],[2.32088,48.90464],[2.31988,48.90046],[2.31852,48.89963],[2.30378,48.89415],[2.28739,48.90364],[2.29819,48.90974],[2.31376,48.91401]]]}},{"type":"Feature","properties":{"name":"Gennevilliers","code":"92036"},"geometry":{"type":"Polygon","coordinates":[[[2.28112,48.93304],[2.26248,48.93546],[2.25816,48.93755],[2.25099,48.93584],[2.2484,48.93386],[2.2476,48.93674],[2.26872,48.94658],[2.28171,48.94975],[2.29097,48.95097],[2.30198,48.95015],[2.31167,48.94795],[2.30921,48.94031],[2.3181,48.93701],[2.32069,48.93479],[2.32216,48.93285],[2.3184,48.92753],[2.3256,48.92485],[2.32845,48.92276],[2.32202,48.91867],[2.31775,48.92082],[2.29631,48.91274],[2.29524,48.91992],[2.29186,48.9179],[2.28692,48.92168],[2.28453,48.92614],[2.28438,48.93023],[2.28335,48.93175],[2.28112,48.93304]]]}},{"type":"Feature","properties":{"name":"Montrouge","code":"92049"},"geometry":{"type":"Polygon","coordinates":[[[2.33247,48.81825],[2.32551,48.80953],[2.30016,48.81134],[2.31415,48.82229],[2.33247,48.81825]]]}},{"type":"Feature","properties":{"name":"Villeneuve-la-Garenne","code":"92078"},"geometry":{"type":"Polygon","coordinates":[[[2.32845,48.92276],[2.3256,48.92485],[2.3184,48.92753],[2.32216,48.93285],[2.32069,48.93479],[2.3181,48.93701],[2.30921,48.94031],[2.31167,48.94795],[2.32697,48.94536],[2.3321,48.94359],[2.33556,48.94068],[2.33697,48.93536],[2.33635,48.93235],[2.33243,48.92634],[2.32845,48.92276]]]}},{"type":"Feature","properties":{"name":"Aubervilliers","code":"93001"},"geometry":{"type":"Polygon","coordinates":[[[2.38944,48.90115],[2.38515,48.90201],[2.36585,48.90161],[2.3664,48.92152],[2.36771,48.92206],[2.36681,48.92359],[2.36825,48.92436],[2.37112,48.92283],[2.37474,48.92368],[2.37876,48.92171],[2.37999,48.91981],[2.38687,48.91927],[2.38995,48.9199],[2.39125,48.92246],[2.39432,48.9217],[2.3995,48.9221],[2.407,48.91881],[2.40755,48.91791],[2.40427,48.91485],[2.41128,48.91107],[2.40849,48.90811],[2.40528,48.9086],[2.40017,48.91112],[2.38944,48.90115]]]}},{"type":"Feature","properties":{"name":"Bagnolet","code":"93006"},"geometry":{"type":"Polygon","coordinates":[[[2.41328,48.87312],[2.42188,48.87824],[2.43285,48.87895],[2.43672,48.87729],[2.43536,48.87458],[2.43044,48.87075],[2.4304,48.86965],[2.42874,48.86832],[2.42779,48.86645],[2.42873,48.86359],[2.42396,48.86277],[2.42253,48.86098],[2.42335,48.85972],[2.42334,48.85742],[2.41532,48.85518],[2.41366,48.863],[2.41394,48.87083],[2.41328,48.87312]]]}},{"type":"Feature","properties":{"name":"Bobigny","code":"93008"},"geometry":{"type":"Polygon","coordinates":[[[2.41006,48.91669],[2.41349,48.91925],[2.43346,48.91369],[2.43695,48.91305],[2.44116,48.9153],[2.45659,48.91098],[2.46347,48.91193],[2.46689,48.91417],[2.47521,48.9164],[2.47596,48.91285],[2.46986,48.90477],[2.46196,48.90535],[2.46113,48.90208],[2.42402,48.89518],[2.42428,48.89668],[2.4213,48.90207],[2.41169,48.9063],[2.41443,48.90877],[2.41307,48.90945],[2.41553,48.91185],[2.41409,48.91246],[2.41296,48.91547],[2.41006,48.91669]]]}},{"type":"Feature","properties":{"name":"Bondy","code":"93010"},"geometry":{"type":"Polygon","coordinates":[[[2.49173,48.91688],[2.49034,48.90893],[2.49333,48.90707],[2.49333,48.90577],[2.49708,48.90568],[2.49715,48.90464],[2.49982,48.9045],[2.49835,48.8996],[2.49679,48.89961],[2.49563,48.89664],[2.49985,48.89574],[2.4956,48.88918],[2.49076,48.8904],[2.4898,48.88834],[2.48721,48.88847],[2.4868,48.88703],[2.4712,48.88894],[2.47407,48.89501],[2.47257,48.89551],[2.47428,48.89806],[2.4693,48.89933],[2.47019,48.90158],[2.46986,48.90477],[2.47596,48.91285],[2.47427,48.91843],[2.47688,48.92018],[2.4794,48.91977],[2.47912,48.91878],[2.48811,48.91859],[2.49173,48.91688]]]}},{"type":"Feature","properties":{"name":"Clichy-sous-Bois","code":"93014"},"geometry":{"type":"Polygon","coordinates":[[[2.55922,48.9214],[2.56216,48.92077],[2.56398,48.9155],[2.56397,48.91307],[2.55999,48.91102],[2.5652,48.90836],[2.55193,48.90201],[2.54864,48.90159],[2.54658,48.8989],[2.53848,48.89976],[2.536,48.89811],[2.53572,48.89496],[2.53211,48.89523],[2.52984,48.9032],[2.52798,48.90381],[2.52151,48.90366],[2.52561,48.90554],[2.52724,48.9072],[2.53837,48.90945],[2.53855,48.91164],[2.53966,48.91169],[2.54113,48.91541],[2.54441,48.91788],[2.55285,48.91508],[2.55922,48.9214]]]}},{"type":"Feature","properties":{"name":"Courneuve","code":"93027"},"geometry":{"type":"Polygon","coordinates":[[[2.41006,48.91669],[2.3995,48.9221],[2.39432,48.9217],[2.39125,48.92246],[2.38995,48.9199],[2.38687,48.91927],[2.37999,48.91981],[2.37876,48.92171],[2.37474,48.92368],[2.3774,48.92525],[2.37516,48.92781],[2.37788,48.93177],[2.38238,48.93083],[2.38368,48.93218],[2.38505,48.94049],[2.38744,48.9413],[2.38743,48.9422],[2.39394,48.94414],[2.39933,48.94912],[2.40445,48.95132],[2.40925,48.94596],[2.4172,48.94132],[2.41755,48.93962],[2.4158,48.93731],[2.41663,48.93567],[2.41397,48.936],[2.41666,48.93307],[2.41235,48.93261],[2.41611,48.93037],[2.42203,48.92963],[2.41616,48.92159],[2.41006,48.91669]]]}},{"type":"Feature","properties":{"name":"Drancy","code":"93029"},"geometry":{"type":"Polygon","coordinates":[[[2.41349,48.91925],[2.41616,48.92159],[2.42286,48.93026],[2.43508,48.93233],[2.44442,48.93268],[2.44476,48.93385],[2.44224,48.93722],[2.44907,48.93955],[2.45495,48.93779],[2.45781,48.93545],[2.45726,48.93473],[2.46352,48.93095],[2.46222,48.92897],[2.46304,48.92703],[2.46186,48.92249],[2.46214,48.92083],[2.46888,48.91911],[2.47175,48.9206],[2.47386,48.91973],[2.47521,48.9164],[2.46689,48.91417],[2.46347,48.91193],[2.45659,48.91098],[2.44116,48.9153],[2.43695,48.91305],[2.43346,48.91369],[2.41349,48.91925]]]}},{"type":"Feature","properties":{"name":"Gagny","code":"93032"},"geometry":{"type":"Polygon","coordinates":[[[2.55941,48.88534],[2.56487,48.88144],[2.56862,48.8814],[2.57137,48.8797],[2.56972,48.87543],[2.56801,48.87435],[2.5682,48.87214],[2.57068,48.86935],[2.56763,48.86588],[2.56433,48.86555],[2.55789,48.86753],[2.55566,48.86942],[2.55269,48.87403],[2.5518,48.87425],[2.53923,48.86969],[2.5374,48.87261],[2.53108,48.87662],[2.52985,48.87429],[2.52869,48.87887],[2.5182,48.89118],[2.51952,48.89081],[2.52329,48.89319],[2.52691,48.8916],[2.53046,48.89236],[2.53238,48.89321],[2.53211,48.89523],[2.53572,48.89496],[2.536,48.89811],[2.53848,48.89976],[2.54658,48.8989],[2.54465,48.89611],[2.54772,48.89588],[2.54675,48.89125],[2.54893,48.89049],[2.54707,48.88797],[2.54953,48.88743],[2.54911,48.88486],[2.55941,48.88534]]]}},{"type":"Feature","properties":{"name":"Gournay-sur-Marne","code":"93033"},"geometry":{"type":"Polygon","coordinates":[[[2.57384,48.85338],[2.56975,48.85806],[2.56692,48.85772],[2.56564,48.86092],[2.56449,48.86177],[2.5642,48.86459],[2.57242,48.86794],[2.57802,48.86521],[2.58733,48.86501],[2.58793,48.86361],[2.58635,48.86001],[2.58356,48.85822],[2.58171,48.85836],[2.58306,48.85543],[2.57794,48.85491],[2.57384,48.85338]]]}},{"type":"Feature","properties":{"name":"\u00cele-Saint-Denis","code":"93039"},"geometry":{"type":"Polygon","coordinates":[[[2.31982,48.91594],[2.32202,48.91867],[2.32845,48.92276],[2.33469,48.92912],[2.33697,48.93536],[2.33556,48.94068],[2.3321,48.94359],[2.32697,48.94536],[2.30198,48.95015],[2.29097,48.95097],[2.30348,48.95174],[2.31406,48.95021],[2.33311,48.94563],[2.33836,48.94261],[2.34171,48.93632],[2.34123,48.93228],[2.33926,48.92921],[2.32964,48.91933],[2.32632,48.91763],[2.31982,48.91594]]]}},{"type":"Feature","properties":{"name":"Lilas","code":"93045"},"geometry":{"type":"Polygon","coordinates":[[[2.41069,48.87848],[2.41192,48.87879],[2.41131,48.88324],[2.41865,48.88479],[2.4202,48.88679],[2.42244,48.88758],[2.42245,48.88908],[2.42442,48.8912],[2.42666,48.88961],[2.42673,48.88593],[2.4242,48.883],[2.42891,48.88251],[2.42835,48.88022],[2.42992,48.88048],[2.42972,48.87828],[2.42188,48.87824],[2.41328,48.87312],[2.41069,48.87848]]]}},{"type":"Feature","properties":{"name":"Livry-Gargan","code":"93046"},"geometry":{"type":"Polygon","coordinates":[[[2.51092,48.9018],[2.51789,48.90767],[2.52127,48.91189],[2.50993,48.91025],[2.50831,48.91429],[2.50858,48.91609],[2.50578,48.91731],[2.5073,48.91866],[2.51207,48.91928],[2.51481,48.92292],[2.51742,48.92463],[2.51756,48.92566],[2.52172,48.92385],[2.52422,48.925],[2.52454,48.92726],[2.52582,48.92776],[2.52797,48.92611],[2.53156,48.92631],[2.53196,48.9273],[2.53454,48.92721],[2.53672,48.92594],[2.54229,48.93106],[2.54079,48.932],[2.54325,48.93325],[2.54366,48.93452],[2.54658,48.93424],[2.55014,48.93518],[2.55609,48.93386],[2.55724,48.93454],[2.56315,48.93143],[2.56458,48.92832],[2.56211,48.92526],[2.56062,48.92459],[2.55922,48.9214],[2.55285,48.91508],[2.54441,48.91788],[2.54113,48.91541],[2.53966,48.91169],[2.53855,48.91164],[2.53837,48.90945],[2.52724,48.9072],[2.52561,48.90554],[2.52151,48.90366],[2.51092,48.9018]]]}},{"type":"Feature","properties":{"name":"Montfermeil","code":"93047"},"geometry":{"type":"Polygon","coordinates":[[[2.55941,48.88534],[2.54911,48.88486],[2.54953,48.88743],[2.54707,48.88797],[2.54893,48.89049],[2.54675,48.89125],[2.54772,48.89588],[2.54465,48.89611],[2.54864,48.90159],[2.55193,48.90201],[2.5652,48.90836],[2.5773,48.90657],[2.57902,48.90832],[2.58401,48.91065],[2.59142,48.90714],[2.58542,48.90463],[2.5842,48.90335],[2.58708,48.89981],[2.58703,48.89395],[2.5853,48.89378],[2.58386,48.89491],[2.57823,48.89337],[2.57663,48.89223],[2.57223,48.8925],[2.57016,48.89039],[2.56682,48.89092],[2.56417,48.88911],[2.56149,48.88888],[2.56139,48.88763],[2.55941,48.88647],[2.55941,48.88534]]]}},{"type":"Feature","properties":{"name":"Montreuil","code":"93048"},"geometry":{"type":"Polygon","coordinates":[[[2.42918,48.84874],[2.41634,48.84924],[2.41532,48.85518],[2.42334,48.85742],[2.42335,48.85972],[2.42253,48.86098],[2.42396,48.86277],[2.42873,48.86359],[2.42779,48.86645],[2.4304,48.86965],[2.43044,48.87075],[2.43241,48.87173],[2.43392,48.87398],[2.43536,48.87458],[2.44014,48.87134],[2.44538,48.87237],[2.44941,48.87682],[2.45166,48.87705],[2.45167,48.87849],[2.45828,48.87866],[2.46782,48.87735],[2.46734,48.87626],[2.46965,48.87478],[2.47073,48.86947],[2.47209,48.86754],[2.47406,48.86727],[2.47863,48.86839],[2.48211,48.86703],[2.48291,48.86416],[2.48078,48.86015],[2.46825,48.8607],[2.46676,48.86003],[2.4673,48.85666],[2.45386,48.85546],[2.44874,48.85344],[2.4471,48.85116],[2.44214,48.85291],[2.43518,48.85328],[2.43443,48.85085],[2.42953,48.85098],[2.42918,48.84874]]]}},{"type":"Feature","properties":{"name":"Neuilly-Plaisance","code":"93049"},"geometry":{"type":"Polygon","coordinates":[[[2.49972,48.85568],[2.49897,48.85675],[2.49652,48.85609],[2.49496,48.85883],[2.49729,48.8604],[2.49948,48.8639],[2.50111,48.86786],[2.50147,48.87298],[2.5057,48.87293],[2.50913,48.87791],[2.51457,48.87489],[2.52044,48.87458],[2.5217,48.87358],[2.52447,48.87322],[2.52267,48.87062],[2.51624,48.86743],[2.51849,48.86446],[2.51932,48.8611],[2.51629,48.85615],[2.51634,48.85341],[2.52003,48.85398],[2.52083,48.85218],[2.51565,48.85138],[2.51367,48.85017],[2.51197,48.85242],[2.50938,48.8531],[2.5068,48.85508],[2.50544,48.85719],[2.50394,48.85733],[2.49972,48.85568]]]}},{"type":"Feature","properties":{"name":"Neuilly-sur-Marne","code":"93050"},"geometry":{"type":"Polygon","coordinates":[[[2.52083,48.85218],[2.52003,48.85398],[2.51634,48.85341],[2.51629,48.85615],[2.51932,48.8611],[2.51849,48.86446],[2.51624,48.86743],[2.52267,48.87062],[2.52447,48.87322],[2.5217,48.87358],[2.52044,48.87458],[2.52483,48.87557],[2.52985,48.87429],[2.53108,48.87662],[2.5374,48.87261],[2.53923,48.86969],[2.5518,48.87425],[2.55269,48.87403],[2.55566,48.86942],[2.55789,48.86753],[2.56433,48.86555],[2.56763,48.86588],[2.5642,48.86459],[2.56449,48.86177],[2.56564,48.86092],[2.56745,48.8556],[2.56316,48.85417],[2.54476,48.85429],[2.54094,48.85309],[2.53441,48.85365],[2.52083,48.85218]]]}},{"type":"Feature","properties":{"name":"Noisy-le-Grand","code":"93051"},"geometry":{"type":"Polygon","coordinates":[[[2.53665,48.83851],[2.54026,48.83934],[2.53563,48.8429],[2.53443,48.84528],[2.5287,48.84376],[2.52484,48.84907],[2.51898,48.84818],[2.51565,48.85138],[2.53441,48.85365],[2.54094,48.85309],[2.54476,48.85429],[2.56083,48.85381],[2.56745,48.8556],[2.56692,48.85772],[2.56975,48.85806],[2.57331,48.8546],[2.58628,48.83425],[2.58585,48.82895],[2.58726,48.82566],[2.59165,48.82767],[2.59271,48.82538],[2.59237,48.82381],[2.5946,48.82129],[2.59646,48.81089],[2.59228,48.80744],[2.59024,48.80901],[2.58243,48.81024],[2.57413,48.81291],[2.57454,48.81369],[2.57006,48.81504],[2.5685,48.81828],[2.57221,48.82366],[2.56132,48.82648],[2.56037,48.82882],[2.5474,48.83611],[2.54418,48.83499],[2.5382,48.8368],[2.53665,48.83851]]]}},{"type":"Feature","properties":{"name":"Noisy-le-Sec","code":"93053"},"geometry":{"type":"Polygon","coordinates":[[[2.44128,48.89828],[2.46113,48.90208],[2.46196,48.90535],[2.46823,48.90531],[2.46986,48.90477],[2.47019,48.90158],[2.4693,48.89933],[2.47428,48.89806],[2.47257,48.89551],[2.47407,48.89501],[2.4712,48.88894],[2.47664,48.88867],[2.47541,48.88629],[2.47017,48.88669],[2.46476,48.87807],[2.45167,48.87849],[2.45008,48.88069],[2.4521,48.88135],[2.4542,48.8843],[2.44856,48.88637],[2.44318,48.88286],[2.44044,48.88456],[2.44495,48.8886],[2.4443,48.89073],[2.44274,48.89046],[2.44203,48.89221],[2.43902,48.8932],[2.44128,48.89828]]]}},{"type":"Feature","properties":{"name":"Pantin","code":"93055"},"geometry":{"type":"Polygon","coordinates":[[[2.38944,48.90115],[2.40017,48.91112],[2.40528,48.9086],[2.40849,48.90811],[2.41128,48.91107],[2.40427,48.91485],[2.40755,48.91791],[2.41296,48.91547],[2.41409,48.91246],[2.41553,48.91185],[2.41307,48.90945],[2.41443,48.90877],[2.41169,48.9063],[2.4213,48.90207],[2.42428,48.89668],[2.42402,48.89518],[2.42772,48.89589],[2.42664,48.89291],[2.42541,48.89312],[2.42245,48.88908],[2.42244,48.88758],[2.4202,48.88679],[2.41865,48.88479],[2.41131,48.88324],[2.40995,48.88526],[2.40996,48.88914],[2.40641,48.88828],[2.40144,48.88856],[2.40151,48.88964],[2.39865,48.88941],[2.39762,48.89458],[2.3949,48.89844],[2.38944,48.90115]]]}},{"type":"Feature","properties":{"name":"Pavillons-sous-Bois","code":"93057"},"geometry":{"type":"Polygon","coordinates":[[[2.49173,48.91688],[2.5073,48.91866],[2.50578,48.91731],[2.50858,48.91609],[2.50831,48.91429],[2.50993,48.91025],[2.52127,48.91189],[2.51789,48.90767],[2.51537,48.90609],[2.50682,48.89771],[2.50219,48.89924],[2.49985,48.89574],[2.49563,48.89664],[2.49679,48.89961],[2.49835,48.8996],[2.49982,48.9045],[2.49715,48.90464],[2.49708,48.90568],[2.49333,48.90577],[2.49333,48.90707],[2.49034,48.90893],[2.49173,48.91688]]]}},{"type":"Feature","properties":{"name":"Pierrefitte-sur-Seine","code":"93059"},"geometry":{"type":"Polygon","coordinates":[[[2.35203,48.95048],[2.35427,48.95453],[2.35319,48.95679],[2.35485,48.95965],[2.35289,48.96038],[2.35304,48.96339],[2.35457,48.96463],[2.35346,48.96563],[2.35693,48.9688],[2.35644,48.96911],[2.35872,48.97274],[2.36022,48.97252],[2.36149,48.97384],[2.36528,48.97303],[2.36616,48.97422],[2.37594,48.97202],[2.37409,48.96783],[2.37332,48.95988],[2.3689,48.95988],[2.36862,48.9588],[2.36567,48.95826],[2.37148,48.94733],[2.36546,48.94752],[2.36246,48.94684],[2.35557,48.94972],[2.3564,48.95152],[2.35557,48.95228],[2.35278,48.95026],[2.35203,48.95048]]]}},{"type":"Feature","properties":{"name":"Raincy","code":"93062"},"geometry":{"type":"Polygon","coordinates":[[[2.51092,48.9018],[2.52151,48.90366],[2.52798,48.90381],[2.52984,48.9032],[2.53238,48.89321],[2.52691,48.8916],[2.52329,48.89319],[2.51952,48.89081],[2.5182,48.89118],[2.51557,48.8878],[2.51156,48.88933],[2.50905,48.89217],[2.50666,48.89276],[2.50764,48.89852],[2.51092,48.9018]]]}},{"type":"Feature","properties":{"name":"Romainville","code":"93063"},"geometry":{"type":"Polygon","coordinates":[[[2.42442,48.8912],[2.42541,48.89312],[2.42664,48.89291],[2.42772,48.89589],[2.44128,48.89828],[2.43902,48.8932],[2.44203,48.89221],[2.44274,48.89046],[2.4443,48.89073],[2.44495,48.8886],[2.44044,48.88456],[2.44318,48.88286],[2.44856,48.88637],[2.4542,48.8843],[2.4521,48.88135],[2.45008,48.88069],[2.45167,48.87849],[2.45166,48.87705],[2.44941,48.87682],[2.44538,48.87237],[2.44014,48.87134],[2.43821,48.87207],[2.43536,48.87458],[2.43672,48.87729],[2.43285,48.87895],[2.42972,48.87828],[2.42992,48.88048],[2.42835,48.88022],[2.42891,48.88251],[2.4242,48.883],[2.42673,48.88593],[2.42666,48.88961],[2.42442,48.8912]]]}},{"type":"Feature","properties":{"name":"Saint-Denis","code":"93066"},"geometry":{"type":"Polygon","coordinates":[[[2.35187,48.90153],[2.35093,48.91073],[2.34847,48.91082],[2.34702,48.91433],[2.33932,48.9146],[2.33768,48.91573],[2.33979,48.91951],[2.33284,48.92292],[2.33926,48.92921],[2.34123,48.93228],[2.34171,48.93632],[2.33836,48.94261],[2.34116,48.94415],[2.33926,48.94554],[2.33653,48.94532],[2.33967,48.94761],[2.3458,48.94653],[2.34814,48.94715],[2.35203,48.95048],[2.35278,48.95026],[2.35557,48.95228],[2.3564,48.95152],[2.35557,48.94972],[2.36246,48.94684],[2.36546,48.94752],[2.37489,48.94751],[2.37693,48.94455],[2.38266,48.94526],[2.38403,48.94364],[2.39015,48.94548],[2.38974,48.94665],[2.39688,48.94934],[2.39851,48.94808],[2.39394,48.94414],[2.38743,48.9422],[2.38744,48.9413],[2.38505,48.94049],[2.38368,48.93218],[2.38238,48.93083],[2.37788,48.93177],[2.37516,48.92781],[2.3774,48.92525],[2.37474,48.92368],[2.37112,48.92283],[2.36825,48.92436],[2.36681,48.92359],[2.36771,48.92206],[2.3664,48.92152],[2.36585,48.90161],[2.35187,48.90153]]]}},{"type":"Feature","properties":{"name":"Sevran","code":"93071"},"geometry":{"type":"Polygon","coordinates":[[[2.52172,48.92385],[2.51381,48.92773],[2.51387,48.93072],[2.51004,48.93237],[2.51034,48.93345],[2.50603,48.9341],[2.51009,48.9397],[2.50839,48.94064],[2.50997,48.94262],[2.51763,48.94764],[2.5175,48.94854],[2.52415,48.95057],[2.53088,48.95163],[2.53112,48.95052],[2.5351,48.95002],[2.53505,48.95104],[2.5383,48.95153],[2.54256,48.95071],[2.548,48.94723],[2.55032,48.94705],[2.55141,48.94511],[2.55421,48.943],[2.55724,48.93454],[2.55609,48.93386],[2.55014,48.93518],[2.54658,48.93424],[2.54366,48.93452],[2.54325,48.93325],[2.54079,48.932],[2.54229,48.93106],[2.53672,48.92594],[2.53454,48.92721],[2.53196,48.9273],[2.53156,48.92631],[2.52797,48.92611],[2.52582,48.92776],[2.52454,48.92726],[2.52422,48.925],[2.52172,48.92385]]]}},{"type":"Feature","properties":{"name":"Stains","code":"93072"},"geometry":{"type":"Polygon","coordinates":[[[2.37148,48.94733],[2.36567,48.95826],[2.36862,48.9588],[2.3689,48.95988],[2.37332,48.95988],[2.37409,48.96783],[2.37594,48.97202],[2.38245,48.97128],[2.38463,48.97013],[2.39797,48.95989],[2.40738,48.95612],[2.40691,48.9546],[2.40821,48.95317],[2.39933,48.94912],[2.39851,48.94808],[2.39688,48.94934],[2.38974,48.94665],[2.39015,48.94548],[2.38403,48.94364],[2.38266,48.94526],[2.37693,48.94455],[2.37489,48.94751],[2.37148,48.94733]]]}},{"type":"Feature","properties":{"name":"Tremblay-en-France","code":"93073"},"geometry":{"type":"Polygon","coordinates":[[[2.5004,48.9777],[2.5037,48.97947],[2.50488,48.9788],[2.51477,48.98226],[2.51265,48.98587],[2.51702,48.98618],[2.51689,48.98762],[2.51894,48.98774],[2.51882,48.99076],[2.52053,48.99207],[2.52292,48.99193],[2.52437,48.99625],[2.52787,49.00028],[2.53061,49.00189],[2.53224,49.00522],[2.5355,49.00656],[2.53565,49.00528],[2.54406,49.00559],[2.54429,49.0047],[2.54777,49.00487],[2.54882,49.00665],[2.55309,49.00677],[2.55306,49.00982],[2.55814,49.01201],[2.56579,49.0124],[2.56619,49.01105],[2.56878,49.01113],[2.57055,49.0077],[2.56685,49.00691],[2.56433,49.00745],[2.56466,49.00565],[2.56951,49.00578],[2.56903,49.00393],[2.57122,49.00416],[2.57346,49.0011],[2.57584,49.00029],[2.57759,48.99573],[2.58099,48.99047],[2.57934,48.99016],[2.58144,48.98593],[2.5798,48.98466],[2.57679,48.98413],[2.57868,48.97914],[2.56352,48.98039],[2.56248,48.97886],[2.58372,48.95705],[2.58588,48.957],[2.58981,48.95344],[2.59361,48.94728],[2.59347,48.94539],[2.59593,48.93861],[2.57698,48.93642],[2.57083,48.93989],[2.56841,48.94432],[2.56358,48.9482],[2.56244,48.95161],[2.56409,48.95597],[2.56198,48.95845],[2.56226,48.95908],[2.55935,48.96178],[2.55758,48.96533],[2.54976,48.97138],[2.54466,48.96832],[2.54185,48.97003],[2.54097,48.96873],[2.53725,48.96656],[2.533,48.96528],[2.53191,48.96632],[2.53084,48.9701],[2.52553,48.97654],[2.52251,48.9756],[2.50914,48.97674],[2.50052,48.97529],[2.50215,48.97657],[2.5004,48.9777]]]}},{"type":"Feature","properties":{"name":"Vaujours","code":"93074"},"geometry":{"type":"Polygon","coordinates":[[[2.55705,48.9353],[2.56128,48.93624],[2.56223,48.93521],[2.56858,48.93672],[2.56885,48.9386],[2.56648,48.94265],[2.56902,48.94323],[2.57083,48.93989],[2.57698,48.93642],[2.59593,48.93861],[2.59771,48.93805],[2.60122,48.93844],[2.60319,48.93754],[2.60208,48.93462],[2.60315,48.93048],[2.6026,48.92936],[2.5976,48.92775],[2.59616,48.926],[2.59234,48.92502],[2.59262,48.92656],[2.59063,48.92808],[2.57642,48.92727],[2.57508,48.92591],[2.57212,48.92583],[2.572,48.92439],[2.56729,48.92453],[2.5656,48.92611],[2.56315,48.93143],[2.55724,48.93454],[2.55705,48.9353]]]}},{"type":"Feature","properties":{"name":"Villemomble","code":"93077"},"geometry":{"type":"Polygon","coordinates":[[[2.4868,48.88703],[2.48721,48.88847],[2.4898,48.88834],[2.49076,48.8904],[2.4956,48.88918],[2.50219,48.89924],[2.50682,48.89771],[2.50764,48.89852],[2.50666,48.89276],[2.50905,48.89217],[2.51156,48.88933],[2.51557,48.8878],[2.5182,48.89118],[2.52869,48.87887],[2.52985,48.87429],[2.52483,48.87557],[2.52044,48.87458],[2.51457,48.87489],[2.50546,48.87914],[2.50408,48.87739],[2.50211,48.87797],[2.50081,48.87712],[2.49707,48.87843],[2.49395,48.88266],[2.49554,48.88293],[2.49451,48.88486],[2.4868,48.88703]]]}},{"type":"Feature","properties":{"name":"Villepinte","code":"93078"},"geometry":{"type":"Polygon","coordinates":[[[2.49585,48.97501],[2.50914,48.97674],[2.52251,48.9756],[2.52553,48.97654],[2.53084,48.9701],[2.53191,48.96632],[2.533,48.96528],[2.53725,48.96656],[2.54097,48.96873],[2.54185,48.97003],[2.54466,48.96832],[2.54976,48.97138],[2.55758,48.96533],[2.55935,48.96178],[2.56226,48.95908],[2.56198,48.95845],[2.56409,48.95597],[2.56244,48.95161],[2.56358,48.9482],[2.56902,48.94323],[2.56648,48.94265],[2.56885,48.9386],[2.56858,48.93672],[2.56223,48.93521],[2.56128,48.93624],[2.55705,48.9353],[2.55421,48.943],[2.55141,48.94511],[2.55032,48.94705],[2.548,48.94723],[2.54256,48.95071],[2.5383,48.95153],[2.53505,48.95104],[2.5351,48.95002],[2.53112,48.95052],[2.53088,48.95163],[2.52415,48.95057],[2.51992,48.95526],[2.5163,48.95695],[2.514,48.95987],[2.50848,48.96434],[2.50479,48.96579],[2.49601,48.97272],[2.49809,48.97395],[2.49585,48.97501]]]}},{"type":"Feature","properties":{"name":"Villetaneuse","code":"93079"},"geometry":{"type":"Polygon","coordinates":[[[2.33331,48.95538],[2.33799,48.95998],[2.33753,48.96084],[2.3441,48.96824],[2.35142,48.96667],[2.35457,48.96463],[2.35304,48.96339],[2.35289,48.96038],[2.35485,48.95965],[2.35319,48.95679],[2.35427,48.95453],[2.35107,48.94914],[2.34814,48.94715],[2.3458,48.94653],[2.33331,48.95538]]]}},{"type":"Feature","properties":{"name":"Alfortville","code":"94002"},"geometry":{"type":"Polygon","coordinates":[[[2.41479,48.77727],[2.42201,48.78804],[2.42267,48.79177],[2.42166,48.79434],[2.40909,48.8063],[2.40888,48.80846],[2.41026,48.81467],[2.40936,48.81667],[2.4159,48.81633],[2.42293,48.80912],[2.42523,48.80535],[2.43386,48.78396],[2.42992,48.78232],[2.42996,48.78035],[2.42879,48.78022],[2.42803,48.77603],[2.41479,48.77727]]]}},{"type":"Feature","properties":{"name":"Boissy-Saint-L\u00e9ger","code":"94004"},"geometry":{"type":"Polygon","coordinates":[[[2.5365,48.72822],[2.53083,48.72751],[2.52253,48.73218],[2.51182,48.74459],[2.51048,48.74712],[2.5045,48.74383],[2.50256,48.74654],[2.50105,48.75081],[2.49317,48.75923],[2.49975,48.76297],[2.50553,48.76119],[2.50731,48.76176],[2.5137,48.76087],[2.51673,48.76146],[2.52259,48.75758],[2.5263,48.75614],[2.5372,48.75449],[2.53925,48.75548],[2.55665,48.75454],[2.55119,48.75002],[2.54909,48.75204],[2.54647,48.7519],[2.54349,48.74881],[2.55285,48.7469],[2.54466,48.73633],[2.53448,48.72953],[2.5365,48.72822]]]}},{"type":"Feature","properties":{"name":"Bonneuil-sur-Marne","code":"94011"},"geometry":{"type":"Polygon","coordinates":[[[2.49317,48.75923],[2.48345,48.75656],[2.47952,48.76048],[2.47666,48.75949],[2.47354,48.76177],[2.47719,48.76281],[2.47479,48.76535],[2.47731,48.76614],[2.47396,48.77023],[2.47202,48.77141],[2.47164,48.7729],[2.47465,48.77461],[2.47282,48.7765],[2.47495,48.77765],[2.4726,48.77995],[2.4754,48.78139],[2.47587,48.78266],[2.47437,48.78385],[2.47308,48.78718],[2.47486,48.78764],[2.48717,48.78421],[2.50139,48.78472],[2.5102,48.78419],[2.51251,48.78492],[2.51443,48.7838],[2.51224,48.78195],[2.50405,48.77846],[2.50247,48.777],[2.49809,48.77569],[2.49764,48.76899],[2.49546,48.76928],[2.49403,48.76671],[2.49473,48.76436],[2.49686,48.76468],[2.49975,48.76297],[2.49317,48.75923]]]}},{"type":"Feature","properties":{"name":"Bry-sur-Marne","code":"94015"},"geometry":{"type":"Polygon","coordinates":[[[2.50468,48.82972],[2.50863,48.83012],[2.51182,48.82948],[2.51653,48.83183],[2.5175,48.83347],[2.51757,48.83523],[2.51652,48.83705],[2.51404,48.8387],[2.51119,48.84549],[2.51181,48.84815],[2.51565,48.85138],[2.51898,48.84818],[2.52484,48.84907],[2.5287,48.84376],[2.53443,48.84528],[2.53563,48.8429],[2.54026,48.83934],[2.53665,48.83851],[2.53647,48.83734],[2.53347,48.83551],[2.53504,48.83433],[2.53165,48.82936],[2.52643,48.82896],[2.52504,48.82725],[2.52055,48.82979],[2.51857,48.8288],[2.51728,48.82939],[2.51052,48.82773],[2.50468,48.82972]]]}},{"type":"Feature","properties":{"name":"Champigny-sur-Marne","code":"94017"},"geometry":{"type":"Polygon","coordinates":[[[2.55741,48.81871],[2.56553,48.81392],[2.564,48.81227],[2.56198,48.81171],[2.55851,48.8076],[2.55403,48.8081],[2.55395,48.80482],[2.55116,48.80316],[2.54712,48.80379],[2.54524,48.80552],[2.54005,48.80598],[2.52895,48.80606],[2.52228,48.80407],[2.51916,48.80758],[2.51652,48.80893],[2.5055,48.81048],[2.49801,48.81044],[2.48019,48.81352],[2.48189,48.81595],[2.48245,48.82004],[2.47878,48.82342],[2.47797,48.82706],[2.47581,48.83061],[2.48315,48.83155],[2.4976,48.83081],[2.50801,48.82905],[2.51052,48.82773],[2.51728,48.82939],[2.51857,48.8288],[2.52055,48.82979],[2.52504,48.82725],[2.52389,48.82525],[2.52558,48.82476],[2.52559,48.82111],[2.52952,48.82118],[2.53253,48.81954],[2.53475,48.81703],[2.54469,48.81987],[2.54778,48.81994],[2.55011,48.81859],[2.55741,48.81871]]]}},{"type":"Feature","properties":{"name":"Fresnes","code":"94034"},"geometry":{"type":"Polygon","coordinates":[[[2.32266,48.74812],[2.31414,48.75135],[2.31235,48.75135],[2.31146,48.75433],[2.3087,48.75542],[2.31336,48.76015],[2.31588,48.76677],[2.32186,48.76622],[2.3219,48.76449],[2.32385,48.76441],[2.32333,48.76667],[2.33807,48.76304],[2.33526,48.76118],[2.34275,48.7584],[2.34177,48.75736],[2.3439,48.75621],[2.33959,48.75175],[2.33737,48.74821],[2.33608,48.74757],[2.33219,48.7494],[2.33075,48.7481],[2.32688,48.75116],[2.32479,48.75055],[2.32266,48.74812]]]}},{"type":"Feature","properties":{"name":"Joinville-le-Pont","code":"94042"},"geometry":{"type":"Polygon","coordinates":[[[2.46063,48.80936],[2.45677,48.81131],[2.45465,48.81351],[2.45945,48.81275],[2.46564,48.81639],[2.46121,48.81836],[2.46286,48.82018],[2.46573,48.82623],[2.46967,48.8299],[2.47124,48.82904],[2.47581,48.83061],[2.47797,48.82706],[2.47878,48.82342],[2.48245,48.82004],[2.48189,48.81595],[2.48019,48.81352],[2.47392,48.81592],[2.46995,48.81254],[2.46546,48.81107],[2.46458,48.81179],[2.46063,48.80936]]]}},{"type":"Feature","properties":{"name":"Kremlin-Bic\u00eatre","code":"94043"},"geometry":{"type":"Polygon","coordinates":[[[2.34486,48.80541],[2.3503,48.81106],[2.35424,48.81334],[2.35646,48.81595],[2.36421,48.8164],[2.36622,48.81192],[2.36422,48.81115],[2.36722,48.80803],[2.36212,48.80686],[2.36138,48.80741],[2.35806,48.80599],[2.35858,48.80431],[2.35413,48.80235],[2.35296,48.80319],[2.35115,48.8019],[2.34778,48.8015],[2.34373,48.80318],[2.34486,48.80541]]]}},{"type":"Feature","properties":{"name":"Limeil-Br\u00e9vannes","code":"94044"},"geometry":{"type":"Polygon","coordinates":[[[2.48455,48.72907],[2.48226,48.73303],[2.47779,48.73581],[2.4734,48.73984],[2.47605,48.74093],[2.4735,48.74451],[2.47361,48.74877],[2.47252,48.75247],[2.46782,48.75122],[2.46887,48.76009],[2.46833,48.76229],[2.47212,48.76318],[2.47666,48.75949],[2.47952,48.76048],[2.48345,48.75656],[2.49317,48.75923],[2.50105,48.75081],[2.50256,48.74654],[2.5045,48.74383],[2.51048,48.74712],[2.51697,48.73849],[2.51498,48.73876],[2.50865,48.73691],[2.51005,48.73466],[2.50938,48.73363],[2.5062,48.73571],[2.48455,48.72907]]]}},{"type":"Feature","properties":{"name":"Marolles-en-Brie","code":"94048"},"geometry":{"type":"Polygon","coordinates":[[[2.5365,48.72822],[2.53448,48.72953],[2.54466,48.73633],[2.55285,48.7469],[2.54349,48.74881],[2.54647,48.7519],[2.54909,48.75204],[2.55119,48.75002],[2.55665,48.75454],[2.57017,48.75116],[2.5686,48.74837],[2.57339,48.74778],[2.57284,48.74392],[2.56812,48.74037],[2.56868,48.73864],[2.56532,48.73909],[2.56485,48.7351],[2.5588,48.7362],[2.55699,48.73344],[2.55571,48.72738],[2.55475,48.72644],[2.55366,48.7224],[2.54925,48.72588],[2.54428,48.72548],[2.53682,48.72626],[2.5365,48.72822]]]}},{"type":"Feature","properties":{"name":"Nogent-sur-Marne","code":"94052"},"geometry":{"type":"Polygon","coordinates":[[[2.46573,48.82623],[2.46457,48.82766],[2.46569,48.83181],[2.46896,48.83392],[2.46971,48.83658],[2.46725,48.83907],[2.46951,48.84002],[2.46873,48.84089],[2.47224,48.84201],[2.47319,48.84009],[2.47597,48.84114],[2.47692,48.84289],[2.47925,48.84347],[2.47978,48.84199],[2.48564,48.84314],[2.48727,48.84605],[2.49152,48.84763],[2.49416,48.8403],[2.49455,48.83599],[2.4976,48.83081],[2.48315,48.83155],[2.47581,48.83061],[2.47124,48.82904],[2.46967,48.8299],[2.46573,48.82623]]]}},{"type":"Feature","properties":{"name":"Perreux-sur-Marne","code":"94058"},"geometry":{"type":"Polygon","coordinates":[[[2.49699,48.85474],[2.50394,48.85733],[2.50544,48.85719],[2.5068,48.85508],[2.50938,48.8531],[2.51197,48.85242],[2.51367,48.85017],[2.51181,48.84815],[2.51119,48.84549],[2.51186,48.84271],[2.51404,48.8387],[2.51652,48.83705],[2.51757,48.83523],[2.51653,48.83183],[2.51407,48.83025],[2.51182,48.82948],[2.50863,48.83012],[2.50468,48.82972],[2.4976,48.83081],[2.49455,48.83599],[2.49416,48.8403],[2.49152,48.84763],[2.49337,48.8488],[2.49338,48.85168],[2.4959,48.85298],[2.49699,48.85474]]]}},{"type":"Feature","properties":{"name":"Saint-Mand\u00e9","code":"94067"},"geometry":{"type":"Polygon","coordinates":[[[2.41897,48.84933],[2.41847,48.84646],[2.42817,48.84555],[2.42757,48.84157],[2.42453,48.84189],[2.42184,48.84444],[2.41987,48.84345],[2.41953,48.84145],[2.42214,48.83579],[2.4135,48.83372],[2.41224,48.83454],[2.41634,48.84924],[2.41897,48.84933]]]}},{"type":"Feature","properties":{"name":"Santeny","code":"94070"},"geometry":{"type":"Polygon","coordinates":[[[2.5522,48.71956],[2.55475,48.72644],[2.55571,48.72738],[2.55699,48.73344],[2.5588,48.7362],[2.56485,48.7351],[2.56532,48.73909],[2.56868,48.73864],[2.56812,48.74037],[2.57284,48.74392],[2.57339,48.74778],[2.5686,48.74837],[2.5706,48.75175],[2.57527,48.75217],[2.57711,48.75508],[2.58201,48.75503],[2.58738,48.76391],[2.59754,48.76057],[2.59937,48.75549],[2.60234,48.75373],[2.59619,48.74732],[2.59177,48.7476],[2.59012,48.74512],[2.58753,48.744],[2.58541,48.74171],[2.59036,48.73995],[2.59179,48.73842],[2.59151,48.73743],[2.59531,48.73652],[2.59415,48.73567],[2.59468,48.73181],[2.59032,48.73114],[2.58915,48.72917],[2.58786,48.72913],[2.58494,48.72711],[2.5809,48.72194],[2.57921,48.72275],[2.57528,48.71283],[2.5721,48.71346],[2.57107,48.71131],[2.56929,48.7109],[2.56814,48.70897],[2.56599,48.70848],[2.56304,48.70905],[2.56135,48.71071],[2.55883,48.71135],[2.55967,48.71249],[2.55756,48.71414],[2.55403,48.71544],[2.557,48.71813],[2.5522,48.71956]]]}},{"type":"Feature","properties":{"name":"Sucy-en-Brie","code":"94071"},"geometry":{"type":"Polygon","coordinates":[[[2.51788,48.7855],[2.51231,48.78097],[2.51975,48.78087],[2.52253,48.7796],[2.5203,48.7768],[2.52676,48.77707],[2.52923,48.77824],[2.53059,48.77678],[2.53555,48.77702],[2.53669,48.77361],[2.5407,48.77062],[2.53943,48.76757],[2.54072,48.76577],[2.55036,48.76553],[2.55669,48.7643],[2.55886,48.76607],[2.56002,48.76591],[2.56151,48.76366],[2.56325,48.76349],[2.56804,48.76734],[2.56973,48.76633],[2.57605,48.76848],[2.57746,48.76771],[2.5769,48.76612],[2.58082,48.76493],[2.57615,48.75987],[2.57006,48.7607],[2.57304,48.75817],[2.57221,48.75726],[2.57711,48.75508],[2.57527,48.75217],[2.57017,48.75116],[2.55665,48.75454],[2.53925,48.75548],[2.5372,48.75449],[2.5263,48.75614],[2.52259,48.75758],[2.51673,48.76146],[2.5137,48.76087],[2.50731,48.76176],[2.50553,48.76119],[2.49975,48.76297],[2.49686,48.76468],[2.49473,48.76436],[2.49403,48.76671],[2.49546,48.76928],[2.49764,48.76899],[2.49809,48.77569],[2.50247,48.777],[2.50405,48.77846],[2.51224,48.78195],[2.51443,48.7838],[2.51251,48.78492],[2.51358,48.78568],[2.51686,48.78647],[2.51788,48.7855]]]}},{"type":"Feature","properties":{"name":"Villiers-sur-Marne","code":"94079"},"geometry":{"type":"Polygon","coordinates":[[[2.55741,48.81871],[2.55011,48.81859],[2.54778,48.81994],[2.54469,48.81987],[2.53475,48.81703],[2.53253,48.81954],[2.52952,48.82118],[2.52559,48.82111],[2.52558,48.82476],[2.52389,48.82525],[2.52643,48.82896],[2.53165,48.82936],[2.53504,48.83433],[2.53347,48.83551],[2.53647,48.83734],[2.53665,48.83851],[2.5382,48.8368],[2.54418,48.83499],[2.5474,48.83611],[2.56037,48.82882],[2.56132,48.82648],[2.57221,48.82366],[2.5685,48.81828],[2.55968,48.82277],[2.55612,48.821],[2.55776,48.81952],[2.55741,48.81871]]]}},{"type":"Feature","properties":{"name":"Vincennes","code":"94080"},"geometry":{"type":"Polygon","coordinates":[[[2.41897,48.84933],[2.42918,48.84874],[2.42953,48.85098],[2.43443,48.85085],[2.43518,48.85328],[2.44214,48.85291],[2.44438,48.85178],[2.45635,48.84963],[2.45581,48.84733],[2.45792,48.84511],[2.4479,48.84676],[2.44785,48.8448],[2.44653,48.84575],[2.44075,48.84596],[2.44074,48.84441],[2.43796,48.84467],[2.43718,48.84089],[2.42757,48.84157],[2.42817,48.84555],[2.41847,48.84646],[2.41897,48.84933]]]}},{"type":"Feature","properties":{"name":"Antony","code":"92002"},"geometry":{"type":"Polygon","coordinates":[[[2.27452,48.74071],[2.28481,48.74564],[2.2854,48.74751],[2.27951,48.75315],[2.27501,48.75525],[2.27862,48.76001],[2.29083,48.76094],[2.29189,48.76429],[2.29025,48.7666],[2.30545,48.76901],[2.30711,48.7696],[2.30744,48.77075],[2.31183,48.77071],[2.31244,48.77217],[2.31993,48.77072],[2.31588,48.76677],[2.31336,48.76015],[2.3087,48.75542],[2.31146,48.75433],[2.31235,48.75135],[2.31414,48.75135],[2.32072,48.74876],[2.32047,48.74682],[2.31848,48.74504],[2.31434,48.7433],[2.31703,48.74089],[2.31304,48.7382],[2.3146,48.73686],[2.31817,48.73789],[2.31872,48.73702],[2.31648,48.73385],[2.31537,48.73341],[2.31444,48.73043],[2.30384,48.72949],[2.30154,48.73623],[2.30245,48.7408],[2.29733,48.73817],[2.27986,48.73271],[2.27738,48.73538],[2.27452,48.74071]]]}},{"type":"Feature","properties":{"name":"Bagneux","code":"92007"},"geometry":{"type":"Polygon","coordinates":[[[2.3187,48.788],[2.31244,48.78932],[2.31084,48.78577],[2.3097,48.78489],[2.30331,48.7854],[2.29749,48.79368],[2.29831,48.79447],[2.29616,48.79576],[2.29222,48.79597],[2.29969,48.80286],[2.30304,48.80343],[2.30371,48.80605],[2.30604,48.80858],[2.3018,48.80997],[2.30268,48.81112],[2.31905,48.80995],[2.31786,48.80841],[2.31834,48.80603],[2.324,48.80537],[2.32596,48.80666],[2.3187,48.788]]]}},{"type":"Feature","properties":{"name":"Aulnay-sous-Bois","code":"93005"},"geometry":{"type":"Polygon","coordinates":[[[2.49173,48.91688],[2.48811,48.91859],[2.47912,48.91878],[2.48132,48.92409],[2.48133,48.92877],[2.47941,48.93026],[2.48113,48.93082],[2.48159,48.93345],[2.48298,48.93393],[2.48424,48.93605],[2.48338,48.93757],[2.47629,48.93963],[2.47952,48.94271],[2.47836,48.94432],[2.47149,48.94703],[2.4717,48.9518],[2.46091,48.95371],[2.45949,48.95505],[2.46086,48.95846],[2.46332,48.95999],[2.46733,48.96433],[2.46943,48.96305],[2.47502,48.96776],[2.47781,48.96671],[2.48075,48.96982],[2.48683,48.96729],[2.49013,48.97016],[2.48829,48.97116],[2.49274,48.97453],[2.50479,48.96579],[2.50848,48.96434],[2.514,48.95987],[2.5163,48.95695],[2.51992,48.95526],[2.52415,48.95057],[2.5175,48.94854],[2.51763,48.94764],[2.50997,48.94262],[2.50839,48.94064],[2.51009,48.9397],[2.50603,48.9341],[2.51034,48.93345],[2.51004,48.93237],[2.51387,48.93072],[2.51381,48.92773],[2.51756,48.92566],[2.51742,48.92463],[2.51481,48.92292],[2.51207,48.91928],[2.49173,48.91688]]]}},{"type":"Feature","properties":{"name":"Blanc-Mesnil","code":"93007"},"geometry":{"type":"Polygon","coordinates":[[[2.44907,48.93955],[2.43849,48.93579],[2.43795,48.93763],[2.43522,48.93759],[2.43072,48.93889],[2.43107,48.9406],[2.44247,48.95332],[2.44752,48.9558],[2.45034,48.95492],[2.45601,48.95577],[2.45949,48.95505],[2.46091,48.95371],[2.4717,48.9518],[2.47149,48.94703],[2.47836,48.94432],[2.47952,48.94271],[2.47629,48.93963],[2.48338,48.93757],[2.48424,48.93605],[2.48298,48.93393],[2.48159,48.93345],[2.48113,48.93082],[2.47941,48.93026],[2.48133,48.92877],[2.48132,48.92409],[2.4794,48.91977],[2.47688,48.92018],[2.47427,48.91843],[2.47386,48.91973],[2.47175,48.9206],[2.46888,48.91911],[2.46214,48.92083],[2.46186,48.92249],[2.46304,48.92703],[2.46222,48.92897],[2.46352,48.93095],[2.45726,48.93473],[2.45781,48.93545],[2.45495,48.93779],[2.44907,48.93955]]]}},{"type":"Feature","properties":{"name":"Bourget","code":"93013"},"geometry":{"type":"Polygon","coordinates":[[[2.42203,48.92963],[2.41611,48.93037],[2.41235,48.93261],[2.41666,48.93307],[2.41397,48.936],[2.41663,48.93567],[2.4158,48.93731],[2.41755,48.93962],[2.41822,48.93919],[2.42265,48.94026],[2.42227,48.94163],[2.42658,48.94263],[2.43066,48.94632],[2.43503,48.94509],[2.43107,48.9406],[2.43072,48.93889],[2.43522,48.93759],[2.43795,48.93763],[2.43849,48.93579],[2.44224,48.93722],[2.44476,48.93385],[2.44442,48.93268],[2.43508,48.93233],[2.42203,48.92963]]]}},{"type":"Feature","properties":{"name":"Dugny","code":"93030"},"geometry":{"type":"Polygon","coordinates":[[[2.41885,48.95775],[2.42542,48.95922],[2.42816,48.95904],[2.43219,48.95768],[2.43591,48.95518],[2.44522,48.95682],[2.44752,48.9558],[2.44247,48.95332],[2.43503,48.94509],[2.43066,48.94632],[2.42658,48.94263],[2.42227,48.94163],[2.42265,48.94026],[2.41822,48.93919],[2.4172,48.94132],[2.40925,48.94596],[2.40445,48.95132],[2.40821,48.95317],[2.40691,48.9546],[2.40738,48.95612],[2.40971,48.95793],[2.41318,48.95772],[2.41755,48.95951],[2.41885,48.95775]]]}},{"type":"Feature","properties":{"name":"Pr\u00e9-Saint-Gervais","code":"93061"},"geometry":{"type":"Polygon","coordinates":[[[2.39865,48.88941],[2.40151,48.88964],[2.40144,48.88856],[2.40641,48.88828],[2.40996,48.88914],[2.40995,48.88526],[2.41131,48.88324],[2.41192,48.87879],[2.41069,48.87848],[2.40946,48.8801],[2.40409,48.8814],[2.4002,48.88383],[2.39891,48.88563],[2.39865,48.88941]]]}},{"type":"Feature","properties":{"name":"Rosny-sous-Bois","code":"93064"},"geometry":{"type":"Polygon","coordinates":[[[2.49639,48.85991],[2.49395,48.86058],[2.49162,48.85968],[2.49101,48.86081],[2.48153,48.86141],[2.48291,48.86416],[2.48211,48.86703],[2.47863,48.86839],[2.47406,48.86727],[2.47209,48.86754],[2.47073,48.86947],[2.46965,48.87478],[2.46734,48.87626],[2.46782,48.87735],[2.46476,48.87807],[2.47017,48.88669],[2.47541,48.88629],[2.47664,48.88867],[2.49082,48.88635],[2.49451,48.88486],[2.49554,48.88293],[2.49395,48.88266],[2.49707,48.87843],[2.50081,48.87712],[2.50211,48.87797],[2.50408,48.87739],[2.50546,48.87914],[2.50913,48.87791],[2.5057,48.87293],[2.50147,48.87298],[2.50111,48.86786],[2.49948,48.8639],[2.49639,48.85991]]]}},{"type":"Feature","properties":{"name":"Saint-Ouen","code":"93070"},"geometry":{"type":"Polygon","coordinates":[[[2.31988,48.90046],[2.32088,48.90464],[2.31376,48.91401],[2.32632,48.91763],[2.32964,48.91933],[2.33284,48.92292],[2.33979,48.91951],[2.33768,48.91573],[2.33932,48.9146],[2.34702,48.91433],[2.34847,48.91082],[2.35093,48.91073],[2.35187,48.90153],[2.31988,48.90046]]]}},{"type":"Feature","properties":{"name":"Arcueil","code":"94003"},"geometry":{"type":"Polygon","coordinates":[[[2.34486,48.80541],[2.34373,48.80318],[2.34778,48.8015],[2.34611,48.79963],[2.34699,48.79828],[2.34385,48.79766],[2.34103,48.79887],[2.34003,48.7973],[2.33377,48.79848],[2.33295,48.7994],[2.32819,48.79979],[2.32394,48.80155],[2.32596,48.80666],[2.324,48.80537],[2.31834,48.80603],[2.31786,48.80841],[2.31905,48.80995],[2.32551,48.80953],[2.32906,48.81379],[2.33414,48.81265],[2.3346,48.81357],[2.33735,48.81358],[2.34029,48.81247],[2.33901,48.81082],[2.34243,48.80967],[2.34345,48.80829],[2.34251,48.80659],[2.34486,48.80541]]]}},{"type":"Feature","properties":{"name":"Cachan","code":"94016"},"geometry":{"type":"Polygon","coordinates":[[[2.3187,48.788],[2.32394,48.80155],[2.32819,48.79979],[2.33295,48.7994],[2.33377,48.79848],[2.34003,48.7973],[2.34103,48.79887],[2.34385,48.79766],[2.34494,48.79474],[2.3442,48.79076],[2.34089,48.78392],[2.3395,48.78424],[2.3386,48.7827],[2.3343,48.78439],[2.32834,48.78444],[2.32765,48.78211],[2.32445,48.78225],[2.32512,48.78631],[2.3187,48.788]]]}},{"type":"Feature","properties":{"name":"Chevilly-Larue","code":"94021"},"geometry":{"type":"Polygon","coordinates":[[[2.36727,48.77938],[2.36862,48.75746],[2.36201,48.7569],[2.36188,48.75874],[2.36007,48.76053],[2.35577,48.7594],[2.3546,48.76056],[2.34808,48.75856],[2.34618,48.76046],[2.3439,48.75621],[2.34177,48.75736],[2.34275,48.7584],[2.33526,48.76118],[2.33807,48.76304],[2.33268,48.7646],[2.33584,48.77024],[2.33378,48.77074],[2.33591,48.77355],[2.33783,48.77339],[2.33893,48.77445],[2.34335,48.77347],[2.3427,48.77222],[2.34991,48.77111],[2.35182,48.77391],[2.35367,48.77341],[2.35488,48.77473],[2.36727,48.77938]]]}},{"type":"Feature","properties":{"name":"Cr\u00e9teil","code":"94028"},"geometry":{"type":"Polygon","coordinates":[[[2.43275,48.78673],[2.43601,48.78708],[2.43563,48.78822],[2.43904,48.78913],[2.43677,48.7923],[2.44065,48.79338],[2.43991,48.7954],[2.44263,48.79633],[2.44751,48.80212],[2.4545,48.80595],[2.45745,48.80512],[2.46402,48.80736],[2.46835,48.80438],[2.47034,48.7992],[2.47215,48.79088],[2.47486,48.78764],[2.47308,48.78718],[2.47437,48.78385],[2.47587,48.78266],[2.4754,48.78139],[2.4726,48.77995],[2.47495,48.77765],[2.47282,48.7765],[2.47465,48.77461],[2.47164,48.7729],[2.47202,48.77141],[2.47396,48.77023],[2.47731,48.76614],[2.47479,48.76535],[2.47719,48.76281],[2.47354,48.76177],[2.47212,48.76318],[2.46833,48.76229],[2.46637,48.76611],[2.46333,48.76678],[2.46107,48.76571],[2.45958,48.76647],[2.45724,48.7662],[2.4492,48.77003],[2.44094,48.77189],[2.43911,48.77125],[2.43557,48.76723],[2.43217,48.76678],[2.43054,48.77068],[2.42761,48.77079],[2.42879,48.78022],[2.42996,48.78035],[2.42992,48.78232],[2.43386,48.78396],[2.43275,48.78673]]]}},{"type":"Feature","properties":{"name":"Fontenay-sous-Bois","code":"94033"},"geometry":{"type":"Polygon","coordinates":[[[2.46725,48.83907],[2.46522,48.84111],[2.46226,48.84254],[2.44785,48.8448],[2.4479,48.84676],[2.45792,48.84511],[2.45581,48.84733],[2.45635,48.84963],[2.4471,48.85116],[2.44874,48.85344],[2.45386,48.85546],[2.4673,48.85666],[2.46676,48.86003],[2.46825,48.8607],[2.48078,48.86015],[2.48153,48.86141],[2.49101,48.86081],[2.49162,48.85968],[2.49395,48.86058],[2.49639,48.85991],[2.49496,48.85883],[2.49652,48.85609],[2.49897,48.85675],[2.49972,48.85568],[2.49699,48.85474],[2.4959,48.85298],[2.49338,48.85168],[2.49337,48.8488],[2.48727,48.84605],[2.48564,48.84314],[2.47978,48.84199],[2.47925,48.84347],[2.47692,48.84289],[2.47597,48.84114],[2.47319,48.84009],[2.47224,48.84201],[2.46873,48.84089],[2.46951,48.84002],[2.46725,48.83907]]]}},{"type":"Feature","properties":{"name":"Gentilly","code":"94037"},"geometry":{"type":"Polygon","coordinates":[[[2.35646,48.81595],[2.35424,48.81334],[2.3503,48.81106],[2.34486,48.80541],[2.34251,48.80659],[2.34345,48.80829],[2.34243,48.80967],[2.33901,48.81082],[2.34029,48.81247],[2.33735,48.81358],[2.3346,48.81357],[2.33414,48.81265],[2.32906,48.81379],[2.3319,48.81701],[2.34717,48.8161],[2.35239,48.81856],[2.35646,48.81595]]]}},{"type":"Feature","properties":{"name":"Ha\u00ff-les-Roses","code":"94038"},"geometry":{"type":"Polygon","coordinates":[[[2.33268,48.7646],[2.32333,48.76667],[2.32385,48.76441],[2.3219,48.76449],[2.32186,48.76622],[2.31588,48.76677],[2.31993,48.77072],[2.32374,48.77658],[2.32572,48.77707],[2.32662,48.77873],[2.32458,48.77907],[2.32581,48.78191],[2.32765,48.78211],[2.32834,48.78444],[2.3343,48.78439],[2.3386,48.7827],[2.3395,48.78424],[2.34089,48.78392],[2.3442,48.79076],[2.34625,48.78957],[2.3447,48.78544],[2.34783,48.78501],[2.34742,48.78217],[2.35266,48.78094],[2.35487,48.77872],[2.36723,48.7808],[2.36727,48.77938],[2.35488,48.77473],[2.35367,48.77341],[2.35182,48.77391],[2.34991,48.77111],[2.3427,48.77222],[2.34335,48.77347],[2.33893,48.77445],[2.33783,48.77339],[2.33591,48.77355],[2.33378,48.77074],[2.33584,48.77024],[2.33268,48.7646]]]}},{"type":"Feature","properties":{"name":"Rungis","code":"94065"},"geometry":{"type":"Polygon","coordinates":[[[2.35644,48.73816],[2.34775,48.74148],[2.34549,48.74168],[2.34461,48.74064],[2.34169,48.74046],[2.33715,48.74226],[2.33771,48.74324],[2.33375,48.7468],[2.33075,48.7481],[2.33219,48.7494],[2.33608,48.74757],[2.33737,48.74821],[2.33959,48.75175],[2.3439,48.75621],[2.34618,48.76046],[2.34808,48.75856],[2.3546,48.76056],[2.35577,48.7594],[2.36007,48.76053],[2.36188,48.75874],[2.36201,48.7569],[2.36862,48.75746],[2.36935,48.74606],[2.36291,48.74609],[2.36301,48.74411],[2.35934,48.7424],[2.35644,48.73816]]]}},{"type":"Feature","properties":{"name":"Thiais","code":"94073"},"geometry":{"type":"Polygon","coordinates":[[[2.36935,48.74606],[2.36782,48.77191],[2.37106,48.77002],[2.37418,48.77183],[2.37652,48.77156],[2.37925,48.77313],[2.38191,48.77184],[2.38812,48.77323],[2.38862,48.77193],[2.39254,48.77234],[2.39234,48.77337],[2.39873,48.77472],[2.40397,48.76686],[2.39814,48.76583],[2.40332,48.76137],[2.40611,48.75107],[2.39946,48.74968],[2.39905,48.75236],[2.39331,48.75085],[2.39115,48.75215],[2.38729,48.75285],[2.38931,48.74955],[2.38616,48.75035],[2.38208,48.74824],[2.37801,48.74923],[2.37415,48.74836],[2.37443,48.7462],[2.36935,48.74606]]]}},{"type":"Feature","properties":{"name":"Villejuif","code":"94076"},"geometry":{"type":"Polygon","coordinates":[[[2.3442,48.79076],[2.34494,48.79474],[2.34385,48.79766],[2.34699,48.79828],[2.34611,48.79963],[2.34778,48.8015],[2.35115,48.8019],[2.35296,48.80319],[2.35413,48.80235],[2.35858,48.80431],[2.35806,48.80599],[2.36138,48.80741],[2.36212,48.80686],[2.36722,48.80803],[2.37302,48.80252],[2.36999,48.80074],[2.36979,48.79918],[2.37197,48.79717],[2.37028,48.79653],[2.37689,48.78659],[2.36951,48.78236],[2.37089,48.78065],[2.36727,48.77938],[2.36723,48.7808],[2.35487,48.77872],[2.35266,48.78094],[2.34742,48.78217],[2.34783,48.78501],[2.3447,48.78544],[2.34625,48.78957],[2.3442,48.79076]]]}},{"type":"Feature","properties":{"name":"Vanves","code":"92075"},"geometry":{"type":"Polygon","coordinates":[[[2.27257,48.8144],[2.27594,48.81728],[2.28184,48.82028],[2.28047,48.82592],[2.28436,48.8275],[2.28791,48.82753],[2.2894,48.82835],[2.30132,48.82513],[2.29169,48.81803],[2.28484,48.8155],[2.27818,48.81425],[2.27718,48.81535],[2.27257,48.8144]]]}},{"type":"Feature","properties":{"name":"Fontenay-aux-Roses","code":"92032"},"geometry":{"type":"Polygon","coordinates":[[[2.28198,48.78317],[2.27876,48.78427],[2.27907,48.78517],[2.27694,48.78604],[2.27475,48.78578],[2.27397,48.78771],[2.27206,48.78912],[2.27173,48.79052],[2.27297,48.79103],[2.2722,48.79413],[2.2767,48.79594],[2.28053,48.79501],[2.28654,48.79615],[2.28793,48.79449],[2.29222,48.79597],[2.29616,48.79576],[2.29831,48.79447],[2.29749,48.79368],[2.30331,48.7854],[2.29296,48.78412],[2.28801,48.78262],[2.28198,48.78317]]]}},{"type":"Feature","properties":{"name":"Marnes-la-Coquette","code":"92047"},"geometry":{"type":"Polygon","coordinates":[[[2.15147,48.82141],[2.15163,48.8295],[2.156,48.83764],[2.18642,48.83854],[2.18721,48.83773],[2.18531,48.8339],[2.17615,48.8281],[2.17642,48.82724],[2.1738,48.82427],[2.16438,48.82312],[2.16185,48.82366],[2.15948,48.82097],[2.15299,48.82128],[2.15074,48.81884],[2.15147,48.82141]]]}},{"type":"Feature","properties":{"name":"Bois-Colombes","code":"92009"},"geometry":{"type":"Polygon","coordinates":[[[2.25741,48.91356],[2.26156,48.91388],[2.26319,48.92021],[2.26522,48.92036],[2.26715,48.9195],[2.26966,48.92461],[2.26788,48.92506],[2.27331,48.92685],[2.27614,48.92305],[2.28065,48.91911],[2.27232,48.91273],[2.27216,48.91017],[2.26495,48.91027],[2.26702,48.90461],[2.26326,48.90339],[2.26137,48.90682],[2.25822,48.90607],[2.25704,48.91095],[2.25741,48.91356]]]}},{"type":"Feature","properties":{"name":"Boulogne-Billancourt","code":"92012"},"geometry":{"type":"Polygon","coordinates":[[[2.22599,48.83261],[2.22297,48.83708],[2.22304,48.83965],[2.22533,48.8462],[2.22539,48.85003],[2.22422,48.85352],[2.23919,48.85004],[2.24237,48.84766],[2.25248,48.84548],[2.25123,48.8429],[2.25171,48.83882],[2.25514,48.83481],[2.2628,48.83392],[2.25169,48.82575],[2.23958,48.82183],[2.23611,48.82155],[2.23264,48.82274],[2.22833,48.82583],[2.22599,48.83261]]]}},{"type":"Feature","properties":{"name":"Ch\u00e2tenay-Malabry","code":"92019"},"geometry":{"type":"Polygon","coordinates":[[[2.23286,48.76599],[2.23313,48.76918],[2.23201,48.77086],[2.23065,48.77126],[2.23075,48.77338],[2.22884,48.77446],[2.22877,48.77567],[2.23039,48.7768],[2.23746,48.7763],[2.2365,48.77497],[2.2392,48.77267],[2.24268,48.77339],[2.24633,48.77272],[2.24648,48.77351],[2.25112,48.77257],[2.25991,48.77323],[2.27239,48.77734],[2.27439,48.777],[2.27644,48.78136],[2.27958,48.78249],[2.28046,48.78006],[2.27833,48.77648],[2.28013,48.77389],[2.28153,48.77449],[2.28631,48.77414],[2.28628,48.77133],[2.29189,48.76429],[2.29083,48.76094],[2.27862,48.76001],[2.27615,48.75665],[2.26944,48.75765],[2.27092,48.7607],[2.26865,48.76068],[2.269,48.76202],[2.26717,48.76233],[2.26201,48.75979],[2.25939,48.76101],[2.25505,48.76142],[2.25137,48.76076],[2.24933,48.76185],[2.24702,48.76083],[2.24519,48.76255],[2.24096,48.76371],[2.23859,48.76647],[2.23286,48.76599]]]}},{"type":"Feature","properties":{"name":"Ch\u00e2tillon","code":"92020"},"geometry":{"type":"Polygon","coordinates":[[[2.30268,48.81112],[2.3018,48.80997],[2.30604,48.80858],[2.30371,48.80605],[2.30304,48.80343],[2.29969,48.80286],[2.29222,48.79597],[2.28793,48.79449],[2.28654,48.79615],[2.28053,48.79501],[2.2767,48.79594],[2.2722,48.79413],[2.27138,48.7949],[2.27638,48.79772],[2.27754,48.80151],[2.27308,48.80186],[2.27991,48.81092],[2.28517,48.81062],[2.29044,48.80894],[2.29201,48.80971],[2.29359,48.81191],[2.29479,48.81053],[2.29804,48.81213],[2.30268,48.81112]]]}},{"type":"Feature","properties":{"name":"Chaville","code":"92022"},"geometry":{"type":"Polygon","coordinates":[[[2.18294,48.79723],[2.18696,48.8007],[2.18196,48.8006],[2.18042,48.80481],[2.18307,48.80526],[2.17635,48.81099],[2.17586,48.81262],[2.17674,48.81401],[2.17852,48.81486],[2.18977,48.81576],[2.19721,48.82014],[2.20026,48.81905],[2.19821,48.81804],[2.19954,48.81707],[2.19669,48.81513],[2.20581,48.80888],[2.20446,48.8027],[2.20606,48.79994],[2.20264,48.7984],[2.19859,48.79847],[2.19654,48.79755],[2.18294,48.79723]]]}},{"type":"Feature","properties":{"name":"Clamart","code":"92023"},"geometry":{"type":"Polygon","coordinates":[[[2.23914,48.7763],[2.23039,48.7768],[2.22877,48.77567],[2.22884,48.77446],[2.22407,48.77786],[2.22367,48.78066],[2.23481,48.78448],[2.23645,48.78903],[2.23482,48.79543],[2.23878,48.79778],[2.24161,48.80294],[2.24509,48.80474],[2.24831,48.80392],[2.25008,48.80773],[2.25302,48.80975],[2.25505,48.81012],[2.25371,48.81413],[2.25187,48.81639],[2.25647,48.81704],[2.26129,48.81331],[2.26394,48.81447],[2.26494,48.81357],[2.27718,48.81535],[2.27818,48.81425],[2.27449,48.81343],[2.27991,48.81092],[2.27308,48.80186],[2.27754,48.80151],[2.27638,48.79772],[2.27138,48.7949],[2.27297,48.79103],[2.25466,48.78492],[2.25066,48.78449],[2.24847,48.78263],[2.24632,48.77911],[2.24028,48.77984],[2.23914,48.7763]]]}},{"type":"Feature","properties":{"name":"Colombes","code":"92025"},"geometry":{"type":"Polygon","coordinates":[[[2.26156,48.91388],[2.2468,48.91178],[2.2291,48.90602],[2.22794,48.90792],[2.22915,48.90834],[2.22664,48.91207],[2.22211,48.91649],[2.22415,48.91799],[2.2204,48.92062],[2.23114,48.92773],[2.24177,48.9329],[2.2476,48.93674],[2.2484,48.93386],[2.25099,48.93584],[2.25816,48.93755],[2.26248,48.93546],[2.27304,48.93384],[2.27239,48.92855],[2.27331,48.92685],[2.26788,48.92506],[2.26966,48.92461],[2.26715,48.9195],[2.26522,48.92036],[2.26319,48.92021],[2.26156,48.91388]]]}},{"type":"Feature","properties":{"name":"Courbevoie","code":"92026"},"geometry":{"type":"Polygon","coordinates":[[[2.25376,48.88689],[2.24117,48.89088],[2.2405,48.89514],[2.23789,48.89465],[2.23379,48.89568],[2.23057,48.90034],[2.24259,48.90277],[2.2457,48.90299],[2.24647,48.90202],[2.25584,48.9045],[2.25578,48.90537],[2.26137,48.90682],[2.26326,48.90339],[2.26702,48.90461],[2.2664,48.90629],[2.2682,48.90597],[2.27431,48.90828],[2.28013,48.90364],[2.28185,48.90462],[2.28427,48.90228],[2.26792,48.89718],[2.26334,48.89485],[2.25376,48.88689]]]}},{"type":"Feature","properties":{"name":"Garches","code":"92033"},"geometry":{"type":"Polygon","coordinates":[[[2.18262,48.85157],[2.18732,48.85253],[2.19034,48.85207],[2.19427,48.85613],[2.2055,48.85182],[2.19803,48.84743],[2.198,48.84549],[2.19901,48.84394],[2.19883,48.84149],[2.18757,48.83891],[2.18721,48.83773],[2.18642,48.83854],[2.17131,48.83844],[2.16662,48.83774],[2.16732,48.83936],[2.16706,48.84218],[2.17902,48.84413],[2.18181,48.84821],[2.18262,48.85157]]]}},{"type":"Feature","properties":{"name":"Garenne-Colombes","code":"92035"},"geometry":{"type":"Polygon","coordinates":[[[2.25741,48.91356],[2.25704,48.91095],[2.25822,48.90607],[2.25578,48.90537],[2.25584,48.9045],[2.24647,48.90202],[2.2457,48.90299],[2.24259,48.90277],[2.23162,48.90065],[2.2291,48.90602],[2.2468,48.91178],[2.25741,48.91356]]]}},{"type":"Feature","properties":{"name":"Issy-les-Moulineaux","code":"92040"},"geometry":{"type":"Polygon","coordinates":[[[2.23611,48.82155],[2.23958,48.82183],[2.24867,48.82446],[2.25169,48.82575],[2.2628,48.83392],[2.2673,48.83466],[2.27005,48.83301],[2.26722,48.83154],[2.26754,48.82779],[2.2728,48.82792],[2.27906,48.83249],[2.2894,48.82835],[2.28791,48.82753],[2.28436,48.8275],[2.28047,48.82592],[2.28184,48.82028],[2.27594,48.81728],[2.27257,48.8144],[2.26494,48.81357],[2.26394,48.81447],[2.26129,48.81331],[2.25647,48.81704],[2.25187,48.81639],[2.24928,48.81783],[2.24255,48.81897],[2.24278,48.82054],[2.23611,48.82155]]]}},{"type":"Feature","properties":{"name":"Levallois-Perret","code":"92044"},"geometry":{"type":"Polygon","coordinates":[[[2.27107,48.8984],[2.28739,48.90364],[2.30378,48.89415],[2.29505,48.88987],[2.29151,48.88948],[2.28446,48.88564],[2.27107,48.8984]]]}},{"type":"Feature","properties":{"name":"Malakoff","code":"92046"},"geometry":{"type":"Polygon","coordinates":[[[2.27449,48.81343],[2.28484,48.8155],[2.29169,48.81803],[2.30132,48.82513],[2.31415,48.82229],[2.30016,48.81134],[2.29804,48.81213],[2.29479,48.81053],[2.29359,48.81191],[2.29201,48.80971],[2.29044,48.80894],[2.28517,48.81062],[2.27991,48.81092],[2.27449,48.81343]]]}},{"type":"Feature","properties":{"name":"Meudon","code":"92048"},"geometry":{"type":"Polygon","coordinates":[[[2.20551,48.8092],[2.22064,48.81517],[2.21996,48.81638],[2.21718,48.81776],[2.22734,48.82367],[2.23079,48.82159],[2.23264,48.82274],[2.24017,48.8205],[2.24278,48.82054],[2.24255,48.81897],[2.24928,48.81783],[2.25187,48.81639],[2.25371,48.81413],[2.25505,48.81012],[2.25302,48.80975],[2.25008,48.80773],[2.24831,48.80392],[2.24509,48.80474],[2.24161,48.80294],[2.23878,48.79778],[2.23482,48.79543],[2.23645,48.78903],[2.23481,48.78448],[2.22663,48.78158],[2.22332,48.78595],[2.21924,48.78536],[2.2115,48.78814],[2.20895,48.78761],[2.21162,48.79126],[2.20991,48.79382],[2.20436,48.79593],[2.20472,48.7968],[2.20264,48.7984],[2.20606,48.79994],[2.20446,48.8027],[2.20551,48.8092]]]}},{"type":"Feature","properties":{"name":"Nanterre","code":"92050"},"geometry":{"type":"Polygon","coordinates":[[[2.16935,48.89581],[2.17652,48.90035],[2.19267,48.9048],[2.20615,48.91093],[2.2204,48.92062],[2.22415,48.91799],[2.22211,48.91649],[2.22664,48.91207],[2.22915,48.90834],[2.22794,48.90792],[2.23189,48.90094],[2.23057,48.90034],[2.23426,48.89505],[2.22995,48.89104],[2.2307,48.88964],[2.2245,48.88544],[2.22245,48.88314],[2.22361,48.88277],[2.21644,48.87813],[2.21661,48.87679],[2.21314,48.87643],[2.21165,48.87728],[2.20776,48.87423],[2.18578,48.88754],[2.16935,48.89581]]]}},{"type":"Feature","properties":{"name":"Neuilly-sur-Seine","code":"92051"},"geometry":{"type":"Polygon","coordinates":[[[2.2457,48.87646],[2.2544,48.88489],[2.25248,48.88549],[2.2554,48.88854],[2.26334,48.89485],[2.27107,48.8984],[2.28446,48.88564],[2.2809,48.8828],[2.27995,48.87857],[2.27749,48.87797],[2.25847,48.88039],[2.25541,48.87426],[2.2457,48.87646]]]}},{"type":"Feature","properties":{"name":"Plessis-Robinson","code":"92060"},"geometry":{"type":"Polygon","coordinates":[[[2.23746,48.7763],[2.23914,48.7763],[2.24028,48.77984],[2.24632,48.77911],[2.24847,48.78263],[2.25066,48.78449],[2.25466,48.78492],[2.27173,48.79052],[2.27475,48.78578],[2.27694,48.78604],[2.27907,48.78517],[2.27876,48.78427],[2.28198,48.78317],[2.27644,48.78136],[2.27439,48.777],[2.27239,48.77734],[2.25991,48.77323],[2.25112,48.77257],[2.24648,48.77351],[2.24633,48.77272],[2.24268,48.77339],[2.2392,48.77267],[2.2365,48.77497],[2.23746,48.7763]]]}},{"type":"Feature","properties":{"name":"Puteaux","code":"92062"},"geometry":{"type":"Polygon","coordinates":[[[2.25376,48.88689],[2.25248,48.88549],[2.2544,48.88489],[2.24109,48.87243],[2.23174,48.86907],[2.23684,48.87348],[2.23192,48.87586],[2.23641,48.87959],[2.23053,48.87994],[2.22245,48.88314],[2.2245,48.88544],[2.2307,48.88964],[2.22995,48.89104],[2.23426,48.89505],[2.23379,48.89568],[2.23789,48.89465],[2.2405,48.89514],[2.24117,48.89088],[2.25376,48.88689]]]}},{"type":"Feature","properties":{"name":"Rueil-Malmaison","code":"92063"},"geometry":{"type":"Polygon","coordinates":[[[2.19786,48.85476],[2.19427,48.85613],[2.19034,48.85207],[2.18732,48.85253],[2.18262,48.85157],[2.17669,48.85166],[2.17377,48.85021],[2.15987,48.84772],[2.15915,48.84929],[2.15076,48.85619],[2.15032,48.85801],[2.15155,48.8591],[2.15117,48.86057],[2.15495,48.86378],[2.15376,48.8644],[2.15714,48.86963],[2.1523,48.86828],[2.14848,48.86847],[2.14796,48.86933],[2.15287,48.87334],[2.15831,48.88061],[2.16348,48.88318],[2.16333,48.88844],[2.16935,48.89581],[2.19926,48.87995],[2.20776,48.87423],[2.2068,48.8737],[2.21153,48.86921],[2.2114,48.8667],[2.20914,48.86711],[2.20777,48.86443],[2.2021,48.86616],[2.19979,48.86141],[2.20356,48.86063],[2.20183,48.85751],[2.19786,48.85476]]]}},{"type":"Feature","properties":{"name":"Saint-Cloud","code":"92064"},"geometry":{"type":"Polygon","coordinates":[[[2.18531,48.8339],[2.18757,48.83891],[2.19883,48.84149],[2.19901,48.84394],[2.198,48.84549],[2.19803,48.84743],[2.2055,48.85182],[2.19786,48.85476],[2.20183,48.85751],[2.20356,48.86063],[2.20617,48.86034],[2.21263,48.86169],[2.21373,48.85928],[2.2215,48.85996],[2.22568,48.85941],[2.22422,48.85352],[2.22539,48.85003],[2.22533,48.8462],[2.22304,48.83965],[2.22297,48.83708],[2.22405,48.83515],[2.2221,48.83542],[2.22231,48.83204],[2.22379,48.82972],[2.22084,48.82847],[2.22165,48.82703],[2.21885,48.82635],[2.21814,48.82742],[2.21107,48.82763],[2.20059,48.82986],[2.18479,48.82887],[2.1808,48.83063],[2.18531,48.8339]]]}},{"type":"Feature","properties":{"name":"Sceaux","code":"92071"},"geometry":{"type":"Polygon","coordinates":[[[2.30331,48.7854],[2.31048,48.78488],[2.30676,48.77838],[2.30701,48.77744],[2.31427,48.77683],[2.31183,48.77071],[2.30744,48.77075],[2.30711,48.7696],[2.30545,48.76901],[2.29025,48.7666],[2.28628,48.77133],[2.28631,48.77414],[2.28153,48.77449],[2.28013,48.77389],[2.27833,48.77648],[2.28046,48.78006],[2.27958,48.78249],[2.28198,48.78317],[2.28801,48.78262],[2.29296,48.78412],[2.30331,48.7854]]]}},{"type":"Feature","properties":{"name":"S\u00e8vres","code":"92072"},"geometry":{"type":"Polygon","coordinates":[[[2.20551,48.8092],[2.19669,48.81513],[2.19954,48.81707],[2.19821,48.81804],[2.20026,48.81905],[2.19721,48.82014],[2.18977,48.81576],[2.17852,48.81486],[2.18157,48.81781],[2.1863,48.81813],[2.19272,48.82144],[2.19887,48.8222],[2.19841,48.82377],[2.20085,48.82403],[2.20107,48.82581],[2.19821,48.82599],[2.19943,48.82979],[2.21107,48.82763],[2.21814,48.82742],[2.21885,48.82635],[2.22165,48.82703],[2.22084,48.82847],[2.22379,48.82972],[2.22231,48.83204],[2.2221,48.83542],[2.22405,48.83515],[2.22599,48.83261],[2.22833,48.82583],[2.23264,48.82274],[2.23079,48.82159],[2.22734,48.82367],[2.21718,48.81776],[2.21996,48.81638],[2.22064,48.81517],[2.20551,48.8092]]]}},{"type":"Feature","properties":{"name":"Suresnes","code":"92073"},"geometry":{"type":"Polygon","coordinates":[[[2.20617,48.86034],[2.19979,48.86141],[2.2021,48.86616],[2.20777,48.86443],[2.20914,48.86711],[2.2114,48.8667],[2.21153,48.86921],[2.2068,48.8737],[2.21165,48.87728],[2.21314,48.87643],[2.21661,48.87679],[2.21644,48.87813],[2.22361,48.88277],[2.23053,48.87994],[2.23641,48.87959],[2.23192,48.87586],[2.23684,48.87348],[2.22822,48.86518],[2.22568,48.85941],[2.2215,48.85996],[2.21373,48.85928],[2.21263,48.86169],[2.20617,48.86034]]]}},{"type":"Feature","properties":{"name":"Vaucresson","code":"92076"},"geometry":{"type":"Polygon","coordinates":[[[2.16662,48.83774],[2.156,48.83764],[2.15163,48.8295],[2.15147,48.82141],[2.14587,48.83602],[2.14572,48.84178],[2.15095,48.84799],[2.15321,48.84885],[2.15987,48.84772],[2.17377,48.85021],[2.17669,48.85166],[2.18262,48.85157],[2.18181,48.84821],[2.17902,48.84413],[2.16706,48.84218],[2.16732,48.83936],[2.16662,48.83774]]]}},{"type":"Feature","properties":{"name":"Ville-d'Avray","code":"92077"},"geometry":{"type":"Polygon","coordinates":[[[2.1808,48.83063],[2.1867,48.82877],[2.19943,48.82979],[2.19821,48.82599],[2.20107,48.82581],[2.20085,48.82403],[2.19841,48.82377],[2.19887,48.8222],[2.19272,48.82144],[2.1863,48.81813],[2.18157,48.81781],[2.17674,48.81401],[2.17482,48.81511],[2.16931,48.81591],[2.16661,48.81231],[2.16127,48.81278],[2.15158,48.81702],[2.15074,48.81884],[2.15299,48.82128],[2.15948,48.82097],[2.16185,48.82366],[2.16438,48.82312],[2.1738,48.82427],[2.17642,48.82724],[2.17615,48.8281],[2.1808,48.83063]]]}},{"type":"Feature","properties":{"name":"P\u00e9rigny","code":"94056"},"geometry":{"type":"Polygon","coordinates":[[[2.5428,48.69688],[2.54588,48.6994],[2.55324,48.69819],[2.55822,48.70189],[2.5605,48.7021],[2.5688,48.70722],[2.57056,48.70502],[2.57,48.70348],[2.58186,48.69744],[2.57064,48.69494],[2.57166,48.69201],[2.56616,48.69181],[2.56561,48.69113],[2.56139,48.69078],[2.56111,48.68966],[2.55387,48.68832],[2.549,48.68903],[2.55079,48.69053],[2.54781,48.69269],[2.54565,48.69319],[2.54654,48.69517],[2.54422,48.69472],[2.5428,48.69688]]]}},{"type":"Feature","properties":{"name":"Mandres-les-Roses","code":"94047"},"geometry":{"type":"Polygon","coordinates":[[[2.52958,48.70618],[2.53266,48.70543],[2.5344,48.7097],[2.53651,48.70954],[2.54157,48.71181],[2.54854,48.71191],[2.55048,48.7146],[2.55321,48.7164],[2.55967,48.71249],[2.55883,48.71135],[2.56135,48.71071],[2.56304,48.70905],[2.56599,48.70848],[2.56814,48.70897],[2.5688,48.70722],[2.5605,48.7021],[2.55822,48.70189],[2.55324,48.69819],[2.54588,48.6994],[2.54431,48.69845],[2.5416,48.70012],[2.53622,48.69716],[2.5359,48.70081],[2.53108,48.69979],[2.52858,48.70388],[2.52687,48.70473],[2.52914,48.70523],[2.52958,48.70618]]]}},{"type":"Feature","properties":{"name":"Villecresnes","code":"94075"},"geometry":{"type":"Polygon","coordinates":[[[2.51575,48.72894],[2.50865,48.73691],[2.51498,48.73876],[2.51697,48.73849],[2.52253,48.73218],[2.53083,48.72751],[2.5365,48.72822],[2.53682,48.72626],[2.54428,48.72548],[2.54925,48.72588],[2.55366,48.7224],[2.5522,48.71956],[2.557,48.71813],[2.55403,48.71544],[2.55321,48.7164],[2.55048,48.7146],[2.54854,48.71191],[2.54157,48.71181],[2.53651,48.70954],[2.5344,48.7097],[2.53266,48.70543],[2.52958,48.70618],[2.52947,48.70792],[2.52642,48.70806],[2.52643,48.70927],[2.52255,48.70982],[2.52136,48.71229],[2.51908,48.71264],[2.52037,48.71315],[2.51731,48.71591],[2.51575,48.72894]]]}}]}