{"type":"FeatureCollection","features":[{"type":"Feature","properties":{"name":"Cergy-Pontoise"},"geometry":{"type":"Point","coordinates":[2.05118,49.03992]}},{"type":"Feature","properties":{"name":"Evry"},"geometry":{"type":"Point","coordinates":[2.43977,48.62955]}},{"type":"Feature","properties":{"name":"Marne-la-Vallee"},"geometry":{"type":"Point","coordinates":[2.61943,48.84595]}},{"type":"Feature","properties":{"name":"Saint-Quentin-en-Yvelines"},"geometry":{"type":"Point","coordinates":[2.02985,48.77989]}},{"type":"Feature","properties":{"name":"Senart"},"geometry":{"type":"Point","coordinates":[2.5501,48.62588]}}]}