{"type":"FeatureCollection","features":[{"type":"Feature","properties":{"name":"Major Highway","type":"Major Highway"},"geometry":{"type":"LineString","coordinates":[[2.39232,48.88865],[2.51112,49.01694],[2.52375,49.0476]]}},{"type":"Feature","properties":{"name":"Major Highway","type":"Major Highway"},"geometry":{"type":"LineString","coordinates":[[1.85045,48.55313],[1.81274,48.53507],[1.76851,48.52829]]}},{"type":"Feature","properties":{"name":"Major Highway","type":"Major Highway"},"geometry":{"type":"LineString","coordinates":[[2.65124,48.84215],[2.41283,48.84794]]}},{"type":"Feature","properties":{"name":"Major Highway","type":"Major Highway"},"geometry":{"type":"LineString","coordinates":[[2.42477,48.84794],[2.45706,48.79778],[2.46646,48.77573],[2.46377,48.75774],[2.44811,48.74779],[2.38806,48.74473],[2.342,48.71981],[2.3114,48.71115],[2.21071,48.71798],[2.16157,48.73636],[2.14723,48.74649],[2.14219,48.75451],[2.14198,48.76475],[2.14997,48.78522],[2.15873,48.79415],[2.23852,48.83391],[2.24863,48.84454]]}},{"type":"Feature","properties":{"name":"A10","type":"Major Highway"},"geometry":{"type":"LineString","coordinates":[[2.19978,48.72051],[2.17181,48.69743],[2.13466,48.67416],[2.10357,48.65892],[1.92992,48.59555],[1.85045,48.55313]]}},{"type":"Feature","properties":{"name":"E5","type":"Major Highway"},"geometry":{"type":"LineString","coordinates":[[1.92198,48.59577],[1.91929,48.558],[1.90819,48.49554],[1.8717,48.38981]]}},{"type":"Feature","properties":{"name":"E50","type":"Major Highway"},"geometry":{"type":"LineString","coordinates":[[1.76851,48.52829],[1.7113,48.52532]]}},{"type":"Feature","properties":{"name":"E15","type":"Major Highway"},"geometry":{"type":"LineString","coordinates":[[2.97647,48.13369],[2.85122,48.18592],[2.82155,48.20747]]}},{"type":"Feature","properties":{"name":"E15","type":"Major Highway"},"geometry":{"type":"LineString","coordinates":[[2.82155,48.20747],[2.78236,48.2496],[2.75024,48.27185],[2.61843,48.32557],[2.57173,48.35103],[2.54038,48.37467],[2.52156,48.39993],[2.49312,48.48237],[2.46103,48.54632],[2.44019,48.56697],[2.3755,48.61517]]}},{"type":"Feature","properties":{"name":"E15","type":"Major Highway"},"geometry":{"type":"LineString","coordinates":[[2.53031,49.03512],[2.56599,49.12785],[2.58636,49.16426]]}},{"type":"Feature","properties":{"name":"E50","type":"Major Highway"},"geometry":{"type":"LineString","coordinates":[[3.24079,49.05113],[3.17988,49.03051],[3.11078,48.99881],[3.06754,48.97185],[3.03018,48.9408],[3.01235,48.93144],[2.99349,48.92585],[2.9141,48.91413],[2.89752,48.9076],[2.87451,48.8921],[2.82926,48.85105],[2.81243,48.84096],[2.78435,48.83485],[2.74774,48.83349],[2.65124,48.84215]]}},{"type":"Feature","properties":{"name":"E5","type":"Major Highway"},"geometry":{"type":"LineString","coordinates":[[1.40461,49.0795],[1.73781,48.93949],[1.7608,48.93697],[1.78279,48.9385],[1.85993,48.95143],[1.88233,48.9512],[1.91015,48.94475],[1.9422,48.92765],[1.95442,48.91712],[1.97174,48.88033],[2.05662,48.82954]]}},{"type":"Feature","properties":{"name":"Major Highway","type":"Major Highway"},"geometry":{"type":"LineString","coordinates":[[2.25553,48.86387],[2.22167,48.87052],[2.19546,48.86809],[2.17512,48.8614],[2.14332,48.84052],[2.12357,48.83295],[2.05362,48.83404]]}},{"type":"Feature","properties":{"name":"Major Highway","type":"Major Highway"},"geometry":{"type":"LineString","coordinates":[[2.40873,48.84873],[2.40513,48.87101],[2.39188,48.88856],[2.3759,48.89413],[2.31452,48.89975],[2.29585,48.89644],[2.27946,48.88681],[2.24214,48.84754],[2.23933,48.8361]]}},{"type":"Feature","properties":{"name":"Secondary Highway","type":"Secondary Highway"},"geometry":{"type":"LineString","coordinates":[[2.12148,48.66705],[2.16097,48.64008],[2.18786,48.62905],[2.3619,48.61295],[2.38872,48.61487]]}},{"type":"Feature","properties":{"name":"A16","type":"Major Highway"},"geometry":{"type":"LineString","coordinates":[[2.0916,49.25923],[2.11601,49.23049],[2.14427,49.21041],[2.20494,49.18972],[2.22218,49.18018],[2.23436,49.16533],[2.25719,49.11391],[2.27524,49.08581]]}},{"type":"Feature","properties":{"name":"A77","type":"Major Highway"},"geometry":{"type":"LineString","coordinates":[[2.82155,48.20747],[2.80955,48.1716],[2.79998,48.15513],[2.77325,48.12961],[2.72118,48.09647],[2.70961,48.08246],[2.70603,48.07304]]}},{"type":"Feature","properties":{"name":"E54","type":"Major Highway"},"geometry":{"type":"LineString","coordinates":[[3.23418,48.31803],[3.18412,48.34969],[3.14508,48.36557],[3.10399,48.37508],[3.01138,48.3896],[2.96759,48.40693],[2.92764,48.43148],[2.77656,48.56263],[2.74037,48.58384],[2.72019,48.58846],[2.57008,48.59723],[2.5135,48.61718],[2.49916,48.63291]]}},{"type":"Feature","properties":{"name":"Secondary Highway","type":"Secondary Highway"},"geometry":{"type":"LineString","coordinates":[[2.38872,48.61487],[2.49625,48.6303]]}},{"type":"Feature","properties":{"name":"Secondary Highway","type":"Secondary Highway"},"geometry":{"type":"LineString","coordinates":[[2.27524,49.08581],[2.31864,49.04819],[2.3503,49.01024],[2.36087,48.97384],[2.36133,48.90332]]}},{"type":"Feature","properties":{"name":"Major Highway","type":"Major Highway"},"geometry":{"type":"LineString","coordinates":[[2.23933,48.8361],[2.25429,48.82531],[2.29173,48.81576],[2.3309,48.81303],[2.35057,48.81681],[2.39412,48.83266],[2.40873,48.84873]]}},{"type":"Feature","properties":{"name":"N104","type":"Secondary Highway"},"geometry":{"type":"LineString","coordinates":[[2.49916,48.63291],[2.50533,48.64431],[2.52026,48.65574],[2.592,48.67177],[2.60833,48.68081],[2.61163,48.69378],[2.60475,48.73748],[2.60891,48.75571],[2.61609,48.7616],[2.6513,48.77659],[2.65795,48.78309],[2.6576,48.79202],[2.64484,48.81948],[2.64557,48.839]]}},{"type":"Feature","properties":{"name":"N104","type":"Major Highway"},"geometry":{"type":"LineString","coordinates":[[2.64557,48.839],[2.65415,48.85516],[2.67746,48.88571],[2.67897,48.89485],[2.67634,48.9025],[2.57581,49.00898],[2.52594,49.0428]]}},{"type":"Feature","properties":{"name":"N104","type":"Secondary Highway"},"geometry":{"type":"LineString","coordinates":[[2.52594,49.0428],[2.48895,49.05664],[2.40223,49.06936],[2.32144,49.08911],[2.26395,49.08498]]}},{"type":"Feature","properties":{"name":"Secondary Highway","type":"Secondary Highway"},"geometry":{"type":"LineString","coordinates":[[2.3755,48.61517],[2.3182,48.65633],[2.29792,48.67565],[2.28657,48.69373],[2.28572,48.70399],[2.28967,48.71471]]}},{"type":"Feature","properties":{"name":"N10","type":"Secondary Highway"},"geometry":{"type":"LineString","coordinates":[[2.0654,48.83226],[2.05412,48.80765],[2.03473,48.78927],[2.02367,48.78488],[1.9535,48.77333],[1.92009,48.76232],[1.87841,48.74011],[1.85984,48.72539],[1.84431,48.70783],[1.82817,48.67234],[1.825,48.6341],[1.83121,48.59536],[1.84318,48.55832]]}},{"type":"Feature","properties":{"name":"N184","type":"Major Highway"},"geometry":{"type":"LineString","coordinates":[[2.26395,49.08498],[2.20514,49.05932],[2.12755,49.04629],[2.1005,49.03083],[2.08528,49.00125],[2.08407,48.99268],[2.0852,48.95914],[2.08957,48.94346],[2.09424,48.93756]]}},{"type":"Feature","properties":{"name":"Secondary Highway","type":"Secondary Highway"},"geometry":{"type":"LineString","coordinates":[[2.63532,48.76971],[2.59654,48.76508],[2.55791,48.76836],[2.45265,48.80612]]}},{"type":"Feature","properties":{"name":"N4","type":"Secondary Highway"},"geometry":{"type":"LineString","coordinates":[[2.62062,48.76581],[2.73517,48.74684],[2.90332,48.69055],[2.97916,48.68557],[3.22578,48.70307],[3.47793,48.70012],[3.52638,48.70958]]}},{"type":"Feature","properties":{"name":"E60","type":"Major Highway"},"geometry":{"type":"LineString","coordinates":[[2.53225,48.07622],[2.46202,48.1038],[2.44397,48.10433],[2.40116,48.09777]]}},{"type":"Feature","properties":{"name":"Major Highway","type":"Major Highway"},"geometry":{"type":"LineString","coordinates":[[1.93893,48.9276],[1.97397,48.91347],[2.01091,48.91593],[2.04858,48.9244],[2.0858,48.92833],[2.14777,48.90603],[2.16659,48.90374],[2.19563,48.90541],[2.30411,48.93455],[2.51959,48.97215],[2.59491,48.99186]]}},{"type":"Feature","properties":{"name":"Major Highway","type":"Major Highway"},"geometry":{"type":"LineString","coordinates":[[2.28967,48.71471],[2.31316,48.73952],[2.32328,48.75532],[2.32568,48.77207],[2.32223,48.80729]]}},{"type":"Feature","properties":{"name":"D6014","type":"Secondary Highway"},"geometry":{"type":"LineString","coordinates":[[1.6433,49.25016],[1.71583,49.22248],[1.74014,49.20716],[1.76866,49.17985],[1.79219,49.16289],[1.80893,49.15348],[1.90021,49.1182],[1.96517,49.07939],[1.98333,49.07521],[2.05947,49.06824],[2.08992,49.05945],[2.15363,49.02891],[2.24026,49.01704],[2.25643,49.01238],[2.26366,49.00753],[2.27499,48.98237],[2.31629,48.93164]]}},{"type":"Feature","properties":{"name":"Secondary Highway","type":"Secondary Highway"},"geometry":{"type":"LineString","coordinates":[[2.3457,48.26011],[2.37499,48.27741],[2.44166,48.30209],[2.48763,48.31452],[2.52333,48.32115],[2.58213,48.32338],[2.60275,48.32927],[2.61896,48.34065],[2.64537,48.3705],[2.66142,48.38213],[2.68214,48.38818],[2.72579,48.38511],[2.81529,48.36173],[3.04902,48.31952],[3.10643,48.29966]]}},{"type":"Feature","properties":{"name":"N158","type":"Secondary Highway"},"geometry":{"type":"LineString","coordinates":[[1.40087,49.0258],[1.46105,49.03711]]}},{"type":"Feature","properties":{"name":"Secondary Highway","type":"Secondary Highway"},"geometry":{"type":"LineString","coordinates":[[1.96406,48.78595],[1.81081,48.80467],[1.73089,48.80431],[1.52757,48.77365]]}},{"type":"Feature","properties":{"name":"N2","type":"Secondary Highway"},"geometry":{"type":"LineString","coordinates":[[2.59491,48.99186],[2.63918,49.0128],[2.66832,49.04952],[2.69541,49.07427],[2.83072,49.14263]]}},{"type":"Feature","properties":{"name":"Secondary Highway","type":"Secondary Highway"},"geometry":{"type":"LineString","coordinates":[[2.1919,48.81315],[2.18655,48.7697],[2.14929,48.73859],[2.13996,48.72251],[2.1546,48.68784]]}},{"type":"Feature","properties":{"name":"Secondary Highway","type":"Secondary Highway"},"geometry":{"type":"LineString","coordinates":[[2.31629,48.93164],[2.31694,48.89345]]}},{"type":"Feature","properties":{"name":"D619","type":"Secondary Highway"},"geometry":{"type":"LineString","coordinates":[[3.48101,48.47155],[3.46085,48.47853],[3.40224,48.52027],[3.35103,48.5396],[3.29765,48.54918],[3.07481,48.55942],[3.01924,48.56931],[2.82962,48.62691],[2.80123,48.63217],[2.77047,48.63433],[2.74166,48.6301],[2.72629,48.61973],[2.71734,48.59427]]}}]}