{"type":"FeatureCollection","features":[{"type":"Feature","properties":{"name":"Rail network Ile-de-France (RER/Transilien tracks)"},"geometry":{"type":"MultiLineString","coordinates":[[[1.67988,48.99442],[1.63852,48.9957],[1.62562,48.99919],[1.61463,49.00884],[1.59306,49.03562],[1.58921,49.03806],[1.58147,49.03873],[1.56937,49.03404],[1.56085,49.033],[1.55265,49.03359],[1.54186,49.03718],[1.53287,49.04414],[1.52411,49.06174],[1.51243,49.07465]],[[1.69055,48.99],[1.6605,48.98251],[1.63017,48.98439],[1.62283,48.98301],[1.59951,48.96576],[1.59021,48.96254],[1.58033,48.95727],[1.54278,48.94395],[1.52019,48.92512]],[[1.92476,48.83348],[1.90773,48.83508],[1.89639,48.83861],[1.88716,48.83791],[1.88277,48.83565],[1.88049,48.83277],[1.87922,48.81739],[1.86903,48.80708],[1.86259,48.80523],[1.82255,48.80229],[1.74905,48.81282],[1.7111,48.82503],[1.6823,48.83042],[1.67418,48.83055],[1.65206,48.82292],[1.63189,48.80848],[1.61907,48.79722],[1.61248,48.79569],[1.59174,48.79598],[1.57641,48.78962]],[[1.69055,48.99],[1.68435,48.9938],[1.67988,48.99442]],[[1.70761,48.98761],[1.69528,48.99239],[1.67988,48.99442]],[[1.69796,48.99046],[1.69055,48.99]],[[1.69796,48.99046],[1.6925,48.98984],[1.69055,48.99]],[[1.71087,48.98568],[1.70028,48.99027],[1.69953,48.99047],[1.69796,48.99046]],[[1.70761,48.98761],[1.70413,48.98933]],[[1.71037,48.98611],[1.70761,48.98761]],[[1.71037,48.98611],[1.70821,48.9874],[1.70761,48.98761]],[[1.71087,48.98568],[1.71037,48.98611]],[[2.07371,48.99188],[2.06656,48.99136],[2.06226,48.98955],[2.05459,48.97848],[2.04583,48.97291],[2.03282,48.96999],[2.01816,48.97136],[2.01332,48.97299],[2.00492,48.98212],[1.98108,48.99893],[1.96918,49.00524],[1.95826,49.00886],[1.95018,49.0101],[1.93408,49.00955],[1.91626,49.00628],[1.90245,49.00586],[1.891,49.00105],[1.86641,48.99418],[1.85438,48.99171],[1.84151,48.99178],[1.83412,48.9891],[1.79269,48.97954],[1.77898,48.97968],[1.74096,48.98502],[1.72112,48.98209],[1.71037,48.98611]],[[1.71473,48.98376],[1.71412,48.98401],[1.71243,48.98484],[1.71087,48.98568]],[[1.71473,48.98376],[1.71473,48.98376]],[[1.83085,48.96676],[1.80539,48.9631],[1.76076,48.96447],[1.75109,48.96651],[1.74199,48.97012],[1.72912,48.97819],[1.71473,48.98376]],[[1.71476,48.98375],[1.71473,48.98376]],[[1.77172,48.62596],[1.75187,48.62475],[1.73602,48.61658],[1.7165,48.611]],[[1.96749,48.76129],[1.94005,48.7544],[1.93181,48.75064],[1.87605,48.71208],[1.86215,48.7012],[1.8573,48.69519],[1.84256,48.65243],[1.83799,48.64759],[1.81353,48.63336],[1.78341,48.62649],[1.77174,48.62596]],[[1.87466,48.48397],[1.81076,48.46619]],[[1.82896,48.96117],[1.82103,48.9639],[1.81127,48.96344]],[[1.82896,48.96117],[1.82715,48.96451],[1.83085,48.96676]],[[1.92476,48.83348],[1.9146,48.83477],[1.89729,48.8398],[1.89005,48.84824],[1.88017,48.8533],[1.87747,48.85621],[1.87412,48.86558],[1.87656,48.87412],[1.87173,48.89338],[1.86527,48.90372],[1.85396,48.91237],[1.84662,48.92929],[1.83547,48.9473],[1.8319,48.9581],[1.82896,48.96117]],[[2.07208,48.94703],[2.02922,48.9284],[2.02016,48.92749],[2.00987,48.92972],[2.00369,48.93298],[2.00071,48.93626],[1.99329,48.97054],[1.98958,48.97652],[1.97853,48.98424],[1.96922,48.98861],[1.93682,48.99671],[1.92928,48.99662],[1.92011,48.99458],[1.83085,48.96676]],[[1.87466,48.48397],[1.84403,48.47112],[1.83228,48.46756]],[[2.00982,48.53358],[1.99377,48.53561],[1.98928,48.53453],[1.97651,48.52805],[1.9564,48.5278],[1.94301,48.51677],[1.92373,48.50868],[1.92132,48.50539],[1.9206,48.49828],[1.91627,48.49435],[1.91039,48.49188],[1.87466,48.48397]],[[2.15355,48.63931],[2.14624,48.63336],[2.13653,48.62278],[2.12227,48.61435],[2.06158,48.59971],[2.02162,48.58396],[1.9891,48.56778],[1.97785,48.5646],[1.94905,48.55938],[1.93433,48.55342],[1.92579,48.54745],[1.91979,48.54096],[1.90513,48.50912],[1.89917,48.50024],[1.88955,48.49176],[1.87466,48.48397]],[[2.07561,48.79877],[2.07191,48.79881],[2.0635,48.79731],[2.05924,48.79791],[2.04758,48.80563],[2.03168,48.80899],[1.99614,48.82208],[1.98324,48.82989],[1.92476,48.83348]],[[2.02505,49.0758],[2.02216,49.0764],[2.0061,49.07977],[2.00396,49.08039],[1.97372,49.09406],[1.96527,49.11032],[1.95123,49.11988],[1.94646,49.12971],[1.93952,49.13751],[1.93887,49.14765],[1.94013,49.15243],[1.93668,49.15769],[1.93705,49.16372],[1.93593,49.1681],[1.93209,49.17404]],[[2.03396,48.78256],[1.99683,48.77205],[1.9675,48.76129]],[[2.09357,48.39966],[2.08337,48.3903],[2.06324,48.37758],[2.01913,48.33599],[1.98881,48.28665]],[[2.07949,49.0365],[2.07474,49.03984],[2.07269,49.04153],[2.06952,49.04501],[2.0642,49.04687],[2.01899,49.05105],[2.01269,49.04892],[2.00809,49.04561],[2.00697,49.04341]],[[2.24097,48.58603],[2.23338,48.58615],[2.21788,48.58144],[2.19563,48.57902],[2.18311,48.57308],[2.17473,48.56632],[2.15913,48.55929],[2.11991,48.5498],[2.10991,48.5453],[2.07901,48.53992],[2.06537,48.53442],[2.03318,48.53106],[2.00986,48.53357]],[[2.02505,49.0758],[2.02504,49.0758]],[[2.09558,49.04673],[2.09337,49.04716],[2.08978,49.04801],[2.08827,49.04847],[2.08233,49.05207],[2.07537,49.05433],[2.06763,49.06022],[2.0406,49.06672],[2.03149,49.07382],[2.02505,49.0758]],[[2.02505,49.0758],[2.02505,49.0758]],[[2.07273,48.79861],[2.06362,48.79669],[2.0368,48.78368],[2.03396,48.78256]],[[2.05467,48.8002],[2.05762,48.79672],[2.05634,48.79343],[2.03396,48.78256]],[[2.05358,48.87047],[2.06762,48.87152],[2.0792,48.88102],[2.07909,48.88462],[2.0699,48.89316],[2.07292,48.90359]],[[2.05358,48.87047],[2.05367,48.87053]],[[2.0621,48.84133],[2.05776,48.84394],[2.0479,48.85573],[2.04787,48.85799],[2.05126,48.86258],[2.05101,48.86834],[2.05202,48.86956],[2.05351,48.87045],[2.05358,48.87047]],[[2.20998,48.84049],[2.19171,48.83969],[2.18067,48.83618],[2.15822,48.83406],[2.14232,48.83976],[2.13264,48.84669],[2.13117,48.84944],[2.13228,48.8549],[2.13081,48.85942],[2.11448,48.86463],[2.11195,48.869],[2.10915,48.8708],[2.08466,48.87228],[2.07622,48.86768],[2.07268,48.86388],[2.06612,48.86281],[2.05836,48.86572],[2.05255,48.86624],[2.05123,48.86832],[2.05358,48.87047]],[[2.07679,48.94906],[2.07208,48.94703]],[[2.07208,48.94703],[2.07774,48.9497]],[[2.07292,48.90359],[2.07314,48.90882],[2.07173,48.91159],[2.04936,48.91928],[2.04695,48.92298],[2.04773,48.92517],[2.05724,48.92997],[2.06937,48.94001],[2.07208,48.94703]],[[2.0728,48.79862],[2.07276,48.79861]],[[2.1123,48.79381],[2.10547,48.79563],[2.08818,48.79473],[2.07906,48.79786],[2.07619,48.79845],[2.0744,48.79861],[2.07326,48.79863],[2.0728,48.79862]],[[2.09389,48.79507],[2.09022,48.79545],[2.07676,48.79861],[2.0743,48.79877],[2.0728,48.79862]],[[2.07292,48.90359],[2.07292,48.90364]],[[2.07362,49.00315],[2.07495,49.00709],[2.07862,49.01071]],[[2.08759,48.99372],[2.07371,48.99188]],[[2.07371,48.99188],[2.07324,49.00075],[2.074,49.00563],[2.07576,49.00846],[2.07862,49.01071]],[[2.08169,48.9588],[2.07785,48.96649],[2.07792,48.98103],[2.07371,48.99188]],[[2.08533,48.95278],[2.08309,48.95074],[2.07679,48.94906]],[[2.07964,48.95028],[2.07679,48.94906]],[[2.07862,49.01071],[2.08892,49.01654],[2.09926,49.02615],[2.10478,49.04253],[2.1021,49.04552]],[[2.07862,49.01071],[2.0792,49.01661],[2.08841,49.02229],[2.09132,49.02767],[2.09011,49.0303],[2.07949,49.0365]],[[2.07949,49.0365],[2.07928,49.03664]],[[2.07949,49.03649],[2.07949,49.0365]],[[2.08533,48.95278],[2.07964,48.95028]],[[2.08217,48.95189],[2.07964,48.95028]],[[2.10197,48.79599],[2.09028,48.79551],[2.0775,48.8017],[2.07845,48.81439],[2.08051,48.81881]],[[2.08169,48.95881],[2.08169,48.9588]],[[2.08169,48.9588],[2.08332,48.95513],[2.08242,48.95221]],[[2.08208,48.95828],[2.08169,48.9588]],[[2.08208,48.95828],[2.08207,48.95829]],[[2.08245,48.95757],[2.08208,48.95828]],[[2.12569,48.95724],[2.1221,48.95872],[2.11807,48.95959],[2.11039,48.9604],[2.10107,48.95946],[2.08854,48.95534],[2.08519,48.95591],[2.08208,48.95828]],[[2.08242,48.95221],[2.0823,48.952],[2.08217,48.95189]],[[2.08242,48.95221],[2.08217,48.95189]],[[2.08537,48.95519],[2.08242,48.95221]],[[2.08329,48.95592],[2.08245,48.95757]],[[2.08245,48.95757],[2.08537,48.95519]],[[2.12569,48.95724],[2.11063,48.95931],[2.08533,48.95278]],[[2.08555,48.95325],[2.08533,48.95278]],[[2.08757,48.95541],[2.08537,48.95519]],[[2.08537,48.95519],[2.08555,48.95325]],[[2.09103,48.95562],[2.08555,48.95325]],[[2.08655,48.99329],[2.08759,48.99372]],[[2.09486,48.9958],[2.08759,48.99372]],[[2.08759,48.99372],[2.08902,48.99527],[2.08873,48.99746]],[[2.09486,48.9958],[2.09185,48.9955],[2.08888,48.99744],[2.08553,49.0126],[2.08836,49.01618]],[[2.14545,48.431],[2.13479,48.42561],[2.12943,48.41706],[2.12537,48.41381],[2.11169,48.40811],[2.10173,48.40551],[2.09357,48.39966]],[[2.10351,48.7961],[2.09383,48.79532]],[[2.22873,48.94994],[2.22227,48.95046],[2.21773,48.95231],[2.20454,48.96314],[2.18839,48.97117],[2.17745,48.98229],[2.15679,48.99262],[2.11508,48.99972],[2.10702,48.99914],[2.09486,48.9958]],[[2.09558,49.04673],[2.09543,49.04676]],[[2.10836,49.04551],[2.09558,49.04673]],[[2.09564,49.04672],[2.09558,49.04673]],[[2.09837,49.02517],[2.10524,49.02983],[2.12238,49.03368],[2.12463,49.03586],[2.1244,49.03796]],[[2.10351,48.7961],[2.10208,48.796]],[[2.1123,48.79381],[2.10803,48.79566],[2.10534,48.79605],[2.10454,48.79611],[2.10351,48.7961]],[[2.11283,48.79366],[2.10799,48.79577],[2.10533,48.79615],[2.10351,48.7961]],[[2.12374,49.03901],[2.11708,49.04435],[2.11229,49.04549],[2.11078,49.04557],[2.10836,49.04551]],[[2.10836,49.04551],[2.11817,49.05],[2.12194,49.05414]],[[2.12895,48.79278],[2.12851,48.79259],[2.12714,48.79224],[2.12613,48.7921],[2.12484,48.79203],[2.12272,48.79206],[2.11495,48.79268],[2.1123,48.79381]],[[2.11283,48.79366],[2.1123,48.79381]],[[2.12895,48.79278],[2.12286,48.79215],[2.11283,48.79366]],[[2.12194,49.05414],[2.12305,49.05534]],[[2.12374,49.03901],[2.12029,49.04911],[2.12194,49.05414]],[[2.12306,49.05535],[2.14053,49.0688],[2.16743,49.06875],[2.19122,49.07548],[2.19525,49.07823],[2.20098,49.08928]],[[2.1244,49.03796],[2.12374,49.03901]],[[2.19794,49.00733],[2.14676,49.02165],[2.13589,49.02726],[2.1244,49.03796]],[[2.1318,48.95412],[2.12569,48.95724]],[[2.1318,48.95412],[2.12842,48.9561],[2.12569,48.95724]],[[2.13038,48.79337],[2.12939,48.79293],[2.12895,48.79278]],[[2.13038,48.79337],[2.12895,48.79278]],[[2.15612,48.79736],[2.15425,48.79696],[2.15142,48.79652],[2.14566,48.79627],[2.129,48.80026]],[[2.13706,48.7954],[2.13038,48.79337]],[[2.17874,48.80074],[2.16796,48.80032],[2.16018,48.79803],[2.15801,48.79751],[2.15335,48.79658],[2.15188,48.79635],[2.13568,48.79545],[2.13038,48.79337]],[[2.14451,48.94573],[2.14204,48.94735],[2.13676,48.95085],[2.13284,48.9535],[2.1318,48.95412]],[[2.1318,48.95412],[2.1318,48.95412]],[[2.15092,48.80661],[2.14521,48.80881],[2.1355,48.80962]],[[2.23128,48.7382],[2.2291,48.74423],[2.21617,48.75103],[2.19923,48.75566],[2.19188,48.7593],[2.18139,48.76234],[2.15943,48.76493],[2.14878,48.76753],[2.14715,48.7692],[2.14708,48.77194],[2.15528,48.77975],[2.15574,48.78213],[2.15167,48.78674],[2.15217,48.79206],[2.15053,48.79422],[2.1465,48.79573],[2.13936,48.7956]],[[2.14451,48.94573],[2.14446,48.94577]],[[2.15671,48.93781],[2.14451,48.94573]],[[2.14451,48.94573],[2.14451,48.94573]],[[2.15651,48.43555],[2.15241,48.43335],[2.14545,48.431]],[[2.15651,48.43555],[2.14545,48.431]],[[2.14545,48.431],[2.14456,48.42886],[2.14584,48.42389]],[[2.17594,48.80562],[2.1573,48.80534],[2.15092,48.80661]],[[2.25394,48.71492],[2.2474,48.69735],[2.239,48.68857],[2.23204,48.68419],[2.19683,48.66808],[2.17803,48.65354],[2.15356,48.63932]],[[2.15612,48.79736],[2.15607,48.79735]],[[2.158,48.79776],[2.15612,48.79736]],[[2.15614,48.79737],[2.15612,48.79736]],[[2.29782,48.5984],[2.29162,48.5865],[2.29017,48.58026],[2.29342,48.53961],[2.29198,48.53481],[2.28471,48.52945],[2.26756,48.52755],[2.2511,48.51909],[2.23429,48.51555],[2.22178,48.51626],[2.21518,48.51402],[2.19352,48.49215],[2.19111,48.48633],[2.19038,48.47814],[2.18861,48.47532],[2.16959,48.45753],[2.16794,48.45286],[2.16926,48.44565],[2.16785,48.44139],[2.15651,48.43555]],[[2.15671,48.93781],[2.16093,48.93434],[2.16427,48.93307]],[[2.15678,48.93776],[2.15671,48.93781]],[[2.16427,48.93307],[2.15679,48.93775]],[[2.158,48.79776],[2.15716,48.79734]],[[2.17874,48.80074],[2.16931,48.80063],[2.16579,48.80001],[2.158,48.79776]],[[2.17594,48.80562],[2.17078,48.80439],[2.16379,48.79958],[2.158,48.79776]],[[2.16611,48.93193],[2.16427,48.93307]],[[2.16427,48.93307],[2.1703,48.93291],[2.22923,48.94951]],[[2.18648,48.91989],[2.17913,48.92334],[2.16611,48.93193]],[[2.18648,48.91989],[2.16611,48.93193]],[[2.18246,48.80731],[2.1799,48.80627],[2.17594,48.80562]],[[2.18246,48.80731],[2.17594,48.80562]],[[2.24698,48.81352],[2.22492,48.82044],[2.21233,48.82082],[2.19974,48.81692],[2.18929,48.80494],[2.18442,48.80208],[2.17874,48.80074]],[[2.24698,48.81352],[2.23843,48.80462],[2.23402,48.80237],[2.19156,48.79866],[2.17874,48.80074]],[[2.2007,48.82699],[2.20011,48.82356],[2.19873,48.8211],[2.19139,48.81618],[2.18246,48.80731]],[[2.19075,48.91779],[2.18648,48.91989]],[[2.19075,48.91779],[2.18759,48.91935],[2.18648,48.91989]],[[2.19301,48.91667],[2.19075,48.91779]],[[2.2343,48.90804],[2.22496,48.90639],[2.21487,48.90723],[2.19075,48.91779]],[[2.2113,48.9003],[2.19773,48.9048],[2.19587,48.90773],[2.19568,48.91426],[2.19292,48.91663]],[[2.25819,48.98474],[2.19794,49.00733]],[[2.2007,48.82699],[2.2007,48.82696]],[[2.20998,48.84049],[2.20288,48.83638],[2.2007,48.82699]],[[2.20098,49.08928],[2.20731,49.10288],[2.21103,49.12101],[2.21403,49.12501],[2.22223,49.12912],[2.2708,49.14537]],[[2.26352,48.98959],[2.26218,48.99304],[2.24555,49.01326],[2.24092,49.01654],[2.21879,49.02667],[2.20877,49.03687],[2.19847,49.04256],[2.19589,49.05033],[2.19046,49.0548],[2.19045,49.05682],[2.19705,49.06892],[2.20097,49.07206],[2.20729,49.08045],[2.2066,49.08301],[2.20122,49.08686],[2.20098,49.08928]],[[2.2113,48.9003],[2.2034,48.89774]],[[2.24107,48.89504],[2.23682,48.89172],[2.23432,48.88407],[2.22064,48.87096],[2.21659,48.85968],[2.21743,48.84545],[2.21523,48.84278],[2.20998,48.84049]],[[2.21383,48.90102],[2.2113,48.9003]],[[2.21974,48.90302],[2.2113,48.9003]],[[2.21974,48.90302],[2.21807,48.9057]],[[2.22008,48.90314],[2.21974,48.90302]],[[2.21984,48.9024],[2.21974,48.90302]],[[2.22008,48.90314],[2.21984,48.9024]],[[2.21984,48.9024],[2.22028,48.89999],[2.22274,48.89798],[2.23407,48.89587]],[[2.25367,48.91346],[2.22008,48.90314]],[[2.2343,48.90804],[2.22331,48.90565],[2.22008,48.90314]],[[2.22873,48.94994],[2.23212,48.95035]],[[2.23689,48.95231],[2.22873,48.94994]],[[2.22923,48.94951],[2.23232,48.95019]],[[2.23212,48.95035],[2.22923,48.94951]],[[2.26835,48.73119],[2.26162,48.72879],[2.25552,48.72384],[2.25114,48.72345],[2.24831,48.72532],[2.2464,48.7295],[2.23517,48.73286],[2.23236,48.73517],[2.2313,48.73804]],[[2.23157,48.95003],[2.23232,48.95019]],[[2.23212,48.95035],[2.23508,48.9508]],[[2.23689,48.95231],[2.23212,48.95035]],[[2.23232,48.95019],[2.23508,48.9508]],[[2.23232,48.95019],[2.23262,48.95026]],[[2.23407,48.89587],[2.23407,48.89587]],[[2.23424,48.89575],[2.23407,48.89587]],[[2.23407,48.89587],[2.23414,48.89583],[2.23424,48.89575]],[[2.23424,48.89575],[2.23596,48.89412],[2.23608,48.89039]],[[2.24107,48.89504],[2.23733,48.89445],[2.23424,48.89575]],[[2.27586,48.9103],[2.26772,48.91316],[2.25723,48.91396],[2.25352,48.91362],[2.24903,48.9126],[2.2343,48.90804]],[[2.2353,49.16692],[2.23478,49.16754]],[[2.23508,48.9508],[2.2473,48.95324],[2.25494,48.95159]],[[2.24271,48.95478],[2.23689,48.95231]],[[2.29782,48.5984],[2.29336,48.5966],[2.27541,48.59528],[2.24993,48.58585],[2.241,48.58603]],[[2.25993,48.90229],[2.24107,48.89504]],[[2.25494,48.95159],[2.25378,48.95401],[2.25084,48.95561],[2.24272,48.95479]],[[2.26306,48.8292],[2.26253,48.82345],[2.26101,48.82099],[2.25005,48.817],[2.24698,48.81352]],[[2.29189,48.8182],[2.27991,48.81461],[2.25499,48.81253],[2.24698,48.81352]],[[2.25367,48.91346],[2.25366,48.91346]],[[2.25787,48.91359],[2.25367,48.91346]],[[2.26835,48.73119],[2.25654,48.72175],[2.25399,48.71507]],[[2.26228,48.9408],[2.25616,48.9488],[2.25514,48.95047],[2.25494,48.95159]],[[2.25494,48.95159],[2.25504,48.95151]],[[2.25504,48.95151],[2.25554,48.95402],[2.26384,48.96696],[2.26357,48.97748],[2.26587,48.97938],[2.27095,48.98048]],[[2.26228,48.9408],[2.25504,48.95151]],[[2.25504,48.95151],[2.25822,48.94881]],[[2.25861,48.91344],[2.25787,48.91359]],[[2.25861,48.91344],[2.25859,48.91345],[2.25787,48.91359]],[[2.25824,48.9488],[2.26663,48.94759],[2.27863,48.95089],[2.29859,48.95292],[2.30072,48.95345],[2.30235,48.95433]],[[2.2752,48.98056],[2.27072,48.98077],[2.26815,48.98124],[2.25829,48.9847]],[[2.28092,48.90633],[2.27907,48.90674],[2.27603,48.90686],[2.26738,48.90572],[2.26463,48.90716],[2.26246,48.91145],[2.25861,48.91344]],[[2.26109,48.91254],[2.25861,48.91344]],[[2.28092,48.90633],[2.27324,48.90638],[2.26038,48.90243]],[[2.26265,48.93988],[2.26228,48.9408]],[[2.26265,48.93988],[2.26265,48.9399],[2.26228,48.9408]],[[2.26299,48.93806],[2.26265,48.93988]],[[2.26299,48.93806],[2.26295,48.93883],[2.26265,48.93988]],[[2.263,48.93749],[2.26299,48.93806]],[[2.263,48.93749],[2.263,48.93794],[2.26299,48.93806]],[[2.263,48.93727],[2.263,48.93749]],[[2.263,48.93727],[2.26301,48.93729],[2.263,48.93749]],[[2.27852,48.90899],[2.26134,48.92147],[2.25929,48.92381],[2.25889,48.9257],[2.25905,48.92747],[2.263,48.93727]],[[2.27204,48.91401],[2.2595,48.92388],[2.25924,48.92734],[2.263,48.93727]],[[2.28766,48.85383],[2.27649,48.84587],[2.26308,48.82923]],[[2.27782,48.98056],[2.26667,48.98215],[2.26352,48.98958]],[[2.27154,48.73408],[2.26362,48.72982]],[[2.26854,48.73118],[2.26704,48.73009]],[[2.30281,48.94346],[2.29925,48.94473],[2.29152,48.9408],[2.27079,48.93669],[2.26787,48.93792],[2.2682,48.9425],[2.26704,48.94338]],[[2.27154,48.73408],[2.26835,48.73119]],[[2.26854,48.73118],[2.26835,48.73119]],[[2.28772,48.73914],[2.28432,48.73762],[2.27195,48.73388],[2.26854,48.73118]],[[2.34719,48.67201],[2.34181,48.67042],[2.33807,48.67106],[2.33365,48.67621],[2.31982,48.68329],[2.31625,48.68848],[2.31522,48.69591],[2.31127,48.69936],[2.30597,48.70124],[2.29209,48.70277],[2.28127,48.70759],[2.27519,48.71452],[2.27272,48.72293],[2.27244,48.72902],[2.26854,48.73118]],[[2.2708,49.14537],[2.28107,49.14878]],[[2.2708,49.14537],[2.27948,49.14852],[2.28107,49.14878]],[[2.32774,49.06847],[2.33138,49.07187],[2.33229,49.07483],[2.3305,49.07728],[2.32434,49.08099],[2.32452,49.08608],[2.32328,49.08837],[2.31816,49.09105],[2.31443,49.09557],[2.30776,49.09774],[2.30339,49.10152],[2.2881,49.10739],[2.28737,49.11007],[2.28914,49.12266],[2.28482,49.13048],[2.27301,49.13573],[2.2684,49.14026],[2.26785,49.14304],[2.2708,49.14537]],[[2.28107,49.14878],[2.28463,49.15106],[2.28408,49.15425],[2.27108,49.15723]],[[2.28772,48.73914],[2.27154,48.73408]],[[2.29945,48.80098],[2.2994,48.80093],[2.29476,48.79584],[2.29315,48.79413],[2.28707,48.78232],[2.28483,48.7578],[2.28232,48.75165],[2.27154,48.73408]],[[2.27204,48.91401],[2.27201,48.91403]],[[2.29239,48.90087],[2.27204,48.91401]],[[2.27207,48.91399],[2.27204,48.91401]],[[2.27981,48.97937],[2.2752,48.98056]],[[2.27782,48.98056],[2.2752,48.98056]],[[2.27586,48.9103],[2.27585,48.91031]],[[2.27852,48.90899],[2.27586,48.9103]],[[2.2759,48.91028],[2.27586,48.9103]],[[2.28005,48.98064],[2.27782,48.98056]],[[2.30791,48.89156],[2.28474,48.90507],[2.27852,48.90899]],[[2.29213,48.9009],[2.27852,48.90899]],[[2.27981,48.97937],[2.27979,48.97938]],[[2.28515,48.96388],[2.28173,48.96498],[2.28046,48.96562],[2.27858,48.96782],[2.27875,48.97028],[2.28242,48.97583],[2.27981,48.97937]],[[2.27985,48.97935],[2.27981,48.97937]],[[2.28005,48.98064],[2.28004,48.98064]],[[2.32389,48.96137],[2.30066,48.97674],[2.29269,48.97953],[2.28581,48.98052],[2.28344,48.98065],[2.28005,48.98064]],[[2.28008,48.98064],[2.28005,48.98064]],[[2.30748,48.89136],[2.28092,48.90633]],[[2.30777,48.8915],[2.28092,48.90633]],[[2.28107,49.14878],[2.29429,49.1529],[2.35077,49.15729]],[[2.28515,48.96388],[2.28514,48.96389]],[[2.30228,48.95461],[2.30128,48.95688],[2.29731,48.95993],[2.28515,48.96388]],[[2.28766,48.85383],[2.29018,48.85708],[2.2973,48.86177],[2.31569,48.86306]],[[2.28766,48.85383],[2.28296,48.8523],[2.27568,48.85588],[2.2725,48.86267],[2.27231,48.86586],[2.27788,48.87423],[2.2964,48.88452]],[[2.40281,48.74191],[2.39762,48.74609],[2.39283,48.75139],[2.38693,48.75301],[2.35567,48.74122],[2.34907,48.73971],[2.33833,48.73896],[2.31305,48.74792],[2.28772,48.73914]],[[2.28772,48.73914],[2.28772,48.73914]],[[2.29561,48.82064],[2.29189,48.8182]],[[2.29189,48.81821],[2.29189,48.8182]],[[2.30805,48.89163],[2.29219,48.90086]],[[2.30844,48.89182],[2.29242,48.90085]],[[2.30515,48.82827],[2.29539,48.82015]],[[2.29561,48.82064],[2.29539,48.82015]],[[2.29539,48.82015],[2.29499,48.81968],[2.29479,48.81823],[2.29543,48.81644],[2.30005,48.81208]],[[2.29539,48.82015],[2.29544,48.81677],[2.30099,48.81121]],[[2.3055,48.82889],[2.29561,48.82064]],[[2.3116,48.83393],[2.29745,48.82271],[2.29561,48.82064]],[[2.29562,48.88403],[2.2964,48.88452]],[[2.30099,48.81121],[2.30267,48.8079],[2.30225,48.80508],[2.29629,48.79752]],[[2.2964,48.88452],[2.2964,48.88452]],[[2.2964,48.88452],[2.2964,48.88452],[2.2964,48.88452]],[[2.2964,48.88452],[2.30087,48.88651]],[[2.2964,48.88452],[2.30748,48.89136]],[[2.30112,48.60465],[2.29867,48.59939],[2.29782,48.5984]],[[2.30112,48.60465],[2.29782,48.5984]],[[2.29922,48.95313],[2.30228,48.95461]],[[2.30099,48.81121],[2.30275,48.80849],[2.30282,48.80627],[2.30214,48.80442],[2.29946,48.80099]],[[2.30008,48.81206],[2.30099,48.81121]],[[2.30638,48.63857],[2.30879,48.62052],[2.30112,48.60465]],[[2.30228,48.95461],[2.30498,48.95674]],[[2.30235,48.95433],[2.30228,48.95461]],[[2.30235,48.95433],[2.3073,48.95781],[2.3274,48.95883]],[[2.30281,48.94346],[2.30129,48.94904],[2.30235,48.95433]],[[2.31901,48.91206],[2.30281,48.94346]],[[2.30498,48.95674],[2.30668,48.95769],[2.30804,48.95799],[2.32732,48.95889]],[[2.30498,48.95674],[2.305,48.95675]],[[2.31127,48.83349],[2.30523,48.82834]],[[2.31175,48.83392],[2.30565,48.82902]],[[2.34719,48.67201],[2.34302,48.67044],[2.3313,48.66919],[2.32396,48.6656],[2.31835,48.65667],[2.30666,48.64779],[2.3057,48.64488],[2.30638,48.63857]],[[2.30748,48.89136],[2.30777,48.8915]],[[2.31406,48.88752],[2.30748,48.89136]],[[2.30777,48.8915],[2.30791,48.89156]],[[2.31297,48.8884],[2.31261,48.8886],[2.30777,48.8915]],[[2.30791,48.89156],[2.30805,48.89163]],[[2.32261,48.88005],[2.3208,48.88217],[2.31708,48.88592],[2.31637,48.8865],[2.30791,48.89156]],[[2.30805,48.89163],[2.30844,48.89182]],[[2.30836,48.89145],[2.30805,48.89163]],[[2.32193,48.88112],[2.31657,48.88645],[2.30839,48.89143]],[[2.30844,48.89182],[2.32388,48.89702],[2.32193,48.90716],[2.31901,48.91206]],[[2.32211,48.88113],[2.31667,48.88646],[2.30844,48.89182]],[[2.30916,48.89178],[2.31378,48.89219],[2.32184,48.89582],[2.3545,48.89804]],[[2.31196,48.83409],[2.31163,48.83379]],[[2.31316,48.83506],[2.31163,48.83395]],[[2.31196,48.83409],[2.31202,48.83413]],[[2.31316,48.83506],[2.31196,48.83409]],[[2.31297,48.8884],[2.31294,48.88841]],[[2.32252,48.87998],[2.32129,48.88154],[2.31705,48.88584],[2.31547,48.88698],[2.31297,48.8884]],[[2.31306,48.88835],[2.31297,48.8884]],[[2.31982,48.84064],[2.31316,48.83506]],[[2.32244,48.87966],[2.31408,48.88751]],[[2.34696,48.853],[2.31701,48.86334]],[[2.32855,48.85993],[2.31701,48.86334]],[[2.32735,48.86029],[2.31701,48.86334]],[[2.35187,48.91093],[2.34584,48.91072],[2.33851,48.90804],[2.32623,48.90613],[2.32181,48.90863],[2.31901,48.91206]],[[2.3257,48.87685],[2.3244,48.878],[2.32195,48.88109]],[[2.3263,48.87694],[2.32212,48.88112]],[[2.324,48.87645],[2.32245,48.87966]],[[2.32252,48.87998],[2.32251,48.88]],[[2.32456,48.87653],[2.32252,48.87998]],[[2.32515,48.87665],[2.32262,48.88004]],[[2.32389,48.96137],[2.32451,48.96541],[2.32964,48.96789],[2.33775,48.97556]],[[2.3271,48.95906],[2.32389,48.96137]],[[2.3271,48.95906],[2.32606,48.95994],[2.32389,48.96137]],[[2.32732,48.95889],[2.3271,48.95906]],[[2.32732,48.95889],[2.3331,48.95962],[2.35395,48.96055],[2.35644,48.96057],[2.36671,48.96009]],[[2.3274,48.95883],[2.32732,48.95889]],[[2.3274,48.95883],[2.35426,48.96048],[2.3666,48.96001]],[[2.34469,48.9384],[2.3426,48.94286],[2.33655,48.9477],[2.3274,48.95883]],[[2.32774,49.06847],[2.35283,49.081],[2.35672,49.08676],[2.35834,49.09388],[2.36455,49.10324],[2.36316,49.11242],[2.37034,49.1179],[2.38133,49.11873],[2.3898,49.11735],[2.40071,49.11908],[2.41447,49.11562],[2.42237,49.11803]],[[2.33784,48.97561],[2.36433,48.99034],[2.36802,48.99431],[2.36909,48.99798],[2.36308,49.01357],[2.36466,49.01936],[2.36353,49.0223],[2.34909,49.03022],[2.32962,49.03449],[2.32633,49.03664],[2.32075,49.05112],[2.3205,49.06304],[2.32224,49.06589],[2.32774,49.06847]],[[2.32869,48.87501],[2.34016,48.875],[2.35422,48.877],[2.36354,48.88551],[2.36602,48.88948]],[[2.34464,48.93903],[2.34517,48.9442],[2.3503,48.94862]],[[2.34464,48.93903],[2.34423,48.94236],[2.34548,48.94504],[2.3503,48.94862]],[[2.34469,48.9384],[2.34464,48.93903]],[[2.35142,48.91189],[2.34469,48.9384]],[[2.40306,48.71233],[2.38127,48.68888],[2.35564,48.6786],[2.34719,48.67201]],[[2.34809,48.85979],[2.35006,48.85733],[2.35912,48.85411],[2.374,48.84414]],[[2.3503,48.94862],[2.35068,48.94876]],[[2.3503,48.94862],[2.3666,48.96001]],[[2.35142,48.91189],[2.35748,48.91536]],[[2.35187,48.91093],[2.35142,48.91189]],[[2.3545,48.89804],[2.35187,48.91093]],[[2.35362,48.90982],[2.35187,48.91093]],[[2.35204,48.48478],[2.35088,48.48104],[2.35349,48.47307],[2.35232,48.46041],[2.35511,48.45693],[2.36256,48.45333],[2.36493,48.45068],[2.36253,48.44131],[2.36513,48.439],[2.37386,48.43662],[2.37834,48.43318],[2.39979,48.40323],[2.39921,48.40051],[2.39039,48.38955],[2.39159,48.3791],[2.3874,48.37195],[2.38614,48.36698],[2.37977,48.36057],[2.37953,48.35689],[2.38179,48.35041],[2.37716,48.33736],[2.37168,48.32751],[2.37244,48.31857],[2.38323,48.31132]],[[2.47163,48.58069],[2.46878,48.57537],[2.46416,48.57285],[2.45672,48.57242],[2.44681,48.57501],[2.43993,48.57419],[2.41653,48.56472],[2.40712,48.55704],[2.39762,48.55165],[2.3877,48.55004],[2.38203,48.54729],[2.37648,48.54253],[2.37365,48.53511],[2.36516,48.52469],[2.36526,48.52187],[2.36925,48.51515],[2.37009,48.51024],[2.36722,48.49994],[2.36403,48.49536],[2.35204,48.48478]],[[2.35236,48.87698],[2.35443,48.87807],[2.35715,48.88352],[2.35708,48.88949]],[[2.41073,48.73934],[2.40633,48.74012],[2.40052,48.74388],[2.39309,48.75136],[2.38697,48.75319],[2.35294,48.74068]],[[2.35362,48.90982],[2.35387,48.9129],[2.36266,48.91808]],[[2.35367,48.90498],[2.35362,48.90982]],[[2.3537,48.90489],[2.35564,48.90105],[2.36128,48.89806]],[[2.35766,48.89814],[2.3545,48.89804]],[[2.35497,48.89571],[2.3545,48.89804]],[[2.35497,48.89571],[2.35541,48.89745],[2.35766,48.89814]],[[2.35695,48.88992],[2.35559,48.89325],[2.35497,48.89571]],[[2.35695,48.88992],[2.35497,48.89571]],[[2.35708,48.8895],[2.35695,48.88992]],[[2.36128,48.89806],[2.36086,48.89816],[2.35766,48.89814]],[[2.35893,48.87737],[2.36313,48.88467]],[[2.36128,48.89806],[2.36377,48.89724],[2.37217,48.8973]],[[2.37217,48.8973],[2.36128,48.89806]],[[2.36267,48.91808],[2.38188,48.92341],[2.4126,48.92851]],[[2.36316,48.88472],[2.36602,48.88948]],[[2.36602,48.88948],[2.36608,48.88955]],[[2.36602,48.88948],[2.36959,48.89427],[2.37564,48.89697]],[[2.3666,48.96001],[2.36671,48.96009]],[[2.3666,48.96001],[2.38007,48.95902]],[[2.36671,48.96009],[2.37518,48.9659]],[[2.36671,48.96009],[2.37948,48.95911]],[[2.36704,48.8405],[2.37974,48.82725]],[[2.37217,48.8973],[2.37556,48.89741]],[[2.37352,48.89717],[2.37217,48.8973]],[[2.37556,48.89741],[2.37352,48.89717]],[[2.37536,48.897],[2.37352,48.89717]],[[2.37575,48.9663],[2.37518,48.9659]],[[2.37518,48.9659],[2.40451,48.98648],[2.42693,49.00075]],[[2.37518,48.9659],[2.37368,48.96369],[2.37414,48.96143],[2.37948,48.95911]],[[2.38133,48.89769],[2.37556,48.89741]],[[2.37564,48.89697],[2.37567,48.89697]],[[2.37564,48.89697],[2.37538,48.897],[2.37567,48.89697]],[[2.40792,48.84087],[2.40975,48.84827],[2.4093,48.85101],[2.40376,48.85869],[2.3887,48.86949],[2.38434,48.89218],[2.38127,48.89539],[2.37564,48.89697]],[[2.37567,48.89697],[2.38133,48.89769]],[[2.37567,48.89697],[2.37695,48.89685]],[[2.37615,48.84405],[2.38993,48.83685]],[[2.37948,48.95911],[2.38007,48.95902]],[[2.37948,48.95911],[2.38125,48.95885],[2.38278,48.95843],[2.38802,48.95587],[2.39834,48.95307],[2.39979,48.95255],[2.40225,48.95134],[2.40365,48.95035],[2.41367,48.94163],[2.41877,48.93331]],[[2.37974,48.82725],[2.38009,48.82678]],[[2.37974,48.82725],[2.37974,48.82724]],[[2.38009,48.82678],[2.37985,48.82692]],[[2.38007,48.95902],[2.38922,48.95529],[2.40095,48.95197],[2.41235,48.9427]],[[2.38009,48.82678],[2.39922,48.80583],[2.40567,48.79489],[2.40936,48.7835],[2.41099,48.76646]],[[2.38429,48.82683],[2.38137,48.82641],[2.38009,48.82678]],[[2.38133,48.89769],[2.43034,48.89897],[2.44078,48.89642],[2.45186,48.89642]],[[2.38993,48.83685],[2.3917,48.83135],[2.38895,48.82907]],[[2.38993,48.83685],[2.38993,48.83685]],[[2.38993,48.83685],[2.39732,48.83137]],[[2.39342,48.67109],[2.39841,48.66751],[2.40007,48.66602]],[[2.39732,48.83137],[2.40079,48.82678],[2.41324,48.81977],[2.42408,48.80794],[2.42957,48.79744],[2.43623,48.7764],[2.43623,48.77296],[2.43376,48.76791],[2.43366,48.76279]],[[2.4435,48.72432],[2.4394,48.72045],[2.4091,48.70573],[2.39666,48.70315],[2.38291,48.68844],[2.38153,48.68358],[2.38313,48.67938],[2.38474,48.67771],[2.40007,48.66602]],[[2.40007,48.66602],[2.40076,48.66109],[2.39176,48.64669],[2.393,48.64318],[2.39894,48.63815],[2.40246,48.63662],[2.41441,48.63543],[2.4172,48.63332],[2.41969,48.62852],[2.4231,48.62665],[2.44646,48.62318],[2.45882,48.62328],[2.46845,48.62116],[2.47469,48.61682]],[[2.40007,48.66602],[2.43075,48.65164],[2.47469,48.61682]],[[2.41082,48.73919],[2.40646,48.73981],[2.40289,48.74185]],[[2.42021,48.74975],[2.42675,48.73899],[2.42629,48.73228],[2.41442,48.71961],[2.40306,48.71233]],[[2.42021,48.74975],[2.41686,48.74176],[2.41099,48.73723],[2.41225,48.73149],[2.41593,48.72506],[2.41596,48.72169],[2.40306,48.71233]],[[2.41073,48.73934],[2.40893,48.74364],[2.41095,48.74492],[2.41453,48.74443],[2.41518,48.74124],[2.41073,48.73934]],[[2.41082,48.73919],[2.41073,48.73934]],[[2.4187,48.74821],[2.41618,48.74125],[2.41082,48.73919]],[[2.4111,48.73751],[2.41082,48.73919]],[[2.41099,48.76646],[2.41141,48.76297],[2.41911,48.75095],[2.41873,48.74825]],[[2.41099,48.76646],[2.41287,48.76117],[2.42021,48.74975]],[[2.41235,48.9427],[2.41368,48.9407],[2.41312,48.93863],[2.40622,48.93353],[2.40538,48.93085],[2.40788,48.92846],[2.4126,48.92851]],[[2.41235,48.9427],[2.41384,48.94117],[2.41769,48.93405],[2.41835,48.93342],[2.42146,48.93175]],[[2.4126,48.92851],[2.42318,48.93022]],[[2.41877,48.93331],[2.42146,48.93175]],[[2.41877,48.93331],[2.41877,48.93331]],[[2.58315,48.32645],[2.57317,48.32462],[2.48218,48.28831],[2.46958,48.28653],[2.46013,48.28038],[2.44746,48.27558],[2.43419,48.27443],[2.42901,48.27547],[2.41958,48.27489]],[[2.43389,48.75538],[2.42753,48.75426],[2.42021,48.74975]],[[2.42146,48.93175],[2.42189,48.9315]],[[2.42146,48.93175],[2.42182,48.93156],[2.42189,48.9315]],[[2.42189,48.9315],[2.42318,48.93022]],[[2.42189,48.9315],[2.42189,48.9315]],[[2.42318,48.93022],[2.42803,48.93103]],[[2.42318,48.93022],[2.42518,48.92487]],[[2.42518,48.92492],[2.42518,48.92487]],[[2.42518,48.92487],[2.42604,48.92035],[2.43501,48.9002],[2.43722,48.89817]],[[2.43655,48.71917],[2.42521,48.71372]],[[2.42693,49.00075],[2.45063,49.0121],[2.46845,49.01648]],[[2.42693,49.00075],[2.49189,49.04196],[2.51945,49.06233],[2.5224,49.06701],[2.52455,49.08936]],[[2.42803,48.93103],[2.44033,48.93273],[2.46524,48.93236]],[[2.42803,48.93103],[2.42803,48.93103]],[[2.42803,48.93103],[2.42484,48.92851],[2.42883,48.91563],[2.43351,48.90674],[2.43738,48.90468],[2.44515,48.90347],[2.46393,48.90485],[2.46646,48.9034],[2.47168,48.89586]],[[2.43366,48.76279],[2.43366,48.76279]],[[2.43366,48.76279],[2.43389,48.75538]],[[2.43835,48.75583],[2.43456,48.75732],[2.43366,48.76279]],[[2.43835,48.75583],[2.43389,48.75538]],[[2.43389,48.75538],[2.43426,48.75226],[2.43894,48.74451],[2.44543,48.73804],[2.44629,48.73257]],[[2.43627,48.77462],[2.44236,48.76896],[2.46174,48.76428],[2.46783,48.76018]],[[2.43722,48.89817],[2.44208,48.89687],[2.45061,48.89805],[2.46641,48.89717],[2.4717,48.89523]],[[2.46783,48.76018],[2.43835,48.75583]],[[2.445,48.72692],[2.445,48.72692]],[[2.44629,48.73257],[2.44637,48.7299],[2.445,48.72692]],[[2.445,48.72692],[2.4433,48.723],[2.44499,48.7186],[2.44922,48.71474],[2.46103,48.70888],[2.47462,48.70561],[2.49308,48.70649],[2.50143,48.70363],[2.50551,48.70051]],[[2.44629,48.73257],[2.44629,48.73257]],[[2.46794,48.76006],[2.44381,48.75537],[2.44329,48.75302],[2.44587,48.74393],[2.44629,48.73257]],[[2.45186,48.89642],[2.46737,48.8955],[2.47405,48.89057]],[[2.45186,48.89642],[2.46112,48.89668],[2.4717,48.89523]],[[2.46436,48.89736],[2.4683,48.89715],[2.47168,48.89586]],[[2.46524,48.93236],[2.46524,48.93236]],[[2.46524,48.93236],[2.47759,48.93084],[2.47994,48.93212]],[[2.46524,48.93236],[2.47994,48.93212]],[[2.46622,48.75963],[2.46907,48.75778],[2.47022,48.75279],[2.47115,48.75078],[2.47152,48.75013],[2.47198,48.74945]],[[2.47236,48.76074],[2.46783,48.76018]],[[2.46783,48.76018],[2.46794,48.76006]],[[2.47236,48.76074],[2.46794,48.76006]],[[2.46794,48.76006],[2.46905,48.75843],[2.47198,48.74945]],[[2.46844,49.01648],[2.46845,49.01648]],[[2.46845,49.01648],[2.47623,49.01811],[2.47999,49.01896],[2.4857,49.02046],[2.496,49.02424],[2.52781,49.041],[2.54943,49.05068]],[[2.46845,49.01648],[2.46845,49.01648]],[[2.46851,48.60951],[2.45968,48.6032],[2.4598,48.59521],[2.46658,48.58862],[2.46731,48.58288],[2.47163,48.58069]],[[2.46878,48.14833],[2.47005,48.1328],[2.47253,48.12837]],[[2.47377,48.61406],[2.46538,48.60679],[2.46372,48.60335],[2.4648,48.59981],[2.4731,48.58917],[2.47343,48.58522],[2.47163,48.58069]],[[2.47163,48.58069],[2.47728,48.57852],[2.47987,48.57327],[2.48484,48.56894],[2.49356,48.5659],[2.50086,48.56566],[2.52626,48.57113],[2.53992,48.56857],[2.54258,48.56556],[2.54219,48.56249],[2.52913,48.55203],[2.5282,48.546],[2.53327,48.53994],[2.54506,48.535]],[[2.47168,48.89586],[2.47216,48.89516]],[[2.47168,48.89586],[2.47654,48.89452]],[[2.4717,48.89523],[2.47233,48.89455]],[[2.4717,48.89523],[2.47216,48.89516]],[[2.47198,48.74945],[2.47988,48.7407],[2.48705,48.73604],[2.51153,48.73313],[2.53095,48.72621],[2.54526,48.72556],[2.55099,48.72307],[2.56463,48.71204],[2.57717,48.70712],[2.59009,48.70521],[2.65964,48.70405],[2.67974,48.70209]],[[2.47216,48.89516],[2.47342,48.89333]],[[2.47216,48.89516],[2.47654,48.89452]],[[2.47233,48.89455],[2.47343,48.89295]],[[2.47233,48.89455],[2.47342,48.89333]],[[2.50168,48.76513],[2.47236,48.76074]],[[2.47342,48.89333],[2.47509,48.89111]],[[2.47342,48.89333],[2.47342,48.89333]],[[2.47343,48.89295],[2.47349,48.8928]],[[2.47343,48.89295],[2.47509,48.89111]],[[2.47349,48.8928],[2.47405,48.89057]],[[2.47469,48.61682],[2.47377,48.61406]],[[2.47405,48.89057],[2.47832,48.88589]],[[2.47405,48.89057],[2.48587,48.87659],[2.48553,48.86488],[2.49481,48.83554],[2.49906,48.82909]],[[2.47469,48.61682],[2.47469,48.61682]],[[2.47509,48.89111],[2.48155,48.8871],[2.50775,48.88281],[2.51401,48.87884],[2.52445,48.87501]],[[2.47994,48.93212],[2.47884,48.93938],[2.47252,48.95077],[2.47208,48.95434],[2.47411,48.9575],[2.47553,48.96385]],[[2.47654,48.89452],[2.47729,48.8944]],[[2.47726,48.8944],[2.47729,48.8944]],[[2.47729,48.8944],[2.47781,48.8943],[2.48081,48.89384],[2.49238,48.89227]],[[2.47729,48.8944],[2.47733,48.89439]],[[2.47994,48.93212],[2.48169,48.9321],[2.48679,48.93222],[2.49038,48.93221]],[[2.48083,48.89359],[2.49238,48.89227]],[[2.49038,48.93221],[2.49386,48.93221]],[[2.49038,48.93221],[2.51471,48.93268],[2.5202,48.93578],[2.52451,48.94341],[2.52419,48.94974],[2.51493,48.95944],[2.51086,48.96645],[2.51149,48.96923],[2.52113,48.98371],[2.51856,48.99602],[2.52616,49.00407],[2.52911,49.00564],[2.54928,49.0066],[2.55595,49.00882]],[[2.49238,48.89227],[2.50243,48.89344],[2.5165,48.90725],[2.51719,48.90925],[2.51477,48.91912],[2.5192,48.92616],[2.51699,48.9297],[2.51295,48.93163]],[[2.49238,48.89227],[2.51183,48.88938],[2.5268,48.8833]],[[2.49384,48.93221],[2.49386,48.93221]],[[2.49386,48.93221],[2.51566,48.93186],[2.52203,48.93257],[2.61118,48.95509],[2.62464,48.96368]],[[2.49386,48.93221],[2.49388,48.93221]],[[2.51289,48.93164],[2.49626,48.93195]],[[2.49906,48.82909],[2.50692,48.82238],[2.50675,48.81983],[2.50249,48.81457],[2.50271,48.81142],[2.50583,48.80827],[2.51349,48.80542],[2.51618,48.80131],[2.51586,48.79871],[2.50751,48.78566],[2.50754,48.76841],[2.50562,48.7664],[2.50405,48.76571],[2.50168,48.76513]],[[2.49906,48.82909],[2.50539,48.8257],[2.51612,48.8244]],[[2.50749,48.7706],[2.5058,48.76694],[2.50168,48.76513]],[[2.50551,48.70051],[2.51986,48.68662],[2.53873,48.67787],[2.54815,48.66722]],[[2.50712,48.78161],[2.50748,48.77079]],[[2.51612,48.8244],[2.51735,48.81906],[2.52517,48.80517],[2.52597,48.79513],[2.52528,48.79187],[2.52236,48.78788],[2.50903,48.78018],[2.50778,48.77157]],[[2.52455,49.08936],[2.52291,49.07799],[2.51465,49.07707]],[[2.51611,48.8245],[2.51613,48.8244]],[[2.52662,48.87031],[2.52224,48.86361],[2.52105,48.8574],[2.52676,48.84249],[2.52285,48.83407],[2.51645,48.82704],[2.51601,48.82563],[2.51609,48.82459],[2.51612,48.8244]],[[2.51612,48.8244],[2.51613,48.8244]],[[2.51613,48.8244],[2.51854,48.82201],[2.52295,48.82218]],[[2.51613,48.8244],[2.53594,48.82261],[2.54263,48.82312]],[[2.52293,48.82218],[2.52295,48.82218]],[[2.52295,48.82218],[2.53897,48.82263]],[[2.52295,48.82218],[2.52297,48.82219]],[[2.52498,49.09425],[2.52352,49.09555],[2.5211,49.09535],[2.51447,49.09244],[2.51514,49.09107],[2.52117,49.09],[2.52267,49.0907],[2.52301,49.09264]],[[2.52445,48.87501],[2.52654,48.87245],[2.52662,48.87031]],[[2.52445,48.87501],[2.52761,48.87353],[2.53046,48.87382]],[[2.52466,49.09026],[2.52455,49.08936]],[[2.52455,49.08936],[2.52572,49.10091]],[[2.52651,48.86998],[2.52662,48.87031]],[[2.52662,48.87031],[2.5275,48.87224],[2.53046,48.87382]],[[2.52683,48.88329],[2.53907,48.87882]],[[2.53046,48.87382],[2.53552,48.87837],[2.53907,48.87882]],[[2.53907,48.87882],[2.5434,48.87808],[2.55504,48.8769]],[[2.53907,48.87882],[2.54439,48.87814]],[[2.54262,48.82312],[2.54263,48.82312]],[[2.54263,48.82312],[2.54348,48.82331],[2.54531,48.82379],[2.55524,48.82765],[2.55872,48.82854],[2.56787,48.82836],[2.60177,48.81216]],[[2.54263,48.82312],[2.54264,48.82313]],[[2.54432,48.87815],[2.54439,48.87814]],[[2.54439,48.87814],[2.54974,48.87749]],[[2.54439,48.87814],[2.54455,48.87813]],[[2.54506,48.535],[2.5464,48.53464],[2.54741,48.53445],[2.56376,48.53223],[2.57127,48.53007],[2.57865,48.52667],[2.59181,48.51696],[2.59794,48.51524],[2.61461,48.51672],[2.62744,48.5217],[2.63875,48.52373],[2.64683,48.52779],[2.65149,48.52827]],[[2.54506,48.535],[2.54508,48.53499]],[[2.54815,48.66722],[2.55012,48.66449],[2.5575,48.65509],[2.565,48.63828],[2.56916,48.63074]],[[2.54815,48.66722],[2.54815,48.66721]],[[2.54943,49.05068],[2.55877,49.05486]],[[2.54943,49.05068],[2.55589,49.05423],[2.55877,49.05486]],[[2.55588,48.87682],[2.59686,48.8735]],[[2.55615,49.00888],[2.56904,49.00999],[2.57091,49.00324]],[[2.55877,49.05486],[2.5646,49.05279],[2.56586,49.04486]],[[2.55877,49.05486],[2.57279,49.06104]],[[2.57279,49.06104],[2.56667,49.0537],[2.56586,49.04486]],[[2.56586,49.04486],[2.57301,48.99227],[2.57745,48.98584],[2.58647,48.98024]],[[2.5668,48.63555],[2.56916,48.63074]],[[2.56916,48.63074],[2.56932,48.63028]],[[2.56916,48.63074],[2.56926,48.63049],[2.56932,48.63028]],[[2.56932,48.63028],[2.5703,48.627],[2.58676,48.58947],[2.59568,48.56289],[2.61305,48.54715],[2.63001,48.53608],[2.63746,48.53289]],[[2.56932,48.63028],[2.57364,48.62205]],[[2.57279,49.06104],[2.60824,49.07686],[2.6484,49.088],[2.67035,49.09168]],[[2.57725,49.06379],[2.57279,49.06104]],[[2.57369,48.62199],[2.58455,48.61152],[2.61052,48.59925],[2.62813,48.59301],[2.66015,48.58703],[2.70648,48.58686],[2.71781,48.5857],[2.73531,48.58046],[2.74658,48.57444],[2.75345,48.56922]],[[2.5864,48.98028],[2.58647,48.98024]],[[2.58647,48.98024],[2.58682,48.98009],[2.62369,48.96408],[2.62464,48.96368]],[[2.58647,48.98024],[2.58648,48.98024]],[[2.59686,48.8735],[2.63336,48.87515]],[[2.59686,48.8735],[2.59846,48.87552],[2.60916,48.87709],[2.6177,48.87745],[2.63336,48.87515]],[[2.63521,48.87524],[2.62247,48.87233],[2.61285,48.87169],[2.60801,48.87268],[2.6001,48.87183],[2.59686,48.8735]],[[2.60177,48.81216],[2.60973,48.80896],[2.68103,48.78541],[2.68577,48.78109],[2.69226,48.76731],[2.70366,48.75692],[2.72106,48.75061],[2.7293,48.74481]],[[2.60177,48.81216],[2.60672,48.81046],[2.60938,48.81108],[2.61385,48.81837]],[[2.62464,48.96368],[2.64229,48.97572]],[[2.62464,48.96368],[2.64043,48.95966],[2.67126,48.95997],[2.68978,48.95619]],[[2.63336,48.87515],[2.63521,48.87524]],[[2.63521,48.87524],[2.64198,48.87534]],[[2.63746,48.53289],[2.65149,48.52827]],[[2.64198,48.87534],[2.6425,48.87534]],[[2.64231,48.97573],[2.67039,48.99551],[2.71023,49.04627],[2.72918,49.07479]],[[2.6425,48.87534],[2.66823,48.87675],[2.69175,48.88122],[2.74824,48.88519],[2.75526,48.88879],[2.75857,48.89502],[2.76199,48.89807],[2.77478,48.90144]],[[2.6425,48.87534],[2.65251,48.87636],[2.66053,48.87874]],[[2.65149,48.52827],[2.65149,48.52827]],[[2.65149,48.52827],[2.65149,48.52827],[2.65149,48.52827]],[[2.65149,48.52827],[2.65862,48.52562],[2.66587,48.51943]],[[2.65149,48.52827],[2.66286,48.5243],[2.66587,48.51943]],[[2.66052,48.87874],[2.66053,48.87874]],[[2.66053,48.87874],[2.66173,48.87922],[2.66446,48.88067],[2.66738,48.88272],[2.67217,48.88796],[2.68707,48.9108],[2.69799,48.93103],[2.71099,48.9494]],[[2.66053,48.87874],[2.66053,48.87874]],[[2.66587,48.51943],[2.66835,48.49605],[2.67381,48.48673],[2.70757,48.46552],[2.73617,48.44123],[2.73801,48.43458],[2.7373,48.42955],[2.73415,48.42471],[2.72878,48.41992],[2.72597,48.41423],[2.72582,48.4098],[2.72841,48.40417],[2.73302,48.40004],[2.74022,48.39687],[2.76671,48.39405]],[[2.66587,48.51943],[2.67546,48.51702],[2.67895,48.51038]],[[2.68498,48.32909],[2.67749,48.32906]],[[2.67895,48.51037],[2.68605,48.5009],[2.6872,48.49117],[2.69327,48.48758],[2.70704,48.48608],[2.74821,48.48782],[2.7581,48.48533],[2.76811,48.47889],[2.77328,48.46968],[2.77211,48.46006],[2.76634,48.44828],[2.75902,48.4408],[2.7531,48.43066],[2.75341,48.42412],[2.75193,48.41904],[2.75459,48.41501],[2.76617,48.41216],[2.78373,48.41513],[2.78936,48.4149],[2.79267,48.41328],[2.79918,48.40705],[2.8012,48.40254],[2.7989,48.3952],[2.80156,48.39198],[2.80666,48.39116],[2.81661,48.39403],[2.82843,48.39403],[2.84261,48.38636]],[[2.70544,48.6974],[2.67974,48.70209]],[[2.67974,48.70209],[2.69513,48.70014],[2.70544,48.6974]],[[2.68978,48.95619],[2.70284,48.95278]],[[2.68978,48.95619],[2.69792,48.95416],[2.70284,48.95278]],[[2.70284,48.95278],[2.71099,48.9494]],[[2.70284,48.95278],[2.70595,48.95266],[2.70857,48.95289],[2.71367,48.95421],[2.72108,48.95914]],[[2.70544,48.6974],[2.71706,48.69121],[2.72504,48.68258]],[[2.73352,48.70017],[2.72148,48.697],[2.70544,48.6974]],[[2.80426,48.36183],[2.77138,48.34552],[2.75821,48.3377],[2.74984,48.33625],[2.71652,48.33693],[2.70404,48.33578],[2.68797,48.33077],[2.682,48.32676],[2.67746,48.32155],[2.67528,48.31557],[2.67528,48.3115],[2.68392,48.27102],[2.69228,48.2605],[2.69339,48.25442],[2.70184,48.23833],[2.70325,48.23075],[2.70944,48.21911]],[[2.70944,48.21911],[2.70945,48.21248],[2.71525,48.20594],[2.71559,48.19736],[2.71802,48.19335]],[[2.71099,48.9494],[2.71519,48.95415],[2.73196,48.96817]],[[2.71099,48.9494],[2.72695,48.93683]],[[2.71802,48.19335],[2.71802,48.19335]],[[2.71802,48.19335],[2.71854,48.19279],[2.72073,48.19104],[2.74347,48.17609],[2.75833,48.1613]],[[2.71802,48.19335],[2.71802,48.19334]],[[2.73352,48.70017],[2.72812,48.69579],[2.72571,48.69196],[2.72504,48.68258]],[[2.72504,48.68258],[2.7293,48.67117]],[[2.72504,48.68258],[2.73203,48.66417],[2.73482,48.64427],[2.73289,48.6366],[2.72369,48.62401],[2.71914,48.61365],[2.71794,48.60682],[2.7188,48.60091],[2.72186,48.59407],[2.72764,48.58697],[2.73386,48.58198],[2.74676,48.57452],[2.75345,48.56922]],[[2.72695,48.93683],[2.72044,48.94439],[2.71915,48.95244],[2.72277,48.96008],[2.73196,48.96817]],[[2.72866,48.93465],[2.72695,48.93683]],[[2.72695,48.93683],[2.74084,48.92443],[2.77478,48.90144]],[[2.7293,48.74481],[2.73248,48.73919]],[[2.7293,48.74481],[2.73458,48.7431],[2.74637,48.74319],[2.75941,48.73933]],[[2.73196,48.96817],[2.74437,48.97789],[2.7558,48.98363],[2.77224,48.9883],[2.78537,48.98999]],[[2.73248,48.73918],[2.73874,48.70301]],[[2.73886,48.70268],[2.73352,48.70017]],[[2.73874,48.70301],[2.73352,48.70017]],[[2.75393,48.71005],[2.73874,48.70301]],[[2.73874,48.70301],[2.73886,48.70268]],[[2.79108,48.73189],[2.77823,48.72191],[2.73886,48.70268]],[[2.73886,48.70268],[2.74242,48.69754],[2.75095,48.69072],[2.76781,48.6836],[2.78296,48.66483],[2.85801,48.62856]],[[2.75345,48.56922],[2.75357,48.56911]],[[2.75345,48.56922],[2.76758,48.55761]],[[2.75943,48.73932],[2.76525,48.73746],[2.79108,48.73189]],[[2.7667,48.39406],[2.76671,48.39405]],[[2.76671,48.39405],[2.77866,48.39311],[2.78479,48.39124],[2.78768,48.38902],[2.79182,48.38259],[2.79676,48.37935]],[[2.76671,48.39405],[2.76673,48.39405]],[[2.7676,48.5576],[2.78322,48.54503],[2.81495,48.5249],[2.82168,48.51843],[2.84126,48.49431],[2.88365,48.46348],[2.92065,48.42895],[2.93269,48.4212],[2.96457,48.4068],[2.98686,48.39016]],[[2.77478,48.90144],[2.79419,48.89953],[2.81062,48.90314]],[[2.77478,48.90144],[2.78229,48.89262],[2.78474,48.88268],[2.7774,48.83818],[2.77809,48.82907],[2.78157,48.82126],[2.80335,48.79076],[2.80705,48.77987],[2.80427,48.74815],[2.80056,48.74118],[2.79865,48.73891],[2.79667,48.73698],[2.79108,48.73189]],[[2.79335,48.73396],[2.78981,48.73248],[2.78362,48.73354]],[[2.78536,48.98999],[2.78537,48.98999]],[[2.78537,48.98999],[2.81328,48.992],[2.82969,48.99431],[2.86713,49.00659],[2.91486,49.01308],[2.96601,49.0282],[3.0533,49.04796]],[[2.78537,48.98999],[2.78539,48.99]],[[2.79108,48.73189],[2.80407,48.72926],[2.85077,48.72948],[2.85811,48.7303],[2.86616,48.73316],[2.87379,48.73889],[2.89211,48.76859],[2.90692,48.78381],[2.90785,48.78773],[2.90618,48.79378],[2.90815,48.79865],[2.93074,48.81295],[2.9379,48.81352],[2.95292,48.81097],[2.95721,48.80935],[2.96225,48.80538],[2.96689,48.80418],[2.97687,48.80598],[2.98588,48.8103],[3.00103,48.80762],[3.02883,48.81636],[3.03464,48.81604],[3.05637,48.81013],[3.07156,48.81203],[3.08205,48.80768]],[[2.79676,48.37935],[2.79676,48.37935]],[[2.79676,48.37935],[2.80736,48.37404],[2.81056,48.37057],[2.80978,48.36555],[2.80426,48.36183]],[[2.79676,48.37935],[2.80723,48.37857],[2.82075,48.38467],[2.83019,48.3855],[2.83568,48.3837],[2.85573,48.3721],[2.89592,48.36719],[2.90274,48.3681],[2.92491,48.37779],[2.93489,48.38007]],[[2.80426,48.36183],[2.80419,48.3618]],[[2.80427,48.36184],[2.80426,48.36183]],[[2.81062,48.90314],[2.82916,48.90793],[2.84002,48.91264],[2.84567,48.91779],[2.85597,48.93188]],[[2.81062,48.90314],[2.80492,48.90111],[2.80411,48.89952],[2.80496,48.89766],[2.8164,48.8958],[2.83613,48.88768],[2.85196,48.88475],[2.85944,48.87545],[2.86975,48.87215],[2.87523,48.8676],[2.88416,48.86286],[2.90676,48.85941]],[[2.84256,48.3864],[2.84261,48.38636]],[[2.84261,48.38636],[2.8446,48.38504],[2.84631,48.38403],[2.84786,48.38324],[2.86105,48.37869],[2.87239,48.37648],[2.8868,48.37631],[2.92027,48.38467],[2.92408,48.38401],[2.93009,48.38033],[2.93489,48.38007]],[[2.84261,48.38636],[2.84261,48.38636]],[[2.85598,48.9319],[2.86994,48.94453],[2.87394,48.95908],[2.87983,48.96385],[2.88495,48.96441],[2.93048,48.96011],[2.95322,48.96026],[2.96054,48.96212],[2.96735,48.9681]],[[2.858,48.62857],[2.85801,48.62856]],[[2.85801,48.62856],[2.86681,48.62433],[2.88162,48.61723],[2.89198,48.61224],[2.89414,48.6113],[2.97432,48.58794],[3.0161,48.55966],[3.07019,48.55415],[3.15869,48.53397],[3.16765,48.53388],[3.18903,48.53661],[3.19665,48.5362],[3.22006,48.52831]],[[2.85801,48.62856],[2.85803,48.62856]],[[2.93489,48.38007],[2.93623,48.38007]],[[2.93623,48.38007],[2.93617,48.38006]],[[2.98058,48.3826],[2.97232,48.37936],[2.95666,48.3773],[2.94244,48.37976],[2.93835,48.38015],[2.93623,48.38007]],[[2.93623,48.38007],[2.95055,48.37745],[2.97256,48.36651],[3.00301,48.36421],[3.04245,48.35182]],[[2.96735,48.9681],[2.97717,48.97686],[2.98769,48.97831],[3.00662,48.97309],[3.00989,48.97051],[3.01439,48.96286],[3.01999,48.9599],[3.06095,48.95866]],[[2.96735,48.9681],[2.98394,48.9884],[3.01062,48.99981],[3.02307,49.01682],[3.04961,49.03156],[3.0525,49.03553],[3.05285,49.04095]],[[2.98738,48.38692],[2.98264,48.38362],[2.98058,48.3826]],[[2.98686,48.39016],[2.98802,48.38773],[2.98058,48.3826]],[[2.98686,48.39016],[2.98686,48.39016]],[[2.98686,48.39016],[2.98948,48.38838]],[[2.98738,48.38692],[2.98732,48.38688]],[[2.99179,48.38687],[2.98947,48.38767],[2.98738,48.38692]],[[2.98948,48.38838],[2.98738,48.38692]],[[3.28727,48.47255],[3.20088,48.45573],[3.18465,48.44618],[3.16118,48.44046],[3.13081,48.42541],[3.02524,48.39801],[3.0027,48.39682],[2.98948,48.38838]],[[2.98948,48.38838],[2.99179,48.38687]],[[2.99179,48.38687],[3.00968,48.37817],[3.02827,48.37386],[3.12811,48.36957]],[[2.9918,48.38687],[2.99179,48.38687]],[[3.05285,49.04095],[3.05429,49.04716],[3.05999,49.04949]],[[3.05285,49.04095],[3.0533,49.04796]],[[3.0533,49.04796],[3.05999,49.04949]],[[3.0533,49.04796],[3.05864,49.06113],[3.06058,49.07222],[3.06659,49.08431],[3.06563,49.08858],[3.05865,49.09736],[3.05821,49.1022]],[[3.05999,49.04949],[3.08649,49.05498],[3.10989,49.05665],[3.13029,49.05541],[3.19056,49.04728]],[[3.05999,49.04949],[3.06,49.04949]],[[3.06094,48.95866],[3.06095,48.95866]],[[3.06095,48.95866],[3.0728,48.95615],[3.0851,48.95414],[3.11412,48.95061],[3.12676,48.95113],[3.13412,48.95446],[3.14359,48.96478],[3.1559,48.97223],[3.16189,48.97831],[3.16962,48.98166],[3.17627,48.98245],[3.21812,48.97416],[3.23049,48.97379],[3.23773,48.97208],[3.24355,48.96857],[3.25797,48.95278]],[[3.06095,48.95866],[3.06095,48.95866]],[[3.22007,48.5283],[3.24234,48.51945],[3.24879,48.51478]],[[3.24879,48.51478],[3.24848,48.51952],[3.25487,48.52875],[3.26506,48.53187],[3.26913,48.5395],[3.28682,48.54532],[3.29536,48.5529]],[[3.24879,48.51478],[3.2536,48.50863],[3.25118,48.49223],[3.25217,48.48768],[3.25536,48.48271],[3.26741,48.47482],[3.28727,48.47255]],[[3.28727,48.47255],[3.29177,48.47247]],[[3.28728,48.47255],[3.28727,48.47255]],[[3.29176,48.47247],[3.29177,48.47247]],[[3.29177,48.47247],[3.29854,48.47324],[3.33693,48.48452],[3.36577,48.48441],[3.4348,48.49554]],[[3.29537,48.55291],[3.31351,48.55914],[3.31961,48.5585],[3.32807,48.55512],[3.33501,48.55664],[3.34191,48.55524],[3.35081,48.55584],[3.35995,48.55822],[3.36687,48.56465],[3.3744,48.56821],[3.39799,48.59609],[3.40239,48.60345],[3.40639,48.61888],[3.40805,48.63565],[3.41513,48.6575]]]}}]}