{"type":"FeatureCollection","features":[{"type":"Feature","properties":{"name":"Paris urban area (built-up, ~3,100 km2)"},"geometry":{"type":"Polygon","coordinates":[[[2.26256,49.18753],[2.33082,49.1671],[2.37544,49.16705],[2.37024,49.14204],[2.34996,49.13488],[2.29757,49.13366],[2.21986,49.10037],[2.21743,49.08431],[2.22839,49.07583],[2.25331,49.06708],[2.25332,49.04484],[2.26127,49.02841],[2.27658,49.01646],[2.29971,49.01036],[2.33087,49.01155],[2.33286,49.02902],[2.32079,49.03676],[2.28646,49.03371],[2.27263,49.05312],[2.26431,49.05595],[2.27877,49.09065],[2.28644,49.10043],[2.30734,49.10154],[2.3498,49.08981],[2.36436,49.10045],[2.37368,49.09375],[2.3644,49.06706],[2.37455,49.04794],[2.40959,49.01638],[2.41982,49.01156],[2.42712,49.01637],[2.46418,49.07814],[2.44605,49.0796],[2.42433,49.06813],[2.40865,49.06703],[2.41441,49.08812],[2.41036,49.12418],[2.41979,49.14487],[2.43089,49.14216],[2.45315,49.11155],[2.48644,49.11155],[2.49143,49.10139],[2.49755,49.10045],[2.509,49.105],[2.51975,49.13374],[2.54783,49.14048],[2.55307,49.14485],[2.55162,49.15052],[2.53091,49.15595],[2.53895,49.16499],[2.55313,49.1671],[2.56083,49.16183],[2.57543,49.13373],[2.58518,49.12898],[2.58657,49.12261],[2.58045,49.09859],[2.54466,49.07339],[2.53102,49.05597],[2.54758,49.03782],[2.60866,49.02269],[2.61985,49.01156],[2.65464,49.01375],[2.66428,49.01155],[2.66884,49.00263],[2.67532,48.96715],[2.69892,48.97886],[2.70862,48.97825],[2.71975,48.94486],[2.74305,48.95503],[2.75303,48.95601],[2.77547,48.93382],[2.79843,48.94542],[2.80861,48.94485],[2.8197,48.91154],[2.83453,48.91572],[2.84195,48.95599],[2.86935,48.97584],[2.87532,48.98933],[2.91456,48.99148],[2.9704,48.97233],[2.9864,48.98933],[2.99535,48.98712],[2.99751,48.97821],[2.99501,48.97134],[2.97533,48.96706],[2.96423,48.94477],[2.94201,48.94477],[2.90858,48.92257],[2.9021,48.89578],[2.89749,48.88923],[2.87372,48.90016],[2.86412,48.90038],[2.8578,48.8962],[2.85306,48.87813],[2.83094,48.86702],[2.81971,48.8448],[2.79921,48.84077],[2.79748,48.83369],[2.78308,48.83999],[2.76356,48.85414],[2.75303,48.8559],[2.74256,48.85134],[2.71976,48.82259],[2.70939,48.81554],[2.69794,48.81444],[2.66432,48.82256],[2.66986,48.80047],[2.71976,48.7671],[2.70862,48.74477],[2.69319,48.75527],[2.68638,48.75597],[2.6804,48.75349],[2.67532,48.74477],[2.66105,48.73713],[2.62588,48.7401],[2.59758,48.73367],[2.60779,48.71609],[2.64661,48.69941],[2.65312,48.67817],[2.65064,48.659],[2.639,48.66115],[2.60868,48.67809],[2.60796,48.66357],[2.61985,48.63377],[2.6478,48.6335],[2.65886,48.63633],[2.66806,48.65157],[2.68642,48.64486],[2.68837,48.63253],[2.6643,48.62259],[2.65947,48.5867],[2.65313,48.57818],[2.65716,48.57087],[2.68639,48.56709],[2.70863,48.55597],[2.71069,48.53994],[2.70643,48.52774],[2.69778,48.51855],[2.68639,48.51147],[2.61172,48.49689],[2.57539,48.50036],[2.5698,48.50954],[2.5531,48.51147],[2.54197,48.53363],[2.51975,48.53364],[2.50617,48.55224],[2.49755,48.5559],[2.47325,48.55678],[2.40868,48.54479],[2.41011,48.56301],[2.39859,48.58486],[2.39762,48.60033],[2.38516,48.59479],[2.34493,48.59303],[2.33093,48.58925],[2.32075,48.57525],[2.31983,48.54479],[2.26972,48.5713],[2.25332,48.56702],[2.25328,48.5559],[2.21983,48.56701],[2.16424,48.5559],[2.16423,48.58933],[2.1864,48.58933],[2.19744,48.60569],[2.21054,48.61307],[2.23092,48.61156],[2.2314,48.61764],[2.2198,48.62258],[2.19758,48.6448],[2.18427,48.65172],[2.14779,48.65026],[2.11985,48.6559],[2.11983,48.66702],[2.09763,48.66701],[2.09762,48.68921],[2.07541,48.68921],[2.05309,48.71145],[2.03099,48.74477],[1.95689,48.74779],[1.94213,48.74477],[1.94212,48.73367],[1.93108,48.73366],[1.91932,48.7176],[1.91101,48.71198],[1.89769,48.71144],[1.90055,48.742],[1.94202,48.80033],[1.92661,48.80663],[1.88252,48.79872],[1.85323,48.80034],[1.86226,48.81909],[1.86424,48.84488],[1.87868,48.83699],[1.8977,48.83377],[1.93105,48.84488],[1.98657,48.83687],[2.00876,48.84487],[2.01364,48.85443],[2.01987,48.85599],[2.03105,48.85596],[2.03105,48.81163],[2.06148,48.82809],[2.0627,48.85769],[2.04206,48.90039],[2.03746,48.90223],[2.03103,48.88923],[2.01796,48.88832],[1.99763,48.91144],[1.96434,48.91144],[1.96432,48.94477],[1.92847,48.95177],[1.85332,48.94477],[1.85327,48.91144],[1.84356,48.91799],[1.84585,48.94559],[1.84211,48.95593],[1.83339,48.95807],[1.7976,48.95592],[1.76436,48.96706],[1.73263,48.95619],[1.71991,48.95592],[1.70564,48.95918],[1.69763,48.96706],[1.68505,48.97243],[1.65428,48.97284],[1.64205,48.97818],[1.64205,48.98926],[1.60875,49.00041],[1.61066,49.01528],[1.64204,49.03377],[1.63834,49.04605],[1.61334,49.0673],[1.60875,49.08928],[1.63012,49.09481],[1.67063,49.06416],[1.69769,49.05599],[1.69768,49.03371],[1.6926,49.03235],[1.68648,49.04476],[1.66448,49.03372],[1.67454,49.01756],[1.70446,49.01968],[1.73424,49.00071],[1.75155,49.00174],[1.76902,49.00703],[1.77554,49.01153],[1.77559,49.02269],[1.78928,49.01931],[1.82003,49.00047],[1.84209,49.00046],[1.84214,49.01155],[1.85295,49.0106],[1.8672,49.00145],[1.87548,49.00047],[1.89827,49.00972],[1.92449,49.03135],[1.94209,49.0338],[1.94789,49.01168],[1.96435,49.00048],[1.98239,49.01093],[1.98745,49.02363],[1.98653,49.04485],[1.99591,49.04987],[2.00095,49.0687],[2.00912,49.07364],[2.04208,49.07823],[2.06561,49.09739],[2.07544,49.10045],[2.09362,49.09617],[2.11769,49.07921],[2.13095,49.07823],[2.15158,49.0862],[2.18494,49.12717],[2.20214,49.13509],[2.23091,49.13375],[2.22979,49.14931],[2.21841,49.17117],[2.2198,49.1893],[2.26256,49.18753]],[[2.08656,48.75596],[2.08242,48.73201],[2.09053,48.72709],[2.10867,48.73372],[2.09445,48.75405],[2.08656,48.75596]],[[2.14209,48.74476],[2.11916,48.7331],[2.1088,48.73365],[2.11205,48.70383],[2.11986,48.70043],[2.12874,48.71097],[2.15983,48.71882],[2.1642,48.73367],[2.1574,48.73476],[2.14209,48.74476]],[[2.44214,48.67814],[2.45062,48.65078],[2.50314,48.63101],[2.51981,48.61154],[2.52065,48.60467],[2.531,48.58929],[2.51836,48.57615],[2.51982,48.56708],[2.54202,48.55598],[2.58078,48.52705],[2.59936,48.52218],[2.61978,48.5337],[2.61691,48.54749],[2.60862,48.5559],[2.59748,48.55591],[2.59747,48.56701],[2.5865,48.56702],[2.58648,48.57816],[2.55084,48.60768],[2.54195,48.62261],[2.5397,48.66384],[2.53093,48.67811],[2.51793,48.67738],[2.4988,48.66833],[2.48642,48.66701],[2.47541,48.6892],[2.46568,48.69013],[2.44214,48.67814]]]}}]}